{"type":"FeatureCollection","name":"app:Fiskevernsone","crs":{"type":"name","properties":{"name":"urn:ogc:def:crs:OGC:1.3:CRS84"}},"features":[{"type":"Feature","properties":{"gml_id":"app.fiskevernsone.1","lokalId":"bf2391bf-8b72-44db-b37d-5f12287519a2","navnerom":"http://data.geonorge.no/sosi/administrativeenheter/norges_maritime_grenser","datafangstdato":"1977-06-02T23:00:00","rettskildeTittel":["Økonomiske soneloven","Forskrift om fiskevernsone ved Svalbard"],"rettskildeId":["LOV-1976-12-17-91","FOR-1977-06-03-6"],"fastsettingsdato":["1976-12-17","1977-06-03"],"dokumentlink":["https://lovdata.no/dokument/NL/lov/1976-12-17-91","https://lovdata.no/dokument/SF/forskrift/1977-06-03-6"],"land":"SJ","oppdateringsdato":"2020-05-07T22:00:00","gyldigFra":"1977-06-14T23:00:00","virkeområdenavn":"Fiskevernsonen ved Svalbard","datauttaksdato":"2025-04-11T10:06:34"},"geometry":{"type":"Polygon","coordinates":[[[6.37615,74.335136],[6.38619,74.332384],[6.393172,74.330485],[6.397318,74.322895],[6.407239,74.305178],[6.417491,74.287475],[6.428073,74.269787],[6.438982,74.252113],[6.450218,74.234456],[6.46178,74.216814],[6.473665,74.19919],[6.485873,74.181582],[6.498402,74.163991],[6.511251,74.146419],[6.524419,74.128865],[6.537904,74.111329],[6.551704,74.093813],[6.565819,74.076317],[6.580247,74.058841],[6.594987,74.041386],[6.610037,74.023951],[6.625397,74.006538],[6.641063,73.989147],[6.657036,73.971778],[6.673314,73.954432],[6.689896,73.93711],[6.706779,73.919811],[6.723964,73.902536],[6.741447,73.885285],[6.759229,73.86806],[6.777308,73.850859],[6.795682,73.833685],[6.81435,73.816537],[6.833311,73.799415],[6.852563,73.782321],[6.872105,73.765254],[6.891935,73.748215],[6.912053,73.731204],[6.932457,73.714221],[6.953145,73.697268],[6.974116,73.680344],[6.99537,73.663451],[7.016903,73.646587],[7.038716,73.629754],[7.060807,73.612952],[7.083174,73.596182],[7.105817,73.579444],[7.128733,73.562738],[7.151921,73.546064],[7.175381,73.529424],[7.19911,73.512817],[7.223108,73.496243],[7.247373,73.479704],[7.271904,73.4632],[7.2967,73.44673],[7.321758,73.430296],[7.347078,73.413898],[7.372659,73.397536],[7.398499,73.38121],[7.424597,73.364921],[7.450951,73.348669],[7.477561,73.332455],[7.504424,73.316278],[7.53154,73.30014],[7.558908,73.284041],[7.586525,73.26798],[7.614392,73.251959],[7.642505,73.235978],[7.670865,73.220037],[7.699469,73.204136],[7.728317,73.188276],[7.757408,73.172457],[7.786739,73.15668],[7.81631,73.140944],[7.846119,73.125251],[7.876165,73.1096],[7.906447,73.093992],[7.936964,73.078427],[7.967714,73.062906],[7.998695,73.047428],[8.029908,73.031995],[8.06135,73.016606],[8.09302,73.001263],[8.124918,72.985964],[8.15704,72.970711],[8.189388,72.955503],[8.221958,72.940342],[8.25475,72.925228],[8.287763,72.91016],[8.320996,72.895139],[8.354446,72.880166],[8.388114,72.86524],[8.421997,72.850363],[8.456094,72.835534],[8.490405,72.820754],[8.524928,72.806022],[8.615251,72.767556],[8.645886,72.754529],[8.680654,72.739875],[8.71563,72.72527],[8.750813,72.710716],[8.786202,72.696212],[8.821796,72.681759],[8.857594,72.667357],[8.893594,72.653006],[8.929795,72.638707],[8.966196,72.624459],[9.002796,72.610264],[9.039594,72.596121],[9.076588,72.582031],[9.113778,72.567995],[9.151161,72.554011],[9.188738,72.540081],[9.226506,72.526205],[9.264464,72.512383],[9.302612,72.498615],[9.340948,72.484903],[9.379471,72.471245],[9.41818,72.457642],[9.457073,72.444095],[9.49615,72.430604],[9.53541,72.417169],[9.57485,72.40379],[9.61447,72.390468],[9.654269,72.377203],[9.694246,72.363995],[9.7344,72.350844],[9.774729,72.337751],[9.815232,72.324716],[9.855908,72.311739],[10.109821,72.230554],[10.139157,72.221143],[10.179765,72.208213],[10.220544,72.195342],[10.261492,72.18253],[10.29196,72.17309],[10.299811,72.176966],[10.330956,72.192143],[10.362419,72.207262],[10.394201,72.222325],[10.4263,72.23733],[10.458716,72.252276],[10.491449,72.267163],[10.524498,72.281991],[10.557863,72.296758],[10.591543,72.311465],[10.625538,72.32611],[10.659847,72.340694],[10.694469,72.355215],[10.729404,72.369673],[10.764652,72.384068],[10.800211,72.398398],[10.836082,72.412664],[10.872263,72.426864],[10.908753,72.440999],[10.945552,72.455067],[10.98266,72.469068],[11.020075,72.483002],[11.057796,72.496867],[11.095823,72.510664],[11.134156,72.524391],[11.172792,72.538049],[11.211732,72.551636],[11.250974,72.565153],[11.290518,72.578598],[11.330362,72.591971],[11.370506,72.605271],[11.410949,72.618498],[11.451689,72.631652],[11.492726,72.644731],[11.534059,72.657736],[11.575686,72.670665],[11.617607,72.683519],[11.65982,72.696296],[11.702324,72.708996],[11.745119,72.721619],[11.788202,72.734164],[11.831574,72.74663],[11.875232,72.759017],[11.919175,72.771325],[11.963402,72.783553],[12.007912,72.7957],[12.052704,72.807766],[12.097776,72.81975],[12.143127,72.831652],[12.188755,72.843471],[12.23466,72.855208],[12.280839,72.86686],[12.327291,72.878429],[12.374016,72.889912],[12.42101,72.901311],[12.468274,72.912624],[12.515805,72.92385],[12.563602,72.93499],[12.611663,72.946043],[12.659986,72.957008],[12.708571,72.967885],[12.757416,72.978673],[12.806518,72.989372],[12.855876,72.999982],[12.905488,73.010502],[12.955354,73.020931],[13.00547,73.031269],[13.055836,73.041515],[13.106449,73.05167],[13.157307,73.061732],[13.201592,73.07038],[13.681993,73.162582],[13.733844,73.172353],[13.785935,73.18203],[13.838263,73.191612],[13.890827,73.201098],[13.943624,73.210489],[13.996653,73.219785],[14.049911,73.228983],[14.103397,73.238085],[14.157108,73.24709],[14.211042,73.255997],[14.265198,73.264805],[14.319573,73.273516],[14.374165,73.282127],[14.428972,73.290639],[14.483991,73.299051],[14.539221,73.307364],[14.594659,73.315575],[14.650303,73.323686],[14.688746,73.329214],[15.250181,73.40838],[15.634856,73.461358],[15.64352,73.462538],[16.213856,73.539029],[16.608293,73.590652],[17.108053,73.701523],[17.614361,73.811229],[17.74136,73.838341],[17.792624,73.849178],[17.844163,73.859925],[17.895977,73.870583],[17.948063,73.88115],[18.00042,73.891627],[18.053045,73.902011],[18.105938,73.912304],[18.159095,73.922505],[18.212516,73.932613],[18.266198,73.942627],[18.320139,73.952548],[18.374337,73.962374],[18.428791,73.972106],[18.483498,73.981742],[18.538456,73.991283],[18.561108,73.995175],[18.570389,73.996765],[18.625709,74.006168],[18.681275,74.015475],[18.737085,74.024684],[18.793136,74.033796],[18.849428,74.042809],[18.905957,74.051725],[18.962721,74.060541],[19.019718,74.069259],[19.076946,74.077877],[19.134403,74.086394],[19.192085,74.094812],[19.249991,74.103128],[19.308119,74.111343],[19.366466,74.119457],[19.42503,74.127468],[19.483807,74.135378],[19.542797,74.143184],[19.601995,74.150887],[19.661401,74.158487],[19.721011,74.165982],[19.780822,74.173374],[19.840833,74.180661],[19.90104,74.187843],[19.961442,74.194919],[20.022034,74.20189],[20.082816,74.208755],[20.143783,74.215513],[20.204934,74.222165],[20.266266,74.22871],[20.327776,74.235148],[20.389461,74.241478],[20.451318,74.2477],[20.513345,74.253813],[20.575539,74.259818],[20.637898,74.265715],[20.700417,74.271502],[20.763095,74.27718],[20.825929,74.282748],[20.888915,74.288206],[20.952051,74.293553],[21.015334,74.298791],[21.078761,74.303917],[21.142329,74.308932],[21.206036,74.313837],[21.269877,74.318629],[21.33385,74.32331],[21.397952,74.327879],[21.462181,74.332336],[21.526532,74.33668],[21.591004,74.340911],[21.655592,74.34503],[21.720294,74.349035],[21.785107,74.352927],[21.850028,74.356706],[21.915053,74.360371],[21.98018,74.363922],[21.983483,74.364099],[22.084361,74.369474],[22.149634,74.372876],[22.215001,74.376163],[22.280459,74.379336],[22.346005,74.382395],[22.411635,74.385339],[22.477347,74.388168],[22.543137,74.390882],[22.609002,74.393481],[22.674939,74.395964],[22.740945,74.398332],[22.807016,74.400584],[22.873149,74.402721],[22.917117,74.404077],[23.06623,74.414645],[23.130776,74.419135],[23.195446,74.423512],[23.260237,74.427777],[23.325148,74.431928],[23.390174,74.435967],[23.455312,74.439892],[23.52056,74.443704],[23.585914,74.447401],[23.651371,74.450985],[23.716928,74.454455],[23.782582,74.45781],[23.848329,74.461051],[23.914167,74.464178],[23.980091,74.46719],[24.0461,74.470086],[24.11219,74.472868],[24.178356,74.475534],[24.244597,74.478085],[24.31091,74.480521],[24.377289,74.482841],[24.443734,74.485045],[24.510239,74.487133],[24.576802,74.489106],[24.64342,74.490962],[24.71009,74.492702],[24.776807,74.494326],[24.843569,74.495834],[24.910373,74.497225],[24.977214,74.4985],[25.04409,74.499659],[25.110998,74.5007],[25.177934,74.501625],[25.244895,74.502434],[25.311877,74.503126],[25.378877,74.5037],[25.445892,74.504159],[25.512919,74.5045],[25.579953,74.504724],[25.646992,74.504832],[25.714033,74.504823],[25.781072,74.504697],[25.848105,74.504454],[25.91513,74.504094],[25.982143,74.503618],[26.049141,74.503024],[26.11612,74.502314],[26.183077,74.501487],[26.250008,74.500544],[26.316911,74.499484],[26.383783,74.498307],[26.450618,74.497014],[26.469682,74.496623],[27.137139,74.48179],[27.803281,74.464987],[28.46795,74.446221],[28.852322,74.434453],[28.918583,74.432308],[28.984781,74.430046],[29.050913,74.42767],[29.116976,74.425177],[29.182967,74.422569],[29.248883,74.419847],[29.314719,74.417009],[29.380474,74.414056],[29.446144,74.410988],[29.511725,74.407805],[29.577215,74.404509],[29.64261,74.401097],[29.707907,74.397572],[29.773103,74.393933],[29.838196,74.39018],[29.90318,74.386313],[29.938106,74.384186],[30.558418,74.345136],[30.622917,74.340917],[30.687297,74.336584],[30.751553,74.332139],[30.815684,74.327582],[30.879686,74.322913],[30.916003,74.32021],[30.937164,74.318622],[31.000946,74.313771],[31.06459,74.30881],[31.128095,74.303737],[31.191458,74.298553],[31.254675,74.293258],[31.317743,74.287853],[31.380661,74.282338],[31.443424,74.276713],[31.506029,74.270979],[31.568475,74.265135],[31.630758,74.259182],[31.692876,74.253121],[31.754825,74.246951],[31.816603,74.240673],[31.878206,74.234288],[31.939634,74.227794],[32.000881,74.221194],[32.061947,74.214487],[32.122828,74.207673],[32.183521,74.200753],[32.244024,74.193728],[32.304334,74.186596],[32.364449,74.17936],[32.424366,74.172019],[32.484082,74.164573],[32.543595,74.157024],[32.602903,74.14937],[32.662002,74.141614],[32.720891,74.133754],[32.779567,74.125792],[32.838027,74.117727],[32.896269,74.109561],[32.954291,74.101293],[33.012091,74.092924],[33.069665,74.084455],[33.127012,74.075885],[33.184129,74.067216],[33.241014,74.058447],[33.297665,74.049579],[33.354079,74.040612],[33.410255,74.031548],[33.46619,74.022385],[33.521882,74.013125],[33.577329,74.003769],[33.632528,73.994316],[33.687478,73.984767],[33.706594,73.981399],[33.734281,73.98734],[33.78537,73.998406],[33.836311,74.009535],[33.887103,74.020728],[33.937745,74.031984],[33.988234,74.043303],[34.038571,74.054686],[34.088754,74.066131],[34.138782,74.077639],[34.188654,74.08921],[34.238368,74.100842],[34.287924,74.112537],[34.33732,74.124294],[34.386555,74.136112],[34.435627,74.147991],[34.484537,74.159932],[34.533282,74.171934],[34.581861,74.183996],[34.630273,74.196119],[34.678517,74.208302],[34.726591,74.220546],[34.774495,74.232849],[34.822227,74.245212],[34.869786,74.257634],[34.917171,74.270116],[34.964381,74.282657],[35.011413,74.295256],[35.058268,74.307914],[35.104943,74.32063],[35.151439,74.333404],[35.197752,74.346236],[35.243882,74.359126],[35.289829,74.372073],[35.335589,74.385077],[35.381164,74.398138],[35.42655,74.411256],[35.471747,74.42443],[35.516753,74.43766],[35.561567,74.450946],[35.606189,74.464288],[35.650616,74.477685],[35.694847,74.491137],[35.738881,74.504644],[35.782718,74.518206],[35.826354,74.531822],[35.86979,74.545493],[35.913023,74.559217],[35.956053,74.572995],[35.998878,74.586826],[36.041497,74.60071],[36.083908,74.614647],[36.126111,74.628637],[36.168103,74.642679],[36.209884,74.656773],[36.251452,74.670918],[36.292806,74.685116],[36.333944,74.699364],[36.374866,74.713663],[36.415569,74.728013],[36.456052,74.742414],[36.496315,74.756864],[36.536355,74.771364],[36.763667,74.853497],[37,74.937706],[37,74.940699],[37,75.11988],[37,75.194722],[37.265404,75.360709],[37.536753,75.526385],[37.814242,75.691742],[38,75.800206],[38,75.979374],[38,76.158539],[38,76.337702],[38,76.516863],[38,76.696021],[38,76.825025],[38,76.875176],[38,77.054329],[38,77.233479],[38,77.322179],[38,77.412627],[38,77.591772],[38,77.770915],[38,77.950056],[38,78.129195],[38,78.308331],[38,78.487465],[38,78.624861],[37.414103,78.76229],[36.813953,78.898543],[36.199148,79.033579],[35.569279,79.167351],[34.998889,79.284658],[34.998922,79.463781],[34.998957,79.642901],[34.998992,79.822019],[34.999029,80.001135],[34.999067,80.180249],[34.999107,80.359362],[34.999148,80.538472],[34.99919,80.717581],[34.999235,80.896688],[34.999281,81.075793],[34.999329,81.254896],[34.999379,81.433998],[34.999431,81.613098],[34.999485,81.792197],[34.999542,81.971293],[34.999601,82.150389],[34.999663,82.329482],[34.999728,82.508574],[34.999796,82.687665],[34.999868,82.866754],[34.999943,83.045842],[35.000022,83.224929],[35.000081,83.351944],[34.686922,83.527418],[34.356399,83.702689],[34.278534,83.742582],[34.167017,83.7487],[34.019483,83.756632],[33.871188,83.764435],[33.722141,83.77211],[33.572352,83.779655],[33.421831,83.787071],[33.270588,83.794355],[33.118633,83.801508],[32.965978,83.808529],[32.812633,83.815416],[32.658608,83.822171],[32.503916,83.828791],[32.348567,83.835277],[32.192573,83.841627],[32.035945,83.847841],[31.878696,83.853919],[31.720837,83.85986],[31.56238,83.865663],[31.403339,83.871327],[31.243725,83.876853],[31.083552,83.88224],[30.922831,83.887487],[30.761577,83.892593],[30.599802,83.897559],[30.43752,83.902383],[30.274745,83.907065],[30.111489,83.911605],[29.947767,83.916003],[29.783592,83.920257],[29.618979,83.924367],[29.453942,83.928334],[29.345652,83.933839],[29.192341,83.941488],[29.038259,83.949006],[28.883417,83.956393],[28.727826,83.963647],[28.571495,83.970769],[28.414437,83.977757],[28.256663,83.984611],[28.098184,83.99133],[27.939012,83.997913],[27.77916,84.004361],[27.618638,84.010671],[27.457459,84.016844],[27.295637,84.022879],[27.133183,84.028776],[26.97011,84.034533],[26.806432,84.040151],[26.642161,84.045628],[26.477312,84.050965],[26.311898,84.05616],[26.145932,84.061213],[25.979428,84.066124],[25.812401,84.070891],[25.644865,84.075516],[25.476834,84.079997],[25.308322,84.084333],[25.139346,84.088524],[24.969918,84.092571],[24.800055,84.096471],[24.629772,84.100226],[24.459083,84.103834],[24.288005,84.107296],[24.116552,84.11061],[23.944741,84.113777],[23.772587,84.116796],[23.600107,84.119667],[23.427315,84.12239],[23.254229,84.124964],[23.080864,84.127389],[22.907237,84.129664],[22.733364,84.13179],[22.559261,84.133767],[22.384946,84.135594],[22.210435,84.13727],[22.035743,84.138796],[21.860889,84.140172],[21.685889,84.141397],[21.51076,84.142472],[21.335518,84.143396],[21.160181,84.144168],[20.984766,84.14479],[20.809289,84.145261],[20.633767,84.145581],[20.621202,84.145598],[20.447615,84.145762],[20.272056,84.145777],[20.096502,84.145641],[19.920973,84.145353],[19.745485,84.144915],[19.570054,84.144326],[19.394699,84.143585],[19.219435,84.142694],[19.04428,84.141651],[18.86925,84.140458],[18.694363,84.139115],[18.519635,84.137621],[18.345084,84.135976],[18.170725,84.134182],[17.996575,84.132238],[17.822651,84.130143],[17.648969,84.1279],[17.475547,84.125507],[17.302399,84.122965],[17.129543,84.120274],[16.956994,84.117435],[16.784768,84.114447],[16.612882,84.111312],[16.441351,84.108029],[16.270191,84.104599],[16.099417,84.101022],[15.929045,84.097299],[15.759091,84.09343],[15.589568,84.089414],[15.420493,84.085254],[15.251881,84.080949],[15.083745,84.076499],[14.916102,84.071905],[14.748964,84.067168],[14.582347,84.062288],[14.416264,84.057265],[14.25073,84.052101],[14.085758,84.046794],[13.921362,84.041347],[13.757556,84.03576],[13.594352,84.030032],[13.431764,84.024165],[13.269805,84.01816],[13.108487,84.012016],[12.947823,84.005735],[12.787826,83.999317],[12.628507,83.992763],[12.469878,83.986073],[12.311952,83.979248],[12.154739,83.972288],[11.998252,83.965195],[11.8425,83.957969],[11.687497,83.950611],[11.533251,83.943121],[11.379773,83.9355],[11.227075,83.927749],[11.075166,83.919868],[10.924056,83.911859],[10.773754,83.903721],[10.624271,83.895456],[10.475615,83.887065],[10.327795,83.878548],[10.180822,83.869906],[10.034702,83.86114],[9.889445,83.85225],[9.745059,83.843238],[9.601551,83.834104],[9.458931,83.824849],[9.317204,83.815473],[9.176379,83.805978],[9.036463,83.796365],[8.897464,83.786634],[8.759386,83.776786],[8.622238,83.766821],[8.486025,83.756742],[8.350754,83.746548],[8.216431,83.736241],[8.083061,83.725821],[7.988417,83.718314],[7.629767,83.556594],[7.330816,83.380768],[7.047275,83.204772],[6.777991,83.028617],[6.521919,82.852316],[6.278117,82.675879],[6.045727,82.499316],[5.855942,82.348625],[5.223593,82.191021],[4.616178,82.032513],[4.568058,82.019644],[4.010555,81.858514],[3.474593,81.696651],[2.959026,81.534098],[2.462781,81.370893],[2.205986,81.283706],[1.695946,81.122484],[1.203991,80.960594],[0.729236,80.79807],[0.270847,80.634944],[-0.17196,80.471248],[-0.599924,80.30701],[-1.013742,80.142258],[-1.41407,79.977016],[-1.637397,79.882217],[-1.840322,79.706746],[-2.036515,79.531151],[-2.226306,79.355439],[-2.355314,79.232567],[-2.537814,79.089997],[-2.734286,78.914838],[-2.924721,78.739552],[-3.109392,78.564148],[-3.288556,78.388629],[-3.343875,78.333333],[-3.310437,78.154327],[-3.27798,77.975315],[-3.246461,77.796297],[-3.21584,77.617273],[-3.214656,77.610244],[-3.08818,77.433197],[-2.965163,77.25609],[-2.915644,77.183389],[-2.831779,77.00522],[-2.789717,76.914006],[-2.785869,76.912723],[-2.741328,76.897922],[-2.696534,76.883169],[-2.651489,76.868462],[-2.606195,76.853803],[-2.560654,76.839192],[-2.514866,76.824629],[-2.468834,76.810114],[-2.42256,76.795648],[-2.376043,76.78123],[-2.329288,76.766861],[-2.282294,76.752542],[-2.235064,76.738273],[-2.187599,76.724053],[-2.1399,76.709883],[-2.09197,76.695764],[-2.043809,76.681695],[-1.995419,76.667677],[-1.946803,76.653711],[-1.89796,76.639795],[-1.848894,76.625932],[-1.799604,76.61212],[-1.750094,76.59836],[-1.700364,76.584652],[-1.650416,76.570998],[-1.600251,76.557396],[-1.54987,76.543847],[-1.499276,76.530351],[-1.44847,76.516909],[-1.397453,76.503521],[-1.346227,76.490186],[-1.294792,76.476906],[-1.243152,76.46368],[-1.191306,76.45051],[-1.139256,76.437394],[-1.087005,76.424333],[-1.034552,76.411327],[-0.981901,76.398377],[-0.929051,76.385483],[-0.876005,76.372645],[-0.822763,76.359863],[-0.769328,76.347138],[-0.715701,76.334469],[-0.661882,76.321858],[-0.607874,76.309303],[-0.553677,76.296806],[-0.499294,76.284366],[-0.444725,76.271984],[-0.389972,76.25966],[-0.335036,76.247394],[-0.279918,76.235186],[0.016583,76.16929],[0.558702,76.046221],[0.574539,76.042581],[0.628421,76.030259],[0.682486,76.017996],[0.73673,76.005792],[0.791153,75.993646],[0.803594,75.988755],[0.842561,75.973528],[0.881783,75.958347],[0.921259,75.943211],[0.960986,75.92812],[1.000965,75.913075],[1.041192,75.898076],[1.134182,75.863461],[1.531551,75.713202],[1.543246,75.70873],[1.582764,75.693707],[1.622529,75.67873],[1.662538,75.663801],[1.70279,75.648917],[1.743283,75.634082],[1.784016,75.619293],[1.824988,75.604552],[1.866197,75.589859],[1.907641,75.575215],[1.949319,75.560619],[1.991229,75.546072],[2.033371,75.531574],[2.075742,75.517126],[2.118342,75.502727],[2.161168,75.488378],[2.204219,75.474079],[2.247495,75.459831],[2.290992,75.445634],[2.334711,75.431487],[2.378649,75.417392],[2.422805,75.403349],[2.467178,75.389357],[2.511767,75.375417],[2.556569,75.36153],[2.601584,75.347696],[2.64681,75.333914],[2.692246,75.320185],[2.73789,75.30651],[2.783741,75.292889],[2.829798,75.279321],[2.876059,75.265807],[2.922523,75.252348],[2.969189,75.238944],[3.016055,75.225594],[3.063119,75.212299],[3.110382,75.19906],[3.15784,75.185876],[3.205493,75.172749],[3.25334,75.159677],[3.301379,75.146661],[3.349609,75.133703],[3.398028,75.1208],[3.446636,75.107955],[3.495431,75.095167],[3.544411,75.082437],[3.593576,75.069764],[3.642924,75.05715],[3.692453,75.044593],[3.742163,75.032095],[3.792053,75.019655],[3.84212,75.007274],[3.892364,74.994952],[3.942783,74.98269],[3.993377,74.970486],[4.044143,74.958343],[4.095081,74.946259],[4.14619,74.934236],[4.197468,74.922273],[4.248913,74.91037],[4.300526,74.898528],[4.352304,74.886747],[4.404246,74.875027],[4.456351,74.863368],[4.508617,74.851771],[4.561045,74.840236],[4.791756,74.7894],[4.82985,74.779096],[4.87755,74.766291],[4.925434,74.753544],[4.973501,74.740854],[5.021749,74.728223],[5.070177,74.715649],[5.118784,74.703135],[5.167569,74.690679],[5.21653,74.678282],[5.249431,74.667694],[5.29263,74.653896],[5.336034,74.640152],[5.379642,74.626462],[5.423451,74.612826],[5.467461,74.599244],[5.511671,74.585716],[5.556079,74.572244],[5.600683,74.558826],[5.645484,74.545464],[5.690478,74.532157],[5.735665,74.518905],[5.944178,74.457679],[5.973099,74.449163],[6.01825,74.43596],[6.063591,74.422814],[6.10912,74.409724],[6.154837,74.396691],[6.20074,74.383714],[6.246828,74.370795],[6.2931,74.357934],[6.339554,74.34513],[6.37615,74.335136]],[[30.347091,80.178732],[30.350548,80.182186],[30.355552,80.186582],[30.36114,80.190957],[30.367308,80.19531],[30.374056,80.199637],[30.38138,80.203938],[30.389277,80.208209],[30.397744,80.212449],[30.406778,80.216656],[30.416374,80.220826],[30.426528,80.224958],[30.435599,80.228441],[30.50093,80.252813],[30.512159,80.256867],[30.523933,80.260877],[30.536248,80.264841],[30.549096,80.268756],[30.562473,80.272621],[30.576371,80.276434],[30.590784,80.280192],[30.605705,80.283894],[30.621128,80.287538],[30.637043,80.291121],[30.643148,80.292451],[30.71709,80.308386],[30.733725,80.31188],[30.750834,80.315309],[30.76841,80.318672],[30.786443,80.321966],[30.804925,80.32519],[30.823845,80.328343],[30.843195,80.331422],[30.862964,80.334426],[30.883143,80.337354],[30.903721,80.340203],[30.909002,80.340913],[31.078075,80.363416],[31.150666,80.379202],[31.167257,80.382718],[31.184328,80.38617],[31.201872,80.389556],[31.21988,80.392874],[31.238343,80.396123],[31.257252,80.3993],[31.276596,80.402405],[31.296367,80.405436],[31.316554,80.40839],[31.337147,80.411267],[31.358135,80.414064],[31.379508,80.416781],[31.401254,80.419415],[31.41055,80.420503],[31.639457,80.446872],[31.661835,80.449372],[31.684558,80.451788],[31.707614,80.454116],[31.730991,80.456356],[31.754677,80.458507],[31.778658,80.460567],[31.802923,80.462536],[31.827459,80.464412],[31.852253,80.466194],[31.877291,80.467881],[31.885799,80.46843],[32.44283,80.503349],[32.468357,80.504868],[32.494091,80.506291],[32.520021,80.507615],[32.546131,80.508841],[32.572408,80.509968],[32.598839,80.510995],[32.625407,80.511922],[32.652101,80.512748],[32.678904,80.513473],[32.705803,80.514096],[32.732784,80.514617],[32.759831,80.515036],[32.786931,80.515353],[32.814068,80.515566],[32.841228,80.515677],[32.868397,80.515686],[32.89556,80.515591],[32.922702,80.515394],[32.949809,80.515094],[32.976865,80.514691],[33.003858,80.514186],[33.030771,80.513579],[33.05759,80.512871],[33.084302,80.512061],[33.110892,80.51115],[33.137345,80.510139],[33.163648,80.509028],[33.189786,80.507818],[33.215745,80.506509],[33.241512,80.505102],[33.267072,80.503598],[33.292413,80.501998],[33.293266,80.501942],[33.568736,80.483763],[33.593738,80.482044],[33.618492,80.480231],[33.642983,80.478325],[33.667198,80.476327],[33.691126,80.474237],[33.714752,80.472057],[33.738066,80.469788],[33.761054,80.467431],[33.783705,80.464988],[33.806007,80.462459],[33.827947,80.459847],[33.849516,80.457152],[33.870701,80.454376],[33.891493,80.451521],[33.911879,80.448587],[33.93185,80.445577],[33.951395,80.442492],[33.970505,80.439334],[33.98917,80.436104],[33.995554,80.434965],[34.315823,80.376843],[34.319718,80.376127],[34.386868,80.36369],[34.404555,80.360332],[34.421774,80.356907],[34.438516,80.353418],[34.454774,80.349865],[34.47054,80.346251],[34.485805,80.342578],[34.500562,80.338847],[34.514805,80.335062],[34.528525,80.331222],[34.541718,80.327332],[34.554375,80.323392],[34.566493,80.319405],[34.578064,80.315372],[34.589084,80.311296],[34.599547,80.30718],[34.609449,80.303024],[34.618785,80.298832],[34.627552,80.294605],[34.635745,80.290346],[34.643361,80.286057],[34.650397,80.281739],[34.65685,80.277396],[34.662718,80.27303],[34.667998,80.268642],[34.672688,80.264235],[34.676786,80.259811],[34.680293,80.255373],[34.683205,80.250923],[34.685524,80.246462],[34.687248,80.241994],[34.688377,80.23752],[34.688911,80.233044],[34.688852,80.228566],[34.6882,80.224089],[34.686956,80.219617],[34.685121,80.21515],[34.682697,80.210691],[34.679687,80.206243],[34.676092,80.201807],[34.675594,80.201244],[34.636748,80.157626],[34.632534,80.153207],[34.627743,80.148805],[34.62238,80.144422],[34.616446,80.140061],[34.609947,80.135724],[34.602887,80.131413],[34.595268,80.12713],[34.587096,80.122877],[34.578376,80.118657],[34.574713,80.116968],[34.549869,80.105654],[34.540409,80.101482],[34.532525,80.0982],[34.45586,80.066952],[34.445508,80.062846],[34.434632,80.058781],[34.423238,80.054759],[34.411333,80.050781],[34.398922,80.046851],[34.386013,80.042969],[34.372612,80.039138],[34.361982,80.036229],[34.357317,80.034975],[34.343068,80.031238],[34.328347,80.027557],[34.313163,80.023933],[34.297523,80.020369],[34.281436,80.016866],[34.264909,80.013426],[34.247952,80.01005],[34.230573,80.00674],[34.21278,80.003498],[34.194583,80.000325],[34.175991,79.997224],[34.157014,79.994194],[34.13766,79.991239],[34.11794,79.988358],[34.097864,79.985555],[34.077441,79.982829],[34.056681,79.980183],[34.035596,79.977617],[34.014194,79.975133],[33.992488,79.972733],[33.970487,79.970416],[33.948202,79.968185],[33.925644,79.96604],[33.902824,79.963982],[33.879754,79.962013],[33.856444,79.960134],[33.832906,79.958344],[33.809151,79.956646],[33.78519,79.955039],[33.765944,79.953825],[32.803266,79.892984],[32.079409,79.844894],[32.055613,79.843332],[32.031631,79.841863],[32.007475,79.840489],[31.983155,79.839208],[31.958684,79.838023],[31.934073,79.836933],[31.909335,79.83594],[31.884481,79.835043],[31.859523,79.834243],[31.834472,79.83354],[31.809342,79.832936],[31.784143,79.832429],[31.758889,79.83202],[31.73359,79.83171],[31.708259,79.831499],[31.682909,79.831387],[31.657551,79.831373],[31.632197,79.831458],[31.60686,79.831641],[31.581551,79.831924],[31.556283,79.832305],[31.531067,79.832784],[31.505916,79.833361],[31.480842,79.834036],[31.455857,79.834809],[31.430973,79.835679],[31.406201,79.836645],[31.381553,79.837708],[31.357042,79.838867],[31.332679,79.840121],[31.308475,79.841469],[31.284444,79.842911],[31.260595,79.844447],[31.23694,79.846075],[31.213491,79.847795],[31.19026,79.849606],[31.167257,79.851507],[31.144494,79.853497],[31.121982,79.855575],[31.099731,79.857741],[31.077753,79.859992],[31.056059,79.862329],[31.034658,79.86475],[31.013562,79.867253],[30.992781,79.869838],[30.972325,79.872503],[30.952204,79.875248],[30.932428,79.87807],[30.913008,79.880968],[30.901967,79.882675],[30.748231,79.906653],[30.729301,79.90966],[30.71075,79.91274],[30.692588,79.915892],[30.674824,79.919113],[30.657468,79.922402],[30.640527,79.925758],[30.624011,79.929179],[30.607928,79.932664],[30.592286,79.93621],[30.577094,79.939816],[30.562359,79.94348],[30.54809,79.9472],[30.534293,79.950975],[30.527643,79.952863],[30.43755,79.978672],[30.424405,79.982522],[30.411752,79.986421],[30.399596,79.990369],[30.387945,79.994363],[30.376805,79.9984],[30.366182,80.002481],[30.356081,80.006601],[30.34651,80.010759],[30.337472,80.014953],[30.328973,80.019182],[30.321017,80.023442],[30.313611,80.027732],[30.306758,80.03205],[30.300461,80.036393],[30.294726,80.040759],[30.289555,80.045147],[30.284952,80.049553],[30.28092,80.053976],[30.277461,80.058414],[30.276299,80.060102],[30.274189,80.063282],[30.271524,80.067736],[30.269439,80.072199],[30.267935,80.07667],[30.267014,80.081144],[30.266676,80.085622],[30.266822,80.089144],[30.267554,80.097029],[30.268263,80.101505],[30.269559,80.105977],[30.271441,80.110443],[30.273909,80.114901],[30.273961,80.114984],[30.284985,80.132658],[30.28806,80.137105],[30.291722,80.141538],[30.295968,80.145957],[30.300798,80.150357],[30.30621,80.154738],[30.312202,80.159097],[30.318772,80.163432],[30.325916,80.16774],[30.333633,80.17202],[30.341918,80.176268],[30.347091,80.178732]],[[27.8142,78.560805],[27.777363,78.550106],[27.76444,78.546436],[27.751113,78.542824],[27.737389,78.539272],[27.723274,78.535782],[27.708777,78.532355],[27.693904,78.528993],[27.678663,78.525697],[27.663062,78.52247],[27.647109,78.519313],[27.630812,78.516227],[27.614179,78.513213],[27.597219,78.510274],[27.579939,78.507411],[27.562349,78.504625],[27.544457,78.501918],[27.526272,78.49929],[27.507804,78.496743],[27.489061,78.494279],[27.470053,78.491898],[27.450788,78.489602],[27.443337,78.488744],[27.251829,78.466814],[27.232299,78.464624],[27.212534,78.462521],[27.192545,78.460506],[27.172342,78.458581],[27.151933,78.456745],[27.150964,78.45666],[27.14553,78.456187],[27.124919,78.454447],[27.104124,78.452797],[27.083154,78.451241],[27.06202,78.449778],[27.040732,78.448409],[27.0193,78.447134],[26.997736,78.445955],[26.976048,78.444872],[26.954248,78.443885],[26.932346,78.442995],[26.910353,78.442203],[26.888279,78.441508],[26.866135,78.440911],[26.843931,78.440412],[26.821679,78.440012],[26.799389,78.439711],[26.799302,78.43971],[26.79543,78.439666],[26.773112,78.439464],[26.750778,78.43936],[26.728438,78.439356],[26.706103,78.439451],[26.683784,78.439644],[26.661491,78.439937],[26.639235,78.440328],[26.617027,78.440818],[26.594877,78.441406],[26.572797,78.442093],[26.550796,78.442877],[26.528885,78.443758],[26.507076,78.444736],[26.485378,78.445811],[26.463802,78.446981],[26.442358,78.448247],[26.421057,78.449608],[26.399909,78.451063],[26.378924,78.452611],[26.358113,78.454252],[26.337486,78.455985],[26.317052,78.457809],[26.296821,78.459723],[26.276804,78.461726],[26.272193,78.462203],[26.268409,78.462597],[26.248668,78.464708],[26.229161,78.466907],[26.209899,78.469191],[26.190891,78.47156],[26.172147,78.474013],[26.153676,78.476549],[26.135486,78.479165],[26.117588,78.481862],[26.09999,78.484637],[26.0827,78.48749],[26.065727,78.490419],[26.04908,78.493422],[26.032768,78.496498],[26.016797,78.499645],[26.001178,78.502863],[25.985916,78.506149],[25.971021,78.509502],[25.956499,78.512921],[25.942359,78.516402],[25.928607,78.519946],[25.915251,78.52355],[25.910524,78.524866],[25.805896,78.554159],[25.793023,78.557837],[25.780563,78.561571],[25.768521,78.565359],[25.756905,78.5692],[25.749367,78.571799],[25.603277,78.622802],[25.592285,78.62672],[25.581736,78.630686],[25.571635,78.634697],[25.561987,78.638751],[25.552798,78.642847],[25.544072,78.646982],[25.535815,78.651155],[25.531613,78.65339],[25.408615,78.719623],[25.400995,78.723845],[25.393858,78.728101],[25.387207,78.732386],[25.381046,78.736699],[25.375379,78.741038],[25.370209,78.745401],[25.365539,78.749786],[25.363485,78.751887],[25.353673,78.76222],[25.34974,78.766632],[25.346315,78.77106],[25.3434,78.775502],[25.340996,78.779956],[25.339107,78.784419],[25.337732,78.788889],[25.337259,78.791022],[25.335529,78.799912],[25.334917,78.804389],[25.334823,78.808867],[25.335248,78.813344],[25.336193,78.817819],[25.337657,78.822288],[25.339641,78.826749],[25.342144,78.831201],[25.345165,78.835641],[25.348704,78.840066],[25.352759,78.844475],[25.357329,78.848865],[25.362412,78.853234],[25.368006,78.857579],[25.374109,78.861899],[25.380718,78.866192],[25.387831,78.870454],[25.388641,78.870919],[25.39429,78.874149],[25.401962,78.878375],[25.41013,78.882567],[25.418792,78.886722],[25.427943,78.890838],[25.437579,78.894913],[25.447695,78.898945],[25.458287,78.902932],[25.46935,78.906871],[25.480879,78.910761],[25.492867,78.9146],[25.50531,78.918385],[25.518201,78.922115],[25.531534,78.925788],[25.545302,78.929402],[25.556772,78.932285],[25.564335,78.934149],[25.578879,78.937651],[25.593839,78.941088],[25.609207,78.944458],[25.624976,78.947761],[25.636876,78.950156],[25.775303,78.977447],[25.791829,78.98062],[25.808734,78.98372],[25.826008,78.986746],[25.843644,78.989696],[25.861632,78.992568],[25.879962,78.995361],[25.898626,78.998073],[25.917614,79.000703],[25.936916,79.00325],[25.956522,79.005712],[25.976422,79.008088],[25.996606,79.010377],[26.017063,79.012577],[26.037782,79.014688],[26.058752,79.016708],[26.079963,79.018636],[26.101404,79.020471],[26.123062,79.022212],[26.144927,79.023858],[26.164288,79.025225],[26.172547,79.02579],[26.194771,79.027255],[26.215252,79.02851],[26.220225,79.028804],[26.242772,79.030082],[26.265468,79.031262],[26.288303,79.032342],[26.311265,79.033323],[26.33434,79.034204],[26.357516,79.034983],[26.362281,79.035131],[27.294236,79.062057],[27.374496,79.064238],[27.680082,79.115724],[27.698015,79.118654],[27.716302,79.121506],[27.734933,79.124279],[27.7539,79.12697],[27.773191,79.129579],[27.792798,79.132104],[27.81271,79.134544],[27.832917,79.136898],[27.853408,79.139164],[27.874172,79.141341],[27.8952,79.143429],[27.916479,79.145425],[27.937998,79.147329],[27.959747,79.14914],[27.979461,79.150685],[28.00136,79.152352],[28.023519,79.153982],[28.045873,79.155516],[28.068411,79.156953],[28.091121,79.158293],[28.11399,79.159534],[28.137007,79.160677],[28.160159,79.161721],[28.183435,79.162664],[28.206821,79.163507],[28.225834,79.164116],[29.168701,79.191118],[30.115984,79.21525],[30.23997,79.218188],[30.263749,79.218695],[30.287584,79.2191],[30.311464,79.219402],[30.335375,79.219602],[30.359305,79.2197],[30.38324,79.219695],[30.407168,79.219588],[30.431077,79.219378],[30.454953,79.219065],[30.478783,79.218651],[30.502556,79.218134],[30.526258,79.217515],[30.549876,79.216796],[30.573399,79.215975],[30.596813,79.215053],[30.620106,79.214032],[30.643266,79.212911],[30.66628,79.211691],[30.689137,79.210372],[30.711823,79.208956],[30.734328,79.207443],[30.756638,79.205835],[30.778743,79.204131],[30.800631,79.202332],[30.822289,79.200441],[30.843708,79.198457],[30.864874,79.196382],[30.885779,79.194216],[30.906409,79.191962],[30.926756,79.18962],[30.946808,79.187191],[30.966554,79.184677],[30.985985,79.182079],[31.00509,79.179399],[31.023859,79.176637],[31.042284,79.173795],[31.060354,79.170876],[31.07806,79.16788],[31.095394,79.164808],[31.100335,79.163906],[31.14004,79.156604],[31.156857,79.153436],[31.173281,79.150197],[31.189305,79.146888],[31.20492,79.143511],[31.220118,79.140069],[31.234891,79.136562],[31.242642,79.134654],[31.244342,79.13423],[31.258449,79.130628],[31.272113,79.126966],[31.285327,79.123247],[31.298087,79.119471],[31.310384,79.115643],[31.322214,79.111762],[31.333571,79.107832],[31.344449,79.103854],[31.354843,79.09983],[31.364749,79.095763],[31.374161,79.091655],[31.383076,79.087507],[31.391489,79.083322],[31.399397,79.079102],[31.406796,79.074849],[31.413683,79.070566],[31.420055,79.066254],[31.425909,79.061916],[31.431244,79.057554],[31.436056,79.05317],[31.437314,79.051934],[31.444732,79.044517],[31.448867,79.040108],[31.452476,79.035683],[31.455558,79.031244],[31.458113,79.026792],[31.460139,79.022331],[31.461636,79.017862],[31.462604,79.013387],[31.463043,79.00891],[31.462954,79.004432],[31.462338,78.999956],[31.461194,78.995483],[31.459525,78.991016],[31.457332,78.986558],[31.454616,78.98211],[31.45138,78.977675],[31.448534,78.974268],[31.447791,78.973426],[31.44364,78.969019],[31.438976,78.964631],[31.433801,78.960264],[31.428118,78.95592],[31.421932,78.951602],[31.415245,78.947311],[31.408062,78.94305],[31.400387,78.938821],[31.392224,78.934626],[31.383577,78.930467],[31.374452,78.926346],[31.364854,78.922266],[31.354788,78.918227],[31.344259,78.914233],[31.333273,78.910285],[31.321836,78.906385],[31.309954,78.902535],[31.297633,78.898737],[31.28488,78.894993],[31.271702,78.891304],[31.258105,78.887673],[31.244097,78.884101],[31.229684,78.88059],[31.214875,78.877142],[31.199676,78.873759],[31.184097,78.870441],[31.178928,78.869372],[31.006942,78.833905],[30.990968,78.830668],[30.974631,78.827501],[30.95794,78.824405],[30.940903,78.821381],[30.923528,78.818432],[30.905825,78.815558],[30.887802,78.812761],[30.869468,78.810042],[30.850832,78.807403],[30.831904,78.804845],[30.812692,78.802369],[30.799915,78.800787],[30.254703,78.733456],[29.567205,78.615767],[29.339985,78.57598],[29.322927,78.573042],[29.305548,78.57018],[29.287857,78.567395],[29.269864,78.564689],[29.251576,78.562063],[29.233003,78.559517],[29.214154,78.557054],[29.195039,78.554675],[29.175666,78.55238],[29.156046,78.550171],[29.136188,78.548049],[29.116101,78.546015],[29.095796,78.544069],[29.075282,78.542214],[29.05457,78.540449],[29.03367,78.538776],[29.012591,78.537195],[28.991344,78.535707],[28.969939,78.534313],[28.948387,78.533013],[28.926698,78.531809],[28.904882,78.530701],[28.882951,78.529688],[28.860914,78.528773],[28.838782,78.527954],[28.816566,78.527233],[28.794277,78.526611],[28.771925,78.526086],[28.749521,78.52566],[28.727076,78.525332],[28.704601,78.525103],[28.682106,78.524974],[28.659602,78.524943],[28.6371,78.525011],[28.614612,78.525179],[28.592146,78.525445],[28.569716,78.52581],[28.54733,78.526273],[28.525001,78.526835],[28.502738,78.527495],[28.480553,78.528253],[28.458456,78.529109],[28.436458,78.530061],[28.414569,78.53111],[28.3928,78.532255],[28.371162,78.533495],[28.349664,78.534831],[28.328318,78.53626],[28.307134,78.537784],[28.286122,78.5394],[28.265291,78.541108],[28.244653,78.542907],[28.224218,78.544797],[28.203995,78.546776],[28.183993,78.548844],[28.164224,78.550999],[28.144697,78.553241],[28.125421,78.555568],[28.106406,78.557979],[28.101572,78.558611],[27.972731,78.575504],[27.816329,78.561426],[27.8142,78.560805]],[[17.191349,76.289576],[17.021647,76.267645],[17.004999,76.265541],[16.98816,76.263525],[16.971139,76.261599],[16.953945,76.259762],[16.936585,76.258017],[16.919069,76.256364],[16.901405,76.254804],[16.883601,76.253337],[16.865667,76.251965],[16.847611,76.250688],[16.829441,76.249506],[16.811167,76.24842],[16.792798,76.247431],[16.774342,76.246539],[16.755809,76.245745],[16.737207,76.245049],[16.718546,76.244451],[16.699834,76.243951],[16.681081,76.243551],[16.662296,76.243249],[16.643487,76.243047],[16.624665,76.242944],[16.605837,76.24294],[16.587014,76.243036],[16.568204,76.243231],[16.549417,76.243525],[16.530661,76.243918],[16.511946,76.24441],[16.49328,76.245],[16.474674,76.245689],[16.456135,76.246476],[16.437673,76.247361],[16.419297,76.248343],[16.401016,76.249421],[16.382838,76.250596],[16.364773,76.251866],[16.346829,76.253231],[16.329015,76.254691],[16.311341,76.256244],[16.293813,76.25789],[16.276441,76.259628],[16.259234,76.261458],[16.2422,76.263377],[16.225348,76.265386],[16.208684,76.267484],[16.192219,76.269669],[16.17596,76.27194],[16.159914,76.274297],[16.14409,76.276737],[16.128496,76.279261],[16.11314,76.281866],[16.098029,76.284551],[16.08317,76.287316],[16.068571,76.290158],[16.05424,76.293077],[16.040184,76.29607],[16.034571,76.297303],[15.913537,76.324056],[15.899824,76.327146],[15.886404,76.330307],[15.873281,76.333538],[15.860463,76.336837],[15.847956,76.340203],[15.835767,76.343634],[15.823902,76.347128],[15.812367,76.350684],[15.801167,76.354299],[15.790309,76.357973],[15.779799,76.361703],[15.777733,76.362458],[15.58667,76.43218],[15.57648,76.435968],[15.566651,76.439807],[15.557187,76.443698],[15.554041,76.445037],[15.183709,76.602022],[15.164927,76.609874],[14.691322,76.751947],[14.657822,76.761852],[14.646011,76.765421],[14.634548,76.76905],[14.623438,76.772737],[14.612687,76.776479],[14.602301,76.780276],[14.598689,76.781641],[14.217116,76.925358],[14.022351,76.961092],[14.007061,76.963948],[13.992054,76.966879],[13.977336,76.969886],[13.962915,76.972965],[13.948798,76.976116],[13.934993,76.979337],[13.921505,76.982627],[13.909964,76.985561],[13.545476,77.079157],[13.532418,77.082553],[13.519698,77.086012],[13.507322,77.089534],[13.495298,77.093117],[13.483631,77.096759],[13.472327,77.100459],[13.461392,77.104213],[13.450832,77.108022],[13.440653,77.111881],[13.43086,77.115791],[13.421457,77.119748],[13.41245,77.123752],[13.403845,77.127799],[13.395645,77.131888],[13.387854,77.136017],[13.382793,77.138846],[13.08697,77.305613],[13.016918,77.344435],[13.009594,77.348616],[13.002696,77.352832],[12.996228,77.357081],[12.990194,77.36136],[12.984598,77.365668],[12.979443,77.370002],[12.974731,77.374361],[12.970466,77.378741],[12.96665,77.383141],[12.963286,77.387559],[12.960375,77.391993],[12.95792,77.396439],[12.955922,77.400896],[12.954384,77.405362],[12.954263,77.405782],[12.937233,77.465635],[12.829341,77.643263],[12.795742,77.697559],[12.608652,77.835665],[12.602984,77.839981],[12.597773,77.844323],[12.593025,77.848688],[12.588741,77.853075],[12.584924,77.857481],[12.581576,77.861903],[12.5787,77.866341],[12.576297,77.870791],[12.57437,77.875251],[12.57292,77.879719],[12.571948,77.884193],[12.571454,77.88867],[12.571441,77.893148],[12.57165,77.895713],[12.581547,77.98336],[12.513524,78.000505],[12.080934,78.001964],[12.059403,78.002069],[12.037888,78.002274],[12.016399,78.002577],[12.007102,78.00274],[11.87003,78.005234],[11.848588,78.005669],[11.827198,78.006202],[11.805868,78.006834],[11.784609,78.007563],[11.763432,78.00839],[11.742347,78.009315],[11.721364,78.010336],[11.700493,78.011453],[11.679744,78.012666],[11.659127,78.013975],[11.638653,78.015377],[11.61833,78.016874],[11.59817,78.018464],[11.578182,78.020146],[11.558375,78.02192],[11.538759,78.023784],[11.519344,78.025738],[11.50014,78.027781],[11.481155,78.029912],[11.4624,78.03213],[11.443882,78.034433],[11.425612,78.036821],[11.407599,78.039293],[11.38985,78.041847],[11.372376,78.044482],[11.355185,78.047196],[11.338285,78.049989],[11.321684,78.052859],[11.305392,78.055805],[11.289416,78.058825],[11.273764,78.061917],[11.259799,78.064796],[11.15164,78.08748],[11.136572,78.090702],[11.121852,78.093992],[11.107486,78.097349],[11.093481,78.100771],[11.079846,78.104256],[11.066586,78.107803],[11.057763,78.110257],[10.539272,78.254509],[10.252877,78.332321],[10.239781,78.335932],[10.227082,78.339601],[10.214787,78.343327],[10.202902,78.347107],[10.191433,78.350939],[10.180387,78.354822],[10.169768,78.358754],[10.159584,78.362733],[10.149839,78.366757],[10.140539,78.370823],[10.131689,78.374931],[10.123293,78.379077],[10.115356,78.38326],[10.111781,78.385241],[9.807962,78.55376],[9.649622,78.639564],[9.642039,78.643785],[9.634934,78.64804],[9.630827,78.650656],[9.519972,78.72255],[9.513566,78.726849],[9.507651,78.731176],[9.504607,78.733567],[9.496351,78.740224],[9.491199,78.744588],[9.486548,78.748973],[9.4824,78.753377],[9.478757,78.757799],[9.475623,78.762235],[9.473,78.766684],[9.471073,78.770705],[9.424494,78.878796],[9.422812,78.883262],[9.42165,78.887734],[9.42101,78.892211],[9.420892,78.896689],[9.421298,78.901166],[9.422227,78.905641],[9.423679,78.91011],[9.425656,78.914572],[9.428155,78.919024],[9.431177,78.923465],[9.43472,78.927891],[9.438784,78.9323],[9.443367,78.936691],[9.448468,78.941061],[9.454083,78.945407],[9.460212,78.949728],[9.46685,78.954022],[9.473997,78.958286],[9.481648,78.962517],[9.4898,78.966714],[9.498449,78.970875],[9.506243,78.974406],[9.513213,78.977478],[9.522781,78.981565],[9.532833,78.98561],[9.543367,78.98961],[9.554377,78.993564],[9.562968,78.996505],[10.006402,79.143036],[9.797484,79.295293],[9.79171,79.299641],[9.786459,79.304011],[9.784078,79.306161],[9.591772,79.481749],[9.576868,79.495115],[9.572238,79.499512],[9.568148,79.503928],[9.564601,79.508359],[9.5616,79.512803],[9.561078,79.513671],[9.55357,79.526409],[9.551218,79.530866],[9.551087,79.531149],[9.467963,79.709641],[9.447238,79.753203],[9.445387,79.757669],[9.444101,79.762141],[9.44338,79.766617],[9.443226,79.771095],[9.443638,79.775572],[9.444619,79.780047],[9.446168,79.784516],[9.448284,79.788978],[9.450969,79.793431],[9.45422,79.797871],[9.458037,79.802298],[9.46242,79.806708],[9.467365,79.811099],[9.472873,79.81547],[9.478939,79.819817],[9.485563,79.824139],[9.492741,79.828434],[9.50047,79.832699],[9.508748,79.836931],[9.51757,79.84113],[9.526932,79.845292],[9.536831,79.849416],[9.547261,79.853499],[9.558219,79.857539],[9.569699,79.861535],[9.581695,79.865483],[9.594203,79.869383],[9.607215,79.873232],[9.620727,79.877027],[9.634731,79.880768],[9.64922,79.884452],[9.664188,79.888077],[9.679627,79.891641],[9.69553,79.895142],[9.711889,79.898579],[9.728695,79.90195],[9.74594,79.905252],[9.763616,79.908485],[9.781714,79.911646],[9.800224,79.914735],[9.819137,79.917748],[9.826405,79.91887],[10.525979,80.024056],[10.545836,80.026922],[10.56607,80.029709],[10.586673,80.032416],[10.607633,80.03504],[10.62894,80.03758],[10.650582,80.040036],[10.672548,80.042405],[10.694828,80.044687],[10.71675,80.046818],[11.107668,80.083466],[11.130695,80.085545],[11.153996,80.087532],[11.177561,80.089428],[11.201375,80.09123],[11.225428,80.092937],[11.249705,80.094549],[11.274195,80.096065],[11.298883,80.097485],[11.323758,80.098806],[11.348806,80.100029],[11.374013,80.101153],[11.399366,80.102177],[11.424851,80.103101],[11.450455,80.103924],[11.476165,80.104646],[11.501965,80.105267],[11.527843,80.105785],[11.553785,80.106202],[11.579776,80.106516],[11.605804,80.106727],[11.631853,80.106836],[11.657909,80.106842],[11.68396,80.106746],[11.709991,80.106546],[11.735987,80.106244],[11.761935,80.10584],[11.787822,80.105333],[11.813632,80.104725],[11.839353,80.104015],[11.86497,80.103203],[11.89047,80.102291],[11.91584,80.101279],[11.941065,80.100167],[11.966132,80.098956],[11.991028,80.097646],[12.015739,80.096238],[12.040253,80.094733],[12.064556,80.093132],[12.088635,80.091436],[12.112479,80.089645],[12.136073,80.087761],[12.159406,80.085784],[12.159835,80.085747],[12.574505,80.049164],[13.145776,80.065288],[13.565892,80.159027],[13.582181,80.162534],[13.59894,80.165976],[13.61616,80.169353],[13.633832,80.172661],[13.635044,80.172882],[13.638255,80.173468],[13.656402,80.176702],[13.674982,80.179864],[13.693987,80.182954],[13.713406,80.185968],[13.733229,80.188906],[13.753447,80.191766],[13.757384,80.192308],[13.765442,80.193411],[13.786121,80.196176],[13.807171,80.198859],[13.828582,80.20146],[13.850342,80.203977],[13.872441,80.206408],[13.894866,80.208753],[13.917606,80.21101],[13.940648,80.213177],[13.963982,80.215255],[13.987594,80.217241],[14.011472,80.219134],[14.035604,80.220934],[14.059977,80.22264],[14.076962,80.223764],[14.088574,80.224514],[14.113328,80.226057],[14.138288,80.227503],[14.16344,80.228852],[14.188771,80.230103],[14.214267,80.231254],[14.239915,80.232306],[14.265701,80.233258],[14.291611,80.23411],[14.317632,80.23486],[14.322577,80.234991],[14.336603,80.235356],[14.362739,80.235985],[14.388954,80.236511],[14.400184,80.236705],[15.453012,80.252364],[16.043727,80.259717],[16.769234,80.293053],[16.853425,80.353941],[16.859788,80.35829],[16.86674,80.362613],[16.874278,80.36691],[16.882397,80.371176],[16.891096,80.375411],[16.90037,80.379612],[16.910215,80.383776],[16.920627,80.387902],[16.931602,80.391988],[16.943133,80.396031],[16.948651,80.397885],[17.078853,80.440844],[17.091298,80.444816],[17.104289,80.44874],[17.117819,80.452615],[17.131881,80.456437],[17.14647,80.460205],[17.161579,80.463917],[17.177199,80.467571],[17.193323,80.471166],[17.209944,80.474698],[17.227052,80.478167],[17.244641,80.481571],[17.254631,80.483435],[17.98821,80.61598],[18.713697,80.742068],[19.17821,80.905133],[19.202524,80.913496],[19.214658,80.917543],[19.227377,80.921545],[19.240675,80.9255],[19.254545,80.929407],[19.268981,80.933263],[19.283976,80.937067],[19.299522,80.940815],[19.315613,80.944507],[19.332241,80.94814],[19.349397,80.951713],[19.367074,80.955223],[19.385261,80.958669],[19.403951,80.962049],[19.423134,80.96536],[19.4428,80.968602],[19.46294,80.971773],[19.483543,80.974871],[19.504599,80.977894],[19.526098,80.980841],[19.548027,80.983709],[19.570376,80.986499],[19.593134,80.989207],[19.616288,80.991833],[19.639826,80.994376],[19.663737,80.996833],[19.688008,80.999204],[19.712626,81.001488],[19.737579,81.003682],[19.762852,81.005786],[19.788433,81.0078],[19.794781,81.008281],[19.800232,81.008692],[19.82618,81.01059],[19.852406,81.012394],[19.878894,81.014103],[19.905632,81.015717],[19.932604,81.017235],[19.959797,81.018656],[19.987196,81.019978],[20.014786,81.021203],[20.042552,81.022327],[20.07048,81.023352],[20.098555,81.024277],[20.126761,81.025101],[20.155083,81.025823],[20.183507,81.026443],[20.212016,81.026962],[20.240595,81.027378],[20.26923,81.027691],[20.297903,81.027902],[20.326601,81.02801],[20.353254,81.028018],[20.361487,81.028006],[20.390187,81.027915],[20.418866,81.027721],[20.447507,81.027423],[20.476097,81.027024],[20.504618,81.026522],[20.533056,81.025917],[20.561395,81.025211],[20.589621,81.024404],[20.617717,81.023495],[20.64567,81.022486],[20.673463,81.021377],[20.701082,81.020169],[20.728512,81.018862],[20.755739,81.017457],[20.782747,81.015954],[20.809523,81.014356],[20.836052,81.012661],[20.86232,81.010872],[20.888313,81.008989],[20.914018,81.007014],[20.93942,81.004947],[20.964507,81.002789],[20.989264,81.000542],[21.01368,80.998207],[21.022567,80.997327],[21.024491,80.997134],[21.048417,80.99468],[21.071972,80.992141],[21.095143,80.989519],[21.117917,80.986813],[21.140283,80.984027],[21.155275,80.982084],[22.019093,80.865868],[22.084179,80.856908],[22.961498,80.745535],[23.00399,80.740018],[24.025061,80.812714],[24.519755,80.846508],[24.545796,80.848206],[24.572079,80.84981],[24.583678,80.850482],[24.586508,80.850644],[24.613117,80.852108],[24.639934,80.853475],[24.666945,80.854743],[24.694136,80.855912],[24.721493,80.856982],[24.748999,80.857952],[24.776641,80.858821],[24.804405,80.859589],[24.832274,80.860255],[24.860233,80.86082],[24.888269,80.861282],[24.916365,80.861642],[24.944507,80.861899],[24.970391,80.862045],[24.976154,80.862067],[25.004341,80.862127],[25.03253,80.862083],[25.060704,80.861936],[25.088849,80.861687],[25.116949,80.861335],[25.14499,80.860881],[25.172956,80.860324],[25.200833,80.859666],[25.228604,80.858905],[25.256257,80.858044],[25.283774,80.857082],[25.311142,80.85602],[25.338347,80.854858],[25.365372,80.853597],[25.392205,80.852238],[25.41883,80.850781],[25.445234,80.849228],[25.471402,80.847578],[25.49732,80.845834],[25.522975,80.843995],[25.548353,80.842063],[25.573441,80.840039],[25.598225,80.837924],[25.622693,80.835719],[25.646831,80.833425],[25.670627,80.831044],[25.694068,80.828577],[25.717142,80.826024],[25.739838,80.823389],[25.762143,80.820671],[25.784045,80.817872],[25.805535,80.814994],[25.8266,80.812039],[25.847229,80.809007],[25.867413,80.805901],[25.887141,80.802722],[25.89801,80.800906],[26.656676,80.669922],[27.085564,80.593502],[27.103731,80.590151],[27.121418,80.586734],[27.138619,80.583251],[27.155324,80.579705],[27.171525,80.576098],[27.187215,80.572431],[27.202384,80.568707],[27.217027,80.564927],[27.231136,80.561093],[27.244705,80.557208],[27.257726,80.553274],[27.270195,80.549291],[27.282104,80.545264],[27.293449,80.541193],[27.304225,80.53708],[27.314426,80.532929],[27.324048,80.528741],[27.333087,80.524517],[27.341539,80.520262],[27.3494,80.515975],[27.356668,80.511661],[27.363339,80.507321],[27.36941,80.502956],[27.374879,80.498571],[27.379745,80.494166],[27.382446,80.491439],[27.49384,80.372338],[28.28693,80.336807],[28.312564,80.335571],[28.338019,80.334238],[28.363282,80.332806],[28.388339,80.331278],[28.413177,80.329653],[28.437782,80.327934],[28.462142,80.32612],[28.486243,80.324213],[28.499456,80.323118],[28.561327,80.317903],[28.584977,80.315848],[28.608336,80.313703],[28.631391,80.311469],[28.654132,80.309146],[28.676545,80.306737],[28.69862,80.304241],[28.720344,80.301662],[28.741707,80.298999],[28.742091,80.29895],[28.921393,80.275938],[28.942277,80.273182],[28.962777,80.270345],[28.982882,80.26743],[29.002582,80.264438],[29.021867,80.261371],[29.040727,80.25823],[29.059153,80.255017],[29.077136,80.251734],[29.087842,80.249706],[29.119284,80.243659],[29.136512,80.240265],[29.153275,80.236805],[29.169562,80.233281],[29.185366,80.229696],[29.190236,80.228555],[29.19874,80.226548],[29.213891,80.222884],[29.228542,80.219161],[29.242686,80.215384],[29.256316,80.211552],[29.269424,80.207669],[29.282006,80.203736],[29.294054,80.199755],[29.305564,80.195729],[29.31653,80.19166],[29.326948,80.187549],[29.336811,80.183399],[29.346117,80.179212],[29.35486,80.17499],[29.363038,80.170736],[29.370646,80.166451],[29.377681,80.162137],[29.384141,80.157798],[29.390023,80.153435],[29.395325,80.14905],[29.399131,80.145543],[29.429134,80.116357],[29.433363,80.111938],[29.437008,80.107504],[29.44007,80.103058],[29.442546,80.0986],[29.444436,80.094134],[29.445741,80.089662],[29.44646,80.085186],[29.446593,80.080708],[29.446143,80.076231],[29.445108,80.071757],[29.443492,80.067288],[29.441294,80.062826],[29.438519,80.058374],[29.435166,80.053934],[29.431239,80.049508],[29.426741,80.045098],[29.421675,80.040707],[29.416043,80.036337],[29.40985,80.031989],[29.403099,80.027667],[29.395794,80.023371],[29.38794,80.019105],[29.379541,80.014871],[29.370603,80.01067],[29.361129,80.006505],[29.351126,80.002378],[29.340599,79.99829],[29.329554,79.994245],[29.317998,79.990243],[29.305935,79.986287],[29.293373,79.982378],[29.28032,79.978519],[29.26678,79.974712],[29.252763,79.970958],[29.238274,79.96726],[29.223322,79.963618],[29.207915,79.960035],[29.192061,79.956513],[29.191631,79.95642],[28.556898,79.816224],[28.522552,79.808492],[28.133598,79.691407],[28.1207,79.68757],[28.107333,79.683786],[28.093504,79.680056],[28.07922,79.676382],[28.064488,79.672766],[28.049317,79.669209],[28.033714,79.665714],[28.017687,79.662282],[28.001245,79.658915],[27.984395,79.655614],[27.968633,79.652654],[27.54408,79.573651],[26.97687,79.427375],[26.674979,79.347433],[26.660982,79.343779],[26.646553,79.340183],[26.631701,79.336648],[26.616432,79.333175],[26.616424,79.333173],[26.21639,79.243203],[26.200968,79.239774],[26.185146,79.236409],[26.168933,79.233111],[26.152337,79.229881],[26.135366,79.226721],[26.118029,79.223632],[26.100334,79.220616],[26.082291,79.217674],[26.063909,79.214807],[26.045196,79.212017],[26.026162,79.209306],[26.006816,79.206675],[25.987168,79.204124],[25.967229,79.201656],[25.954139,79.200099],[25.150613,79.104148],[24.585297,79.034355],[24.565495,79.031936],[24.54542,79.0296],[24.525082,79.02735],[24.504491,79.025186],[24.483658,79.02311],[24.477777,79.022543],[23.643234,78.941088],[22.820913,78.857374],[22.63666,78.838136],[22.598619,78.82245],[22.860219,78.665631],[23.336976,78.513357],[23.801404,78.360327],[23.936577,78.314888],[23.947732,78.311022],[23.958447,78.307106],[23.968718,78.303141],[23.971834,78.301894],[23.977929,78.299431],[23.987606,78.295406],[23.996828,78.291337],[24.00559,78.287227],[24.013889,78.283078],[24.02172,78.278892],[24.029081,78.274671],[24.035967,78.270417],[24.037263,78.269579],[24.659424,78.143438],[24.866727,78.100508],[25.589383,78.002053],[25.681963,77.98919],[25.699705,77.986657],[25.717162,77.984041],[25.734324,77.981343],[25.751183,77.978564],[25.76773,77.975706],[25.783956,77.97277],[25.799853,77.969758],[25.815413,77.966671],[25.830629,77.963511],[25.845492,77.96028],[25.859994,77.956979],[25.87413,77.95361],[25.887891,77.950175],[25.901271,77.946675],[25.914263,77.943113],[25.92686,77.93949],[25.939057,77.935808],[25.950848,77.932069],[25.962226,77.928276],[25.973186,77.924429],[25.983724,77.920531],[25.993833,77.916585],[26.003509,77.912591],[26.012747,77.908552],[26.021544,77.904471],[26.029894,77.900349],[26.037795,77.896188],[26.045242,77.891991],[26.052233,77.88776],[26.058763,77.883496],[26.064831,77.879203],[26.070433,77.874882],[26.075567,77.870536],[26.080231,77.866166],[26.084424,77.861775],[26.088143,77.857365],[26.091387,77.852939],[26.094155,77.848499],[26.096446,77.844047],[26.098259,77.839585],[26.099595,77.835115],[26.100452,77.83064],[26.100831,77.826162],[26.100733,77.821684],[26.100157,77.817207],[26.099905,77.815927],[26.097113,77.802765],[26.095927,77.798294],[26.094267,77.793829],[26.092133,77.789373],[26.091529,77.788266],[26.081783,77.770811],[26.079068,77.766369],[26.075885,77.761942],[26.072235,77.757531],[26.068121,77.753138],[26.067769,77.752785],[26.065299,77.750315],[26.060688,77.745945],[26.055619,77.741598],[26.050094,77.737276],[26.044117,77.732981],[26.037691,77.728716],[26.03082,77.724483],[26.023508,77.720283],[26.015758,77.716119],[26.007576,77.711993],[25.998965,77.707907],[25.989931,77.703863],[25.980477,77.699864],[25.97061,77.695909],[25.960335,77.692003],[25.949656,77.688147],[25.93858,77.684343],[25.927113,77.680592],[25.91526,77.676897],[25.903027,77.673259],[25.890422,77.66968],[25.87745,77.666162],[25.864118,77.662706],[25.861302,77.661996],[25.844084,77.657671],[25.830337,77.654293],[25.816244,77.650981],[25.801815,77.647736],[25.787055,77.644562],[25.771973,77.641458],[25.756576,77.638427],[25.740872,77.63547],[25.724868,77.632588],[25.708573,77.629783],[25.691995,77.627057],[25.679329,77.625056],[25.008114,77.519161],[24.579181,77.44967],[24.243763,77.286238],[24.092025,77.210778],[24.083637,77.206703],[24.074842,77.202671],[24.068089,77.199721],[23.98144,77.16251],[23.972003,77.158553],[23.962175,77.154644],[23.951959,77.150785],[23.949347,77.149829],[23.685452,77.052976],[23.674915,77.049171],[23.664005,77.045419],[23.652728,77.041723],[23.641089,77.038084],[23.632003,77.035358],[23.254382,76.922775],[23.242326,76.919224],[23.229927,76.915735],[23.21719,76.912309],[23.204123,76.908948],[23.190733,76.905654],[23.177025,76.902428],[23.166502,76.900046],[22.607965,76.77392],[22.410399,76.728439],[22.396508,76.725296],[22.38232,76.722224],[22.36784,76.719226],[22.353077,76.716302],[22.338038,76.713455],[22.322731,76.710685],[22.307162,76.707994],[22.291341,76.705383],[22.275274,76.702854],[22.258969,76.700408],[22.242436,76.698046],[22.225681,76.695768],[22.208714,76.693577],[22.191542,76.691473],[22.174174,76.689458],[22.156619,76.687532],[22.138885,76.685696],[22.12098,76.683951],[22.102915,76.682298],[22.084696,76.680738],[22.066335,76.679271],[22.047838,76.677899],[22.029216,76.676621],[22.010477,76.67544],[21.99163,76.674354],[21.972685,76.673365],[21.953651,76.672472],[21.934538,76.671678],[21.915353,76.670981],[21.896107,76.670383],[21.876809,76.669883],[21.857469,76.669482],[21.843639,76.669256],[21.72195,76.667463],[21.702563,76.667223],[21.683158,76.667081],[21.663744,76.667039],[21.644331,76.667096],[21.624928,76.667253],[21.605544,76.667509],[21.586189,76.667863],[21.566873,76.668317],[21.547604,76.668869],[21.528392,76.66952],[21.509247,76.670269],[21.490177,76.671115],[21.471192,76.672059],[21.452301,76.673099],[21.433513,76.674236],[21.414837,76.675469],[21.396283,76.676797],[21.377859,76.67822],[21.359575,76.679736],[21.341439,76.681346],[21.323461,76.683048],[21.305648,76.684841],[21.288011,76.686725],[21.276459,76.688019],[21.263601,76.689485],[21.246269,76.691517],[21.229134,76.693637],[21.212205,76.695844],[21.195491,76.698137],[21.178999,76.700515],[21.162738,76.702976],[21.146715,76.70552],[21.130939,76.708146],[21.115418,76.710851],[21.100159,76.713635],[21.092182,76.715142],[21.07814,76.717825],[21.063292,76.720726],[21.048724,76.723702],[21.034446,76.726752],[21.020463,76.729875],[21.006783,76.733067],[20.993413,76.73633],[20.980359,76.739659],[20.967629,76.743055],[20.955229,76.746514],[20.943165,76.750037],[20.931443,76.75362],[20.92007,76.757262],[20.90905,76.760961],[20.898391,76.764716],[20.888098,76.768524],[20.878175,76.772384],[20.868629,76.776294],[20.859464,76.780252],[20.850685,76.784255],[20.842297,76.788302],[20.834305,76.792391],[20.826712,76.79652],[20.819523,76.800687],[20.812742,76.80489],[20.806373,76.809126],[20.800419,76.813394],[20.794883,76.817691],[20.789769,76.822015],[20.785079,76.826364],[20.780817,76.830736],[20.776986,76.835129],[20.773586,76.83954],[20.773479,76.839689],[20.645057,77.016471],[20.579386,77.10505],[20.438476,77.20768],[20.172218,77.306392],[20.118342,77.315019],[20.104301,77.31731],[19.733056,77.378528],[18.941086,77.333554],[18.67074,77.317591],[18.396746,77.264936],[18.293138,77.148625],[18.180616,76.971255],[18.162433,76.942135],[18.053885,76.764692],[18.003523,76.680726],[18.000663,76.676296],[18.000142,76.675555],[17.888705,76.517201],[17.885418,76.512788],[17.881709,76.508394],[17.877579,76.50402],[17.873032,76.499669],[17.868071,76.495342],[17.862696,76.491043],[17.856913,76.486773],[17.850724,76.482534],[17.844133,76.478329],[17.837143,76.474159],[17.829758,76.470027],[17.821983,76.465935],[17.81382,76.461884],[17.805276,76.457877],[17.796354,76.453916],[17.787059,76.450002],[17.777396,76.446138],[17.767371,76.442326],[17.756987,76.438567],[17.746252,76.434863],[17.73517,76.431217],[17.732678,76.43042],[17.480323,76.349532],[17.468958,76.345946],[17.457259,76.342421],[17.445234,76.338958],[17.432888,76.335559],[17.420227,76.332227],[17.407259,76.328962],[17.393989,76.325765],[17.385863,76.323876],[17.377786,76.322023],[17.364051,76.318941],[17.350033,76.315931],[17.335738,76.312996],[17.321174,76.310137],[17.306348,76.307355],[17.291267,76.304653],[17.275939,76.30203],[17.260371,76.299489],[17.244572,76.29703],[17.228548,76.294655],[17.212309,76.292365],[17.195862,76.290161],[17.191349,76.289576]],[[20.011883,74.477104],[20.013222,74.469969],[20.014147,74.461013],[20.013568,74.452056],[20.011488,74.443114],[20.010307,74.439729],[20.00695,74.430906],[20.002816,74.422016],[19.997204,74.413185],[19.994729,74.409903],[19.98201,74.393713],[19.974404,74.384991],[19.969429,74.380069],[19.890253,74.305134],[19.880484,74.296574],[19.869314,74.288141],[19.856767,74.279853],[19.842872,74.271725],[19.827656,74.263773],[19.811154,74.256014],[19.793398,74.248463],[19.774427,74.241135],[19.754279,74.234044],[19.732996,74.227205],[19.710621,74.220631],[19.6872,74.214335],[19.66278,74.208329],[19.637529,74.202651],[19.561072,74.186188],[19.534859,74.180787],[19.507799,74.17571],[19.479946,74.170966],[19.458295,74.167592],[19.409994,74.160348],[19.380905,74.156208],[19.351178,74.152424],[19.320871,74.149006],[19.290043,74.14596],[19.258756,74.143291],[19.227071,74.141004],[19.195049,74.139105],[19.162754,74.137597],[19.130249,74.136483],[19.097596,74.135765],[19.06486,74.135445],[19.032104,74.135523],[18.999393,74.135998],[18.96679,74.136871],[18.934359,74.138139],[18.902163,74.1398],[18.870265,74.141851],[18.838728,74.144287],[18.807613,74.147104],[18.776981,74.150296],[18.746893,74.153858],[18.717408,74.157781],[18.688584,74.16206],[18.660478,74.166684],[18.633146,74.171645],[18.606642,74.176933],[18.582622,74.182173],[18.580337,74.182693],[18.555584,74.188585],[18.531809,74.194772],[18.509062,74.201241],[18.487388,74.207981],[18.466831,74.214977],[18.452551,74.22024],[18.211436,74.311534],[18.192695,74.318921],[18.175184,74.326527],[18.15894,74.334337],[18.144735,74.34192],[18.06939,74.384213],[18.055637,74.392371],[18.043247,74.400686],[18.032248,74.409143],[18.022664,74.417723],[18.014516,74.42641],[18.007823,74.435187],[18.002601,74.444035],[17.998862,74.452938],[17.996617,74.461876],[17.995873,74.470833],[17.996634,74.479789],[17.9989,74.488728],[18.002671,74.497629],[18.00794,74.506477],[18.014699,74.515252],[18.022937,74.523936],[18.03264,74.532512],[18.04379,74.540963],[18.056367,74.54927],[18.065091,74.554468],[18.084854,74.565793],[18.099733,74.573828],[18.108749,74.57829],[18.134125,74.590459],[18.151142,74.598192],[18.169468,74.605713],[18.189066,74.613005],[18.209899,74.620054],[18.231924,74.626845],[18.255098,74.633364],[18.279373,74.639597],[18.3047,74.645532],[18.331028,74.651156],[18.35067,74.655024],[18.367952,74.65831],[18.395888,74.663369],[18.424674,74.668086],[18.454249,74.672453],[18.484553,74.676459],[18.510144,74.679496],[18.544472,74.683363],[18.558269,74.684872],[18.642684,74.693826],[18.674454,74.696968],[18.706738,74.699725],[18.73947,74.702091],[18.77258,74.704061],[18.806,74.705631],[18.807169,74.705678],[18.975962,74.712426],[19.009654,74.713553],[19.043509,74.714274],[19.077453,74.714588],[19.111417,74.714494],[19.145329,74.713991],[19.179118,74.713082],[19.212711,74.711768],[19.24604,74.710051],[19.256825,74.709406],[19.280521,74.707938],[19.313384,74.705691],[19.345821,74.703051],[19.360954,74.701671],[19.371435,74.700681],[19.403116,74.697473],[19.434204,74.693886],[19.464635,74.689931],[19.494346,74.685613],[19.503907,74.684122],[19.534374,74.679287],[19.563016,74.6745],[19.590795,74.669373],[19.617656,74.663919],[19.643544,74.658146],[19.668405,74.652069],[19.692189,74.645699],[19.694626,74.645013],[19.703217,74.642581],[19.725748,74.635902],[19.747104,74.62896],[19.761909,74.62374],[19.871483,74.583613],[19.890608,74.57624],[19.908449,74.568643],[19.924972,74.560839],[19.940144,74.552844],[19.953936,74.544674],[19.966323,74.536347],[19.97728,74.527878],[19.986788,74.519287],[19.991916,74.51394],[19.992065,74.513776],[19.999196,74.505022],[20.004839,74.496192],[20.008986,74.487302],[20.011631,74.478371],[20.011883,74.477104]],[[25.445929,76.284084],[25.392993,76.276039],[25.376995,76.273664],[25.360781,76.271374],[25.34436,76.269169],[25.327738,76.267052],[25.310926,76.265023],[25.29393,76.263083],[25.276759,76.261234],[25.259422,76.259475],[25.241927,76.257809],[25.224283,76.256235],[25.206498,76.254754],[25.188581,76.253368],[25.17054,76.252076],[25.152385,76.25088],[25.134125,76.24978],[25.115768,76.248777],[25.097322,76.247871],[25.078799,76.247062],[25.060205,76.246351],[25.04155,76.245739],[25.022844,76.245225],[25.004094,76.244809],[24.985312,76.244493],[24.966504,76.244276],[24.947682,76.244158],[24.928853,76.24414],[24.910027,76.244221],[24.891213,76.244401],[24.87242,76.244681],[24.870226,76.24472],[24.868111,76.244758],[24.849353,76.245148],[24.830635,76.245637],[24.811966,76.246224],[24.793355,76.24691],[24.774813,76.247693],[24.756346,76.248575],[24.737966,76.249553],[24.71968,76.250629],[24.70647,76.25147],[24.699797,76.251908],[24.681694,76.253148],[24.663709,76.254484],[24.645851,76.255914],[24.62813,76.257438],[24.610554,76.259056],[24.59313,76.260765],[24.575869,76.262566],[24.558778,76.264458],[24.541866,76.266439],[24.525141,76.268509],[24.508611,76.270667],[24.492284,76.272911],[24.476169,76.275241],[24.460273,76.277656],[24.444605,76.280154],[24.444336,76.280198],[24.423524,76.283596],[24.408088,76.286176],[24.392894,76.288837],[24.381437,76.290926],[24.371919,76.292693],[24.357168,76.295492],[24.342681,76.298369],[24.328465,76.301321],[24.314527,76.304347],[24.300873,76.307447],[24.287511,76.310617],[24.274448,76.313857],[24.26169,76.317166],[24.249244,76.32054],[24.237115,76.32398],[24.225311,76.327482],[24.213837,76.331046],[24.2027,76.33467],[24.191904,76.338351],[24.181456,76.342089],[24.171361,76.34588],[24.161624,76.349724],[24.152251,76.353619],[24.143246,76.357561],[24.142626,76.357841],[24.13993,76.359058],[24.131323,76.36305],[24.123094,76.367087],[24.115248,76.371166],[24.107788,76.375285],[24.100719,76.379443],[24.094045,76.383637],[24.08777,76.387865],[24.081896,76.392125],[24.076427,76.396416],[24.071367,76.400733],[24.066718,76.405077],[24.062483,76.409444],[24.058664,76.413832],[24.055264,76.418239],[24.052285,76.422663],[24.049728,76.427101],[24.047596,76.431552],[24.04589,76.436013],[24.044611,76.440482],[24.043761,76.444956],[24.043339,76.449434],[24.043348,76.453913],[24.043786,76.458391],[24.044326,76.461415],[24.044839,76.463842],[24.045999,76.468313],[24.047589,76.472776],[24.049609,76.47723],[24.050139,76.478261],[24.053384,76.484439],[24.055935,76.488878],[24.058915,76.493302],[24.062321,76.49771],[24.065432,76.501309],[24.104941,76.544793],[24.109147,76.549164],[24.113778,76.553511],[24.118831,76.557833],[24.124305,76.562128],[24.130196,76.566392],[24.136502,76.570624],[24.14322,76.574823],[24.150347,76.578984],[24.15788,76.583108],[24.158084,76.583216],[24.202045,76.606455],[24.207215,76.609129],[24.258244,76.634948],[24.266509,76.638999],[24.275171,76.643005],[24.284226,76.646965],[24.29023,76.649476],[24.638645,76.790987],[24.648538,76.794853],[24.658814,76.798667],[24.669469,76.802427],[24.680497,76.80613],[24.686126,76.807953],[24.730872,76.822248],[24.742474,76.825862],[24.754437,76.829415],[24.766753,76.832905],[24.779417,76.83633],[24.792423,76.839689],[24.805764,76.84298],[24.819433,76.846201],[24.833423,76.84935],[24.847728,76.852427],[24.85671,76.854288],[24.858923,76.85474],[24.873722,76.857694],[24.888815,76.860571],[24.904196,76.863369],[24.914963,76.865251],[24.939214,76.86942],[24.952427,76.871645],[24.981928,76.876512],[24.99802,76.879101],[25.01437,76.881606],[25.03097,76.884026],[25.047811,76.88636],[25.064886,76.888606],[25.082184,76.890763],[25.099697,76.89283],[25.117416,76.894806],[25.135332,76.89669],[25.153435,76.89848],[25.171716,76.900177],[25.190164,76.901779],[25.208772,76.903284],[25.227528,76.904693],[25.246423,76.906005],[25.263718,76.907113],[25.267887,76.907369],[25.287021,76.908493],[25.306264,76.909517],[25.325606,76.910442],[25.345038,76.911266],[25.364549,76.91199],[25.384129,76.912613],[25.403768,76.913134],[25.423454,76.913553],[25.443178,76.913871],[25.46293,76.914086],[25.482698,76.9142],[25.502473,76.914211],[25.522243,76.914119],[25.542,76.913926],[25.561731,76.91363],[25.581426,76.913233],[25.601076,76.912734],[25.620669,76.912133],[25.640196,76.911431],[25.659646,76.910628],[25.679009,76.909725],[25.698274,76.908722],[25.717432,76.90762],[25.736472,76.906419],[25.755384,76.90512],[25.774159,76.903723],[25.792786,76.902229],[25.811257,76.90064],[25.82956,76.898956],[25.847686,76.897177],[25.865627,76.895305],[25.883372,76.893341],[25.900912,76.891286],[25.918239,76.88914],[25.935343,76.886905],[25.952215,76.884583],[25.968847,76.882174],[25.98523,76.879679],[26.001355,76.877101],[26.017214,76.874439],[26.0328,76.871697],[26.048103,76.868874],[26.063117,76.865973],[26.077833,76.862996],[26.092244,76.859943],[26.106343,76.856816],[26.120123,76.853617],[26.133576,76.850348],[26.146696,76.84701],[26.159476,76.843605],[26.17191,76.840135],[26.183992,76.836601],[26.195716,76.833006],[26.207075,76.829351],[26.218064,76.825638],[26.228679,76.82187],[26.238913,76.818048],[26.248761,76.814173],[26.253059,76.812416],[26.255804,76.81128],[26.265085,76.807334],[26.273968,76.803341],[26.282451,76.799303],[26.290529,76.795223],[26.298199,76.791101],[26.305456,76.786941],[26.312298,76.782744],[26.318721,76.778513],[26.324723,76.77425],[26.3303,76.769957],[26.335451,76.765637],[26.340173,76.76129],[26.344464,76.756921],[26.348322,76.75253],[26.350504,76.749788],[26.351809,76.748081],[26.354961,76.743661],[26.357677,76.739226],[26.359956,76.734777],[26.361797,76.730319],[26.3632,76.725851],[26.364164,76.721378],[26.364442,76.719464],[26.364963,76.715273],[26.365301,76.710795],[26.3652,76.706316],[26.364661,76.701839],[26.363686,76.697366],[26.362274,76.692899],[26.360427,76.68844],[26.358147,76.683992],[26.355434,76.679557],[26.352291,76.675137],[26.34872,76.670735],[26.344723,76.666352],[26.340302,76.661991],[26.338824,76.660623],[26.336844,76.658818],[26.331871,76.654489],[26.326481,76.650187],[26.320677,76.645913],[26.314463,76.641671],[26.307841,76.637462],[26.300815,76.633288],[26.293389,76.629152],[26.285568,76.625055],[26.277355,76.620999],[26.276333,76.620511],[25.942125,76.459136],[25.755468,76.367135],[25.747129,76.363111],[25.738414,76.359132],[25.729327,76.355199],[25.719872,76.351316],[25.710055,76.347483],[25.699881,76.343703],[25.689355,76.339978],[25.678483,76.336309],[25.667269,76.332698],[25.655721,76.329147],[25.643844,76.325658],[25.631643,76.322233],[25.619126,76.318873],[25.606299,76.315579],[25.593168,76.312354],[25.57974,76.309199],[25.566021,76.306115],[25.552019,76.303105],[25.537741,76.300169],[25.523193,76.297309],[25.508384,76.294527],[25.49332,76.291823],[25.478008,76.289199],[25.462458,76.286657],[25.446676,76.284197],[25.445929,76.284084]]]}}]}