{
"type": "FeatureCollection",
"name": "Norge-svalbardkabler",
"crs": { "type": "name", "properties": { "name": "urn:ogc:def:crs:OGC:1.3:CRS84" } },
"features": [
{ "type": "Feature", "properties": { "gml_id": "id4d84e57b-94a3-407b-9477-44ca5d25dcb7", "lokalId": "f6f9ec22-828e-4e66-9ade-5597122d3325", "navnerom": "https://data.geonorge.no/sosi/kyst/sjokart_maritim_infrastruktur", "oppdateringsdato": "2004-06-25T00:00:00", "datauttaksdato": "2025-01-30T00:00:28", "målemetode": "ukjentMålemetode", "sjøstatus": null, "kabeltype": "telefonledning", "førsteDatafangstdato": null, "layer": "Barentshavetvestrett", "path": "/Users/vegardhalkjelsvik/Desktop/Barentshavetvestrett.geojson" }, "geometry": { "type": "LineString", "coordinates": [ [ 8.444395969351596, 78.257098356037645 ], [ 8.531196666755562, 78.270771666932518 ], [ 8.703765000071307, 78.282925000287037 ], [ 8.738975000068134, 78.285226666957456 ], [ 9.046533333378667, 78.299610000318381 ], [ 9.479306666691366, 78.318646667009887 ], [ 9.479933333358014, 78.318681667009926 ], [ 9.559465000021971, 78.322241667013159 ], [ 9.60394500002058, 78.323411667014838 ], [ 9.64822166668594, 78.32258333368317 ], [ 9.721541666683954, 78.317263333685815 ], [ 9.821528333348198, 78.312720000355668 ], [ 9.92913833334593, 78.308193333691904 ], [ 10.000000000011285, 78.302750038374796 ] ] } },
{ "type": "Feature", "properties": { "gml_id": "idcfa648c6-b4a9-47f5-ae29-5ff15608f428", "lokalId": "db04158d-f686-4612-9f47-1134b554e40f", "navnerom": "https://data.geonorge.no/sosi/kyst/sjokart_maritim_infrastruktur", "oppdateringsdato": "2004-06-25T00:00:00", "datauttaksdato": "2025-01-30T00:00:28", "målemetode": "ukjentMålemetode", "sjøstatus": null, "kabeltype": "telefonledning", "førsteDatafangstdato": null, "layer": "Barentshavetvestrett", "path": "/Users/vegardhalkjelsvik/Desktop/Barentshavetvestrett.geojson" }, "geometry": { "type": "LineString", "coordinates": [ [ 10.000000000011285, 78.302750038374796 ], [ 10.080908333343221, 78.296535000362297 ], [ 10.142585000008989, 78.289958333696958 ], [ 10.359356666672987, 78.266510000367688 ], [ 10.473120000005169, 78.255378333702694 ], [ 10.568123316381278, 78.245469513735372 ] ] } },
{ "type": "Feature", "properties": { "gml_id": "id8c008e77-d980-4d81-b997-24f145cd58f6", "lokalId": "067180d1-1514-443a-8a4f-4b5a6cf93bbe", "navnerom": "https://data.geonorge.no/sosi/kyst/sjokart_maritim_infrastruktur", "oppdateringsdato": "2004-06-25T00:00:00", "datauttaksdato": "2025-01-30T00:00:29", "målemetode": "ukjentMålemetode", "sjøstatus": null, "kabeltype": "telefonledning", "førsteDatafangstdato": null, "layer": "Barentshavetvestrett", "path": "/Users/vegardhalkjelsvik/Desktop/Barentshavetvestrett.geojson" }, "geometry": { "type": "LineString", "coordinates": [ [ 10.000000000011244, 78.315207394534568 ], [ 10.308236666673498, 78.298436667032689 ], [ 10.313556666673446, 78.297920000366176 ], [ 10.400565000005823, 78.290108333700829 ], [ 10.406686666672465, 78.289585000367623 ], [ 10.408646074969946, 78.289418220417929 ] ] } },
{ "type": "Feature", "properties": { "gml_id": "ide351e086-8743-47ed-9c3e-1bed1e446b35", "lokalId": "d6835e4c-ebf7-47a0-98f2-4b3826ba54ee", "navnerom": "https://data.geonorge.no/sosi/kyst/sjokart_maritim_infrastruktur", "oppdateringsdato": "2004-06-25T00:00:00", "datauttaksdato": "2025-01-30T00:00:29", "målemetode": "ukjentMålemetode", "sjøstatus": null, "kabeltype": "telefonledning", "førsteDatafangstdato": null, "layer": "Barentshavetvestrett", "path": "/Users/vegardhalkjelsvik/Desktop/Barentshavetvestrett.geojson" }, "geometry": { "type": "LineString", "coordinates": [ [ 8.356276786869916, 78.322748428694908 ], [ 8.455961666762919, 78.334623333588141 ], [ 8.685410000072153, 78.337271666950812 ], [ 9.103700000041567, 78.342608333654979 ], [ 9.283455000032443, 78.344928333666161 ], [ 9.795333333348751, 78.327178333687826 ], [ 9.979183333344954, 78.31634000035956 ], [ 10.000000000011244, 78.315207394534568 ] ] } },
{ "type": "Feature", "properties": { "gml_id": "id57033915-df15-4e0d-b370-629a0639bea6", "lokalId": "cc377844-b328-44ab-9ea0-6af0b7f93eb5", "navnerom": "https://data.geonorge.no/sosi/kyst/sjokart_maritim_infrastruktur", "oppdateringsdato": "2007-02-20T00:00:00", "datauttaksdato": "2025-01-30T00:00:29", "målemetode": "ukjentMålemetode", "sjøstatus": null, "kabeltype": "telefonledning", "førsteDatafangstdato": null, "layer": "Barentshavetvestrett", "path": "/Users/vegardhalkjelsvik/Desktop/Barentshavetvestrett.geojson" }, "geometry": { "type": "LineString", "coordinates": [ [ 15.66049544235533, 69.488814337346852 ], [ 15.632293333333278, 69.496598333951155 ], [ 15.620307688313877, 69.500000000617774 ] ] } },
{ "type": "Feature", "properties": { "gml_id": "id63706f36-75b2-47c2-b960-fb6518ff7960", "lokalId": "808428ad-6f06-4b59-a8bc-f726c1e18608", "navnerom": "https://data.geonorge.no/sosi/kyst/sjokart_maritim_infrastruktur", "oppdateringsdato": "2007-02-20T00:00:00", "datauttaksdato": "2025-01-30T00:00:29", "målemetode": "ukjentMålemetode", "sjøstatus": null, "kabeltype": "telefonledning", "førsteDatafangstdato": null, "layer": "Barentshavetvestrett", "path": "/Users/vegardhalkjelsvik/Desktop/Barentshavetvestrett.geojson" }, "geometry": { "type": "LineString", "coordinates": [ [ 15.697778215300247, 69.498887237463222 ], [ 15.687007461024375, 69.500000000617774 ] ] } },
{ "type": "Feature", "properties": { "gml_id": "id6b34f4b1-c0b4-4b8d-a665-fb13186d9572", "lokalId": "e50cc0c0-d0f9-455a-a21a-d5327085a911", "navnerom": "https://data.geonorge.no/sosi/kyst/sjokart_maritim_infrastruktur", "oppdateringsdato": "2007-02-20T00:00:00", "datauttaksdato": "2025-01-30T00:00:29", "målemetode": "ukjentMålemetode", "sjøstatus": null, "kabeltype": "telefonledning", "førsteDatafangstdato": null, "layer": "Barentshavetvestrett", "path": "/Users/vegardhalkjelsvik/Desktop/Barentshavetvestrett.geojson" }, "geometry": { "type": "LineString", "coordinates": [ [ 15.620307688313877, 69.500000000617774 ], [ 15.55895833333328, 69.517411667283966 ], [ 15.49876, 69.576698333949167 ], [ 15.482171666666682, 69.583056667282321 ], [ 15.364298333333284, 69.628178333947872 ], [ 15.35797666666668, 69.63019833394786 ], [ 15.29481, 69.63009500061456 ], [ 14.86958, 69.630088333947867 ], [ 14.834081666666689, 69.640160000614301 ], [ 14.81684, 69.645218333947454 ], [ 14.672416643453309, 69.687087482729439 ] ] } },
{ "type": "Feature", "properties": { "gml_id": "ida7fb107a-16fe-4765-b5a8-99f56b808dd3", "lokalId": "e50cc0c0-d0f9-455a-a21a-d5327085a911", "navnerom": "https://data.geonorge.no/sosi/kyst/sjokart_maritim_infrastruktur", "oppdateringsdato": "2007-02-20T00:00:00", "datauttaksdato": "2025-01-30T00:00:29", "målemetode": "ukjentMålemetode", "sjøstatus": null, "kabeltype": "telefonledning", "førsteDatafangstdato": null, "layer": "Barentshavetvestrett", "path": "/Users/vegardhalkjelsvik/Desktop/Barentshavetvestrett.geojson" }, "geometry": { "type": "LineString", "coordinates": [ [ 9.612470171767349, 72.820484650663317 ], [ 9.502386666728031, 72.902578333811775 ], [ 9.623140000050435, 73.097556667148183 ], [ 9.705441666710684, 73.225560000483142 ], [ 9.719860000042976, 73.249690000483284 ], [ 9.882551666699268, 73.504636667151217 ], [ 9.961755000028425, 73.626260000484706 ], [ 9.991856666693627, 73.672205000484624 ], [ 10.124929998014132, 73.874117733011673 ] ] } },
{ "type": "Feature", "properties": { "gml_id": "idc345cc32-cb84-408f-a405-a184b476afdc", "lokalId": "e877df92-c3ac-4a96-bad0-063bf8b84b8e", "navnerom": "https://data.geonorge.no/sosi/kyst/sjokart_maritim_infrastruktur", "oppdateringsdato": "2007-02-20T00:00:00", "datauttaksdato": "2025-01-30T00:00:29", "målemetode": "ukjentMålemetode", "sjøstatus": null, "kabeltype": "telefonledning", "førsteDatafangstdato": null, "layer": "Barentshavetvestrett", "path": "/Users/vegardhalkjelsvik/Desktop/Barentshavetvestrett.geojson" }, "geometry": { "type": "LineString", "coordinates": [ [ 15.687007461024375, 69.500000000617774 ], [ 15.634416666666679, 69.505433333950933 ], [ 15.583616666666673, 69.528333333950386 ], [ 15.538216666666681, 69.586483333948948 ], [ 15.530866666666677, 69.588950000615554 ], [ 15.36666666666668, 69.636650000614381 ], [ 15.3465, 69.636850000614388 ], [ 15.344433333333285, 69.636983333947697 ], [ 14.971, 69.670850000613569 ], [ 14.869715852979992, 69.733705226279724 ] ] } },
{ "type": "Feature", "properties": { "gml_id": "id9085d924-3067-43f5-9191-0a42d74516af", "lokalId": "e877df92-c3ac-4a96-bad0-063bf8b84b8e", "navnerom": "https://data.geonorge.no/sosi/kyst/sjokart_maritim_infrastruktur", "oppdateringsdato": "2007-02-20T00:00:00", "datauttaksdato": "2025-01-30T00:00:29", "målemetode": "ukjentMålemetode", "sjøstatus": null, "kabeltype": "telefonledning", "førsteDatafangstdato": null, "layer": "Barentshavetvestrett", "path": "/Users/vegardhalkjelsvik/Desktop/Barentshavetvestrett.geojson" }, "geometry": { "type": "LineString", "coordinates": [ [ 10.677264962638755, 72.318761557023933 ], [ 10.5751000000121, 72.430866667199751 ], [ 10.435183333348444, 72.583666667193086 ], [ 10.323783333351303, 72.702866667187422 ], [ 10.234900000020588, 72.797300000516032 ], [ 10.133400000023917, 72.905216667176731 ], [ 10.101716666691745, 72.938883333841488 ], [ 10.159383333355771, 73.067816667173162 ], [ 10.245666666685775, 73.258983333837193 ], [ 10.274016666684755, 73.324450000502821 ], [ 10.328183333349555, 73.443250000500953 ], [ 10.491100000011759, 73.792400000494851 ], [ 10.613352200144947, 74.049723475683507 ] ] } },
{ "type": "Feature", "properties": { "gml_id": "id33f39ea2-e40f-43b3-b744-b7792546135c", "lokalId": "09489d67-ce82-42d6-a222-99b62165d4a7", "navnerom": "https://data.geonorge.no/sosi/kyst/sjokart_maritim_infrastruktur", "oppdateringsdato": "2006-05-30T00:00:00", "datauttaksdato": "2025-02-13T00:00:25", "målemetode": "ukjentMålemetode", "sjøstatus": null, "kabeltype": "telefonledning", "førsteDatafangstdato": null, "layer": "nordlandrett", "path": "/Users/vegardhalkjelsvik/Desktop/nordlandrett.geojson" }, "geometry": { "type": "LineString", "coordinates": [ [ 16.267960208466285, 69.25000000062397 ], [ 16.289075, 69.284898333956363 ], [ 16.388551666666682, 69.306440000622544 ], [ 16.397733333333285, 69.310033333955772 ], [ 16.406383333333281, 69.388565000620517 ], [ 16.409741666666683, 69.421186667286449 ], [ 16.392055, 69.438613333952588 ], [ 16.25, 69.448016108476779 ] ] } },
{ "type": "Feature", "properties": { "gml_id": "id23cee5bb-aadd-43d8-aa38-d832e1cc71d5", "lokalId": "16e1949b-1488-4111-a22b-607ab7f2a134", "navnerom": "https://data.geonorge.no/sosi/kyst/sjokart_maritim_infrastruktur", "oppdateringsdato": "2006-05-30T00:00:00", "datauttaksdato": "2025-02-13T00:00:25", "målemetode": "ukjentMålemetode", "sjøstatus": null, "kabeltype": "telefonledning", "førsteDatafangstdato": null, "layer": "nordlandrett", "path": "/Users/vegardhalkjelsvik/Desktop/nordlandrett.geojson" }, "geometry": { "type": "LineString", "coordinates": [ [ 16.290302649081283, 69.250000000623956 ], [ 16.309466666666676, 69.280466667289872 ], [ 16.409633333333286, 69.295866667289403 ], [ 16.424808207156541, 69.303208701950936 ] ] } },
{ "type": "Feature", "properties": { "gml_id": "idc856961e-5c22-4a49-a284-740195a2a0d7", "lokalId": "16e1949b-1488-4111-a22b-607ab7f2a134", "navnerom": "https://data.geonorge.no/sosi/kyst/sjokart_maritim_infrastruktur", "oppdateringsdato": "2006-05-30T00:00:00", "datauttaksdato": "2025-02-13T00:00:25", "målemetode": "ukjentMålemetode", "sjøstatus": null, "kabeltype": "telefonledning", "førsteDatafangstdato": null, "layer": "nordlandrett", "path": "/Users/vegardhalkjelsvik/Desktop/nordlandrett.geojson" }, "geometry": { "type": "LineString", "coordinates": [ [ 16.438289076596025, 69.319616707668061 ], [ 16.44401666666668, 69.356133333954631 ], [ 16.454783333333278, 69.425433333952938 ], [ 16.386116666666688, 69.45018333395231 ], [ 16.25, 69.459344697248667 ] ] } },
{ "type": "Feature", "properties": { "gml_id": "ide85494c4-fd0d-46d0-814b-c1565db7b5a6", "lokalId": "8660c0d6-383d-4184-9783-1360c38c8c34", "navnerom": "https://data.geonorge.no/sosi/kyst/sjokart_maritim_infrastruktur", "oppdateringsdato": "2006-04-05T00:00:00", "datauttaksdato": "2025-02-13T00:00:25", "målemetode": "ukjentMålemetode", "sjøstatus": null, "kabeltype": "telefonledning", "førsteDatafangstdato": "2003-11-06T00:00:00", "layer": "nordlandrett", "path": "/Users/vegardhalkjelsvik/Desktop/nordlandrett.geojson" }, "geometry": { "type": "LineString", "coordinates": [ [ 16.110992777777781, 69.228856667291168 ], [ 16.118103888888875, 69.227932222846675 ], [ 16.21810611111108, 69.21956888951361 ], [ 16.22110944444438, 69.219017500624716 ], [ 16.222388333333285, 69.218523889513619 ], [ 16.236553888888881, 69.210840000624898 ], [ 16.237185277777783, 69.210351667291647 ], [ 16.237674722222177, 69.209702778402729 ], [ 16.241258888888883, 69.199729167291906 ], [ 16.241268888888879, 69.198789445069607 ], [ 16.240954444444384, 69.198151945069625 ], [ 16.212676944444375, 69.157989167292911 ], [ 16.212299722222181, 69.156654445070643 ], [ 16.212861944444377, 69.155327778404057 ], [ 16.218213611111079, 69.150606945070777 ], [ 16.220877499999983, 69.149144722848618 ], [ 16.224253055555579, 69.148074445070833 ], [ 16.25, 69.141849167293287 ] ] } },
{ "type": "Feature", "properties": { "gml_id": "idc39e0274-ab56-43fc-a74e-84ab70fefdc5", "lokalId": "c3180ae1-b5a2-496e-81b6-bae098eee886", "navnerom": "https://data.geonorge.no/sosi/kyst/sjokart_maritim_infrastruktur", "oppdateringsdato": "2006-04-05T00:00:00", "datauttaksdato": "2025-02-13T00:00:25", "målemetode": "ukjentMålemetode", "sjøstatus": null, "kabeltype": "telefonledning", "førsteDatafangstdato": "2003-10-21T00:00:00", "layer": "nordlandrett", "path": "/Users/vegardhalkjelsvik/Desktop/nordlandrett.geojson" }, "geometry": { "type": "LineString", "coordinates": [ [ 16.110993055555575, 69.228852222846669 ], [ 16.116938055555579, 69.227716389513375 ], [ 16.117548333333279, 69.227608889513377 ], [ 16.118606666666675, 69.227463056179985 ], [ 16.212915277777778, 69.216961667291486 ], [ 16.215829444444378, 69.216355556180403 ], [ 16.217336111111077, 69.215653333958088 ], [ 16.21786083333328, 69.215207500624786 ], [ 16.222843333333277, 69.209448889513851 ], [ 16.223177222222184, 69.208897500624985 ], [ 16.22588722222218, 69.200742778402983 ], [ 16.225901388888879, 69.200259167291861 ], [ 16.225800833333277, 69.199857778402972 ], [ 16.225599166666679, 69.199461111736269 ], [ 16.187159166666682, 69.149260000626398 ], [ 16.186903333333284, 69.148867222848622 ], [ 16.186705833333278, 69.148388889515346 ], [ 16.18663444444438, 69.147986389515339 ], [ 16.186647777777775, 69.147583611737545 ], [ 16.186884722222182, 69.1468633339598 ], [ 16.191943333333278, 69.137697778404501 ], [ 16.192211111111074, 69.137306111737786 ], [ 16.192345833333277, 69.13715222284894 ], [ 16.192749722222178, 69.136775556182258 ], [ 16.19314, 69.136484722848948 ], [ 16.193708611111074, 69.136136389515642 ], [ 16.194091666666679, 69.135936667293436 ], [ 16.194503888888875, 69.135744722848941 ], [ 16.195097777777779, 69.135501389515639 ], [ 16.195738888888876, 69.135273889515645 ], [ 16.196590833333278, 69.135016945071158 ], [ 16.240883856076035, 69.122798135577 ] ] } },
{ "type": "Feature", "properties": { "gml_id": "idcbfea193-a7cc-44fb-bcc9-4d7d0f847d5c", "lokalId": "1dd38f86-1ba7-4128-84d9-b11a2d8591ad", "navnerom": "https://data.geonorge.no/sosi/kyst/sjokart_maritim_infrastruktur", "oppdateringsdato": "2007-02-20T00:00:00", "datauttaksdato": "2025-02-13T00:00:26", "målemetode": "ukjentMålemetode", "sjøstatus": null, "kabeltype": "telefonledning", "førsteDatafangstdato": null, "layer": "nordlandrett", "path": "/Users/vegardhalkjelsvik/Desktop/nordlandrett.geojson" }, "geometry": { "type": "LineString", "coordinates": [ [ 15.75, 69.481187975264049 ], [ 15.668228333333277, 69.486680000618108 ], [ 15.662182097482985, 69.488348807702394 ] ] } },
{ "type": "Feature", "properties": { "gml_id": "id28f8e134-70ed-4334-be9c-4048d47b6f60", "lokalId": "1ef4ace2-4feb-43f0-bb05-4cec822ae48a", "navnerom": "https://data.geonorge.no/sosi/kyst/sjokart_maritim_infrastruktur", "oppdateringsdato": "2007-02-20T00:00:00", "datauttaksdato": "2025-02-13T00:00:26", "målemetode": "ukjentMålemetode", "sjøstatus": null, "kabeltype": "telefonledning", "førsteDatafangstdato": null, "layer": "nordlandrett", "path": "/Users/vegardhalkjelsvik/Desktop/nordlandrett.geojson" }, "geometry": { "type": "LineString", "coordinates": [ [ 15.75, 69.493593743587525 ], [ 15.70685, 69.497950000617848 ], [ 15.700837683433253, 69.498571153433844 ] ] } },
{ "type": "Feature", "properties": { "gml_id": "ida57e6d20-3f16-400b-8b76-afaeac5f9f61", "lokalId": "b9cb2cbd-d6cc-4a4d-9a65-6f213df9f496", "navnerom": "https://data.geonorge.no/sosi/kyst/sjokart_maritim_infrastruktur", "oppdateringsdato": "2007-02-20T00:00:00", "datauttaksdato": "2025-02-13T00:00:26", "målemetode": "ukjentMålemetode", "sjøstatus": null, "kabeltype": "telefonledning", "førsteDatafangstdato": null, "layer": "nordlandrett", "path": "/Users/vegardhalkjelsvik/Desktop/nordlandrett.geojson" }, "geometry": { "type": "LineString", "coordinates": [ [ 16.0, 69.464563879629139 ], [ 15.828535, 69.475913333951667 ], [ 15.75, 69.481187975264049 ] ] } },
{ "type": "Feature", "properties": { "gml_id": "iddee89887-9d17-4015-90fd-a2e3292ad87c", "lokalId": "ca19fbdf-069c-4017-8d61-353b93b60dcc", "navnerom": "https://data.geonorge.no/sosi/kyst/sjokart_maritim_infrastruktur", "oppdateringsdato": "2007-02-20T00:00:00", "datauttaksdato": "2025-02-13T00:00:26", "målemetode": "ukjentMålemetode", "sjøstatus": null, "kabeltype": "telefonledning", "førsteDatafangstdato": null, "layer": "nordlandrett", "path": "/Users/vegardhalkjelsvik/Desktop/nordlandrett.geojson" }, "geometry": { "type": "LineString", "coordinates": [ [ 16.0, 69.476171004270356 ], [ 15.86585, 69.48520000061815 ], [ 15.766116666666678, 69.491966667284586 ], [ 15.75, 69.493593743587525 ] ] } },
{ "type": "Feature", "properties": { "gml_id": "id740ab223-d529-450e-8bc8-5817541bc835", "lokalId": "993e0ac3-137b-43d5-9cb9-812deca72510", "navnerom": "https://data.geonorge.no/sosi/kyst/sjokart_maritim_infrastruktur", "oppdateringsdato": "2007-02-20T00:00:00", "datauttaksdato": "2025-02-13T00:00:26", "målemetode": "ukjentMålemetode", "sjøstatus": null, "kabeltype": "telefonledning", "førsteDatafangstdato": null, "layer": "nordlandrett", "path": "/Users/vegardhalkjelsvik/Desktop/nordlandrett.geojson" }, "geometry": { "type": "LineString", "coordinates": [ [ 16.25, 69.459344697248667 ], [ 16.0, 69.476171004270356 ] ] } },
{ "type": "Feature", "properties": { "gml_id": "id5e7e4119-780a-42a5-827b-c517caf1c6c6", "lokalId": "a2fff424-7d07-4d15-9fb5-c4e2ca05377a", "navnerom": "https://data.geonorge.no/sosi/kyst/sjokart_maritim_infrastruktur", "oppdateringsdato": "2006-05-06T00:00:00", "datauttaksdato": "2025-02-13T00:00:27", "målemetode": "ukjentMålemetode", "sjøstatus": null, "kabeltype": "telefonledning", "førsteDatafangstdato": null, "layer": "nordlandrett", "path": "/Users/vegardhalkjelsvik/Desktop/nordlandrett.geojson" }, "geometry": { "type": "LineString", "coordinates": [ [ 16.11100126420288, 69.228922346453473 ], [ 16.111516666666677, 69.228900000624435 ], [ 16.133216666666677, 69.229283333957724 ], [ 16.236866666666682, 69.228851667291096 ], [ 16.246103333333277, 69.232108333957683 ], [ 16.25, 69.23366395524458 ] ] } },
{ "type": "Feature", "properties": { "gml_id": "id2e5d816e-f832-4088-9f67-7bb22fb5b417", "lokalId": "787af367-e329-412a-b2ff-aca2b1dc23d7", "navnerom": "https://data.geonorge.no/sosi/kyst/sjokart_maritim_infrastruktur", "oppdateringsdato": "2006-05-06T00:00:00", "datauttaksdato": "2025-02-13T00:00:27", "målemetode": "ukjentMålemetode", "sjøstatus": null, "kabeltype": "telefonledning", "førsteDatafangstdato": null, "layer": "nordlandrett", "path": "/Users/vegardhalkjelsvik/Desktop/nordlandrett.geojson" }, "geometry": { "type": "LineString", "coordinates": [ [ 16.111002055816076, 69.228919971613863 ], [ 16.128216666666678, 69.228183333957787 ], [ 16.136993958836275, 69.228342666707462 ], [ 16.25, 69.221848842465732 ] ] } },
{ "type": "Feature", "properties": { "gml_id": "id388f59bb-f071-45f9-925e-0adcf00a555c", "lokalId": "0121b47b-3fa3-47b9-8dc6-d4c6e4fc0f37", "navnerom": "https://data.geonorge.no/sosi/kyst/sjokart_maritim_infrastruktur", "oppdateringsdato": "2006-05-06T00:00:00", "datauttaksdato": "2025-02-13T00:00:27", "målemetode": "ukjentMålemetode", "sjøstatus": null, "kabeltype": "telefonledning", "førsteDatafangstdato": null, "layer": "nordlandrett", "path": "/Users/vegardhalkjelsvik/Desktop/nordlandrett.geojson" }, "geometry": { "type": "LineString", "coordinates": [ [ 16.25, 69.221848842465732 ], [ 16.2552, 69.221550000624632 ], [ 16.278466666666677, 69.231183333957702 ], [ 16.290302649081283, 69.250000000623956 ] ] } },
{ "type": "Feature", "properties": { "gml_id": "idc9dc5a2a-a265-4955-9818-15e5ff58945a", "lokalId": "80ac8ab5-c8bd-4b6d-97bc-c93c52322be2", "navnerom": "https://data.geonorge.no/sosi/kyst/sjokart_maritim_infrastruktur", "oppdateringsdato": "2006-05-06T00:00:00", "datauttaksdato": "2025-02-13T00:00:27", "målemetode": "ukjentMålemetode", "sjøstatus": null, "kabeltype": "telefonledning", "førsteDatafangstdato": null, "layer": "nordlandrett", "path": "/Users/vegardhalkjelsvik/Desktop/nordlandrett.geojson" }, "geometry": { "type": "LineString", "coordinates": [ [ 16.25, 69.23366395524458 ], [ 16.260648333333275, 69.237915000624241 ], [ 16.267960208466285, 69.25000000062397 ] ] } },
{ "type": "Feature", "properties": { "gml_id": "idf00a56da-5d60-4abc-9de6-450899c6a674", "lokalId": "96502c64-42e0-4dd0-8e79-5caa8856a35a", "navnerom": "https://data.geonorge.no/sosi/kyst/sjokart_maritim_infrastruktur", "oppdateringsdato": "2007-02-20T00:00:00", "datauttaksdato": "2025-02-13T00:00:27", "målemetode": "ukjentMålemetode", "sjøstatus": null, "kabeltype": "telefonledning", "førsteDatafangstdato": null, "layer": "nordlandrett", "path": "/Users/vegardhalkjelsvik/Desktop/nordlandrett.geojson" }, "geometry": { "type": "LineString", "coordinates": [ [ 16.25, 69.448016108476779 ], [ 16.0, 69.464563879629139 ] ] } },
{ "type": "Feature", "properties": { "gml_id": "ided2656e8-7842-4de9-afbf-d57e6e3e4aec", "lokalId": "4cbbe214-5dc3-45a4-845a-8e71f4ae9e2b", "navnerom": "https://data.geonorge.no/sosi/kyst/sjokart_maritim_infrastruktur", "oppdateringsdato": "2004-06-25T00:00:00", "datauttaksdato": "2025-02-13T00:00:25", "målemetode": "ukjentMålemetode", "sjøstatus": null, "kabeltype": "telefonledning", "førsteDatafangstdato": null, "layer": "Norskehavetrett", "path": "/Users/vegardhalkjelsvik/Desktop/Norskehavetrett.geojson" }, "geometry": { "type": "LineString", "coordinates": [ [ 8.044550291895414, 78.000000000178431 ], [ 8.04418833350166, 78.02085000017847 ], [ 8.000000000175771, 78.060177768632613 ] ] } },
{ "type": "Feature", "properties": { "gml_id": "idd0e38fdb-0b0a-4192-b2c3-a8390a97b2b4", "lokalId": "5cbf072d-cf07-46d5-9c55-12972491a672", "navnerom": "https://data.geonorge.no/sosi/kyst/sjokart_maritim_infrastruktur", "oppdateringsdato": "2004-06-25T00:00:00", "datauttaksdato": "2025-02-13T00:00:25", "målemetode": "ukjentMålemetode", "sjøstatus": null, "kabeltype": "telefonledning", "førsteDatafangstdato": null, "layer": "Norskehavetrett", "path": "/Users/vegardhalkjelsvik/Desktop/Norskehavetrett.geojson" }, "geometry": { "type": "LineString", "coordinates": [ [ 8.257130047485381, 78.000000000223437 ], [ 8.193816666805343, 78.107566666877716 ], [ 8.228083333465086, 78.157800000217762 ], [ 8.229750000131421, 78.160466666884645 ], [ 8.244210000128495, 78.185998333554025 ], [ 8.30413833345203, 78.220086666898027 ], [ 8.310136666784425, 78.223401666899051 ], [ 8.364250000109799, 78.244473333574689 ], [ 8.444394595690442, 78.257098139651177 ] ] } },
{ "type": "Feature", "properties": { "gml_id": "id4197734a-e6c7-453e-b3b1-3ee5df33e40f", "lokalId": "0ca390e2-54a3-4a00-87b0-90a5eaa3c936", "navnerom": "https://data.geonorge.no/sosi/kyst/sjokart_maritim_infrastruktur", "oppdateringsdato": "2004-06-25T00:00:00", "datauttaksdato": "2025-02-13T00:00:26", "målemetode": "ukjentMålemetode", "sjøstatus": null, "kabeltype": "telefonledning", "førsteDatafangstdato": null, "layer": "Norskehavetrett", "path": "/Users/vegardhalkjelsvik/Desktop/Norskehavetrett.geojson" }, "geometry": { "type": "LineString", "coordinates": [ [ 8.000000000168775, 78.258497589603664 ], [ 8.02561666683018, 78.267000000175784 ], [ 8.033516666828618, 78.269133333510879 ], [ 8.179241666802186, 78.301531666874922 ], [ 8.299948333450228, 78.316038333563668 ], [ 8.356275292657052, 78.3227482506976 ] ] } },
{ "type": "Feature", "properties": { "gml_id": "id836ed960-b883-42b4-be10-a0861e72d9e4", "lokalId": "0c826ee4-a4f8-48d9-956e-c0b467ad0768", "navnerom": "https://data.geonorge.no/sosi/kyst/sjokart_maritim_infrastruktur", "oppdateringsdato": "2004-06-25T00:00:00", "datauttaksdato": "2025-02-13T00:00:26", "målemetode": "ukjentMålemetode", "sjøstatus": null, "kabeltype": "telefonledning", "førsteDatafangstdato": null, "layer": "Norskehavetrett", "path": "/Users/vegardhalkjelsvik/Desktop/Norskehavetrett.geojson" }, "geometry": { "type": "LineString", "coordinates": [ [ 8.000000000175771, 78.060177768632613 ], [ 7.947155000185044, 78.107210000155476 ], [ 7.946261666851906, 78.107613333488501 ], [ 7.919890000186139, 78.231908333483148 ], [ 8.000000000168775, 78.258497589603664 ] ] } },
{ "type": "Feature", "properties": { "gml_id": "id3476f12f-30cb-4d4e-81ea-f8be1591d5c4", "lokalId": "d23b2823-a9d0-4925-88c9-77ea7530e09b", "navnerom": "https://data.geonorge.no/sosi/kyst/sjokart_maritim_infrastruktur", "oppdateringsdato": "2007-02-20T00:00:00", "datauttaksdato": "2025-02-13T00:00:26", "målemetode": "ukjentMålemetode", "sjøstatus": null, "kabeltype": "telefonledning", "førsteDatafangstdato": null, "layer": "Norskehavetrett", "path": "/Users/vegardhalkjelsvik/Desktop/Norskehavetrett.geojson" }, "geometry": { "type": "LineString", "coordinates": [ [ 14.672416619176818, 69.687087489767279 ], [ 14.519858333333289, 69.731315000612028 ], [ 14.407673333333289, 69.88273500060825 ], [ 14.11399833333329, 70.277153333931622 ], [ 14.053883333333289, 70.357885000596241 ], [ 13.950798333333291, 70.492553333926168 ], [ 13.483986666666681, 70.706815000587369 ], [ 13.351913333333286, 70.767616667252511 ], [ 13.11384666666668, 70.875358333916324 ], [ 13.056743333333284, 70.901755000582313 ], [ 12.552816666666752, 71.128345000576417 ], [ 12.550936666666754, 71.129176667243087 ], [ 12.52701, 71.140206667242822 ], [ 11.994836666667238, 71.376465000569638 ], [ 11.874208333334069, 71.429678333901407 ], [ 11.667936666668032, 71.519976667232058 ], [ 11.369311666669404, 71.649906667227683 ], [ 10.841988333341169, 71.878738333884769 ], [ 10.792146666675313, 71.916816667216509 ], [ 10.386208333350421, 72.232770000534956 ], [ 10.323570000018918, 72.280936667198802 ], [ 10.300783333352905, 72.298788333864465 ], [ 10.272891666687174, 72.321540000529836 ], [ 9.787311666708444, 72.688946667168551 ], [ 9.69595500004738, 72.758226667161637 ], [ 9.61247100814078, 72.820484026946119 ] ] } },
{ "type": "Feature", "properties": { "gml_id": "idae3541e8-03ae-48f3-8d9c-3699c6797358", "lokalId": "d23b2823-a9d0-4925-88c9-77ea7530e09b", "navnerom": "https://data.geonorge.no/sosi/kyst/sjokart_maritim_infrastruktur", "oppdateringsdato": "2007-02-20T00:00:00", "datauttaksdato": "2025-02-13T00:00:26", "målemetode": "ukjentMålemetode", "sjøstatus": null, "kabeltype": "telefonledning", "førsteDatafangstdato": null, "layer": "Norskehavetrett", "path": "/Users/vegardhalkjelsvik/Desktop/Norskehavetrett.geojson" }, "geometry": { "type": "LineString", "coordinates": [ [ 10.124930059743807, 73.874117826674365 ], [ 10.292553333348938, 74.128453333814846 ], [ 10.372198333346759, 74.2473283338134 ], [ 10.428786666678423, 74.525286667140236 ], [ 10.44269166667803, 74.588843333805457 ], [ 10.481341666676997, 74.778143333800941 ], [ 10.407410000011224, 75.018123333792985 ], [ 10.245540000013525, 75.497648333776411 ], [ 10.001146666684241, 76.208605000417322 ], [ 9.704763333359978, 76.37555000040193 ], [ 9.703496666693354, 76.376353333735153 ], [ 9.630356666695864, 76.46878000039608 ], [ 9.606825000030053, 76.499418333727448 ], [ 9.585848333364137, 76.52783000039237 ], [ 9.214460000048508, 76.878231667027194 ], [ 9.126818333387057, 76.962726667018288 ], [ 8.885686666737332, 77.190521666990662 ], [ 8.858693333406187, 77.213388333653995 ], [ 8.804928333410684, 77.261928333647006 ], [ 8.724080000082736, 77.443296666967711 ], [ 8.706061666750575, 77.487620000298207 ], [ 8.355330000126576, 77.603386666909799 ], [ 8.140438333494616, 77.672353333532499 ], [ 8.047035000177079, 77.751758333510836 ], [ 8.046608333505969, 77.881450000178205 ], [ 8.044550291895414, 78.000000000178431 ] ] } },
{ "type": "Feature", "properties": { "gml_id": "idbc5a29ba-c657-41e4-8173-38e496ed36c3", "lokalId": "1987e5f5-6642-4b59-8e37-9aa4b682a6c2", "navnerom": "https://data.geonorge.no/sosi/kyst/sjokart_maritim_infrastruktur", "oppdateringsdato": "2007-02-20T00:00:00", "datauttaksdato": "2025-02-13T00:00:27", "målemetode": "ukjentMålemetode", "sjøstatus": null, "kabeltype": "telefonledning", "førsteDatafangstdato": null, "layer": "Norskehavetrett", "path": "/Users/vegardhalkjelsvik/Desktop/Norskehavetrett.geojson" }, "geometry": { "type": "LineString", "coordinates": [ [ 14.869715840036271, 69.733705234312396 ], [ 14.582816666666684, 69.911750000607526 ], [ 14.553, 69.930200000607073 ], [ 14.393916666666692, 70.310116667264083 ], [ 14.306033333333295, 70.517133333925514 ], [ 14.07205, 70.629550000589362 ], [ 13.7923, 70.760166667252591 ], [ 13.460683333333282, 70.915600000582018 ], [ 12.920666666666689, 71.16656666724208 ], [ 12.7716, 71.233516667240337 ], [ 12.048733333333754, 71.563383333898102 ], [ 11.935683333333937, 71.614566667229951 ], [ 11.885366666667435, 71.637216667229296 ], [ 11.155250000004187, 71.962316667218445 ], [ 11.154750000004192, 71.962583333885036 ], [ 11.154133333337496, 71.962883333885046 ], [ 10.971883333339324, 72.043183333881572 ], [ 10.899200000006921, 72.075233333880078 ], [ 10.67726500502415, 72.318761510514619 ] ] } },
{ "type": "Feature", "properties": { "gml_id": "idfc3b1aa2-880b-4cae-a055-5f90e00aec85", "lokalId": "1987e5f5-6642-4b59-8e37-9aa4b682a6c2", "navnerom": "https://data.geonorge.no/sosi/kyst/sjokart_maritim_infrastruktur", "oppdateringsdato": "2007-02-20T00:00:00", "datauttaksdato": "2025-02-13T00:00:27", "målemetode": "ukjentMålemetode", "sjøstatus": null, "kabeltype": "telefonledning", "førsteDatafangstdato": null, "layer": "Norskehavetrett", "path": "/Users/vegardhalkjelsvik/Desktop/Norskehavetrett.geojson" }, "geometry": { "type": "LineString", "coordinates": [ [ 10.613352211857842, 74.049723500337464 ], [ 10.640350000008649, 74.10655000048861 ], [ 10.716866666674061, 74.26533333381856 ], [ 10.723966666673958, 74.273966667151697 ], [ 10.743666666673651, 74.320833333817319 ], [ 10.70265000000709, 74.669200000473907 ], [ 10.687183333340421, 74.81250000046974 ], [ 10.684200000007143, 74.833550000469103 ], [ 10.646550000007231, 75.153483333793034 ], [ 10.641300000007245, 75.201816667124888 ], [ 10.624850000007285, 75.33990000045425 ], [ 10.61775000000736, 75.355066667120298 ], [ 10.513600000008397, 75.638966667110893 ], [ 10.396500000009706, 75.943066667100496 ], [ 10.327250000010531, 76.121850000427656 ], [ 10.267950000011302, 76.273033333755563 ], [ 10.006233333350117, 76.386950000412682 ], [ 9.974000000017288, 76.506600000408469 ], [ 9.919133333351443, 76.698666667068252 ], [ 9.710133333357485, 76.841733333723525 ], [ 9.534800000030506, 76.957800000379166 ], [ 9.303316666707683, 77.110316667028499 ], [ 9.183100000047617, 77.18891666701812 ], [ 9.136450000050104, 77.251366667013116 ], [ 9.005816666724289, 77.423516666998495 ], [ 8.932033333395651, 77.516983333656469 ], [ 8.835383333403547, 77.549700000312583 ], [ 8.176766666818354, 77.76568333354065 ], [ 8.188133333479593, 77.880416666876428 ], [ 8.190366666812443, 77.883516666877 ], [ 8.296016666793852, 77.933933333564212 ], [ 8.257130047485381, 78.000000000223437 ] ] } },
{ "type": "Feature", "properties": { "gml_id": "id76dec91d-814e-48e5-9f97-a639787d4d81", "lokalId": "67329af8-0375-4a79-a752-2f0dc21e8e22", "navnerom": "https://data.geonorge.no/sosi/kyst/sjokart_maritim_infrastruktur", "oppdateringsdato": "2003-02-02T00:00:00", "datauttaksdato": "2025-01-30T00:00:28", "målemetode": "ukjentMålemetode", "sjøstatus": null, "kabeltype": null, "førsteDatafangstdato": "2003-02-02T00:00:00", "layer": "Svalbardundersjøiskkabel", "path": "/Users/vegardhalkjelsvik/Desktop/Svalbardundersjøiskkabel.geojson" }, "geometry": { "type": "LineString", "coordinates": [ [ 14.10185222222216, 78.048002778159741 ], [ 14.209889444444363, 78.051659167048527 ] ] } },
{ "type": "Feature", "properties": { "gml_id": "id600df76b-8dea-4697-aaf5-92014be3b2cd", "lokalId": "db04158d-f686-4612-9f47-1134b554e40f", "navnerom": "https://data.geonorge.no/sosi/kyst/sjokart_maritim_infrastruktur", "oppdateringsdato": "2004-06-25T00:00:00", "datauttaksdato": "2025-01-30T00:00:28", "målemetode": "ukjentMålemetode", "sjøstatus": null, "kabeltype": "telefonledning", "førsteDatafangstdato": null, "layer": "Svalbardundersjøiskkabel", "path": "/Users/vegardhalkjelsvik/Desktop/Svalbardundersjøiskkabel.geojson" }, "geometry": { "type": "LineString", "coordinates": [ [ 10.573997100947118, 78.244856879608363 ], [ 10.954313333335422, 78.205190000374628 ], [ 11.386950000000834, 78.156093333710956 ], [ 12.000000000000139, 78.07808774466028 ] ] } },
{ "type": "Feature", "properties": { "gml_id": "id6210682c-a59b-478b-a5a7-3fbe3eca879e", "lokalId": "067180d1-1514-443a-8a4f-4b5a6cf93bbe", "navnerom": "https://data.geonorge.no/sosi/kyst/sjokart_maritim_infrastruktur", "oppdateringsdato": "2004-06-25T00:00:00", "datauttaksdato": "2025-01-30T00:00:29", "målemetode": "ukjentMålemetode", "sjøstatus": null, "kabeltype": "telefonledning", "førsteDatafangstdato": null, "layer": "Svalbardundersjøiskkabel", "path": "/Users/vegardhalkjelsvik/Desktop/Svalbardundersjøiskkabel.geojson" }, "geometry": { "type": "LineString", "coordinates": [ [ 10.411883820557556, 78.28914263158488 ], [ 10.470441666671858, 78.284158333701825 ], [ 10.854148333335864, 78.248251667039384 ], [ 11.019586666668541, 78.234281667040705 ], [ 11.27107666666778, 78.202965000375926 ], [ 11.588773333333798, 78.151296667044775 ], [ 11.893935000000198, 78.106826667046477 ], [ 12.000000000000144, 78.098395100507361 ] ] } },
{ "type": "Feature", "properties": { "gml_id": "idb24ae1d6-95d8-4050-8b34-be3678ea9a86", "lokalId": "37069678-0fb8-4c03-beba-a9608edae549", "navnerom": "https://data.geonorge.no/sosi/kyst/sjokart_maritim_infrastruktur", "oppdateringsdato": "2008-06-09T00:00:00", "datauttaksdato": "2025-01-30T00:00:29", "målemetode": "ukjentMålemetode", "sjøstatus": null, "kabeltype": "telefonledning", "førsteDatafangstdato": null, "layer": "Svalbardundersjøiskkabel", "path": "/Users/vegardhalkjelsvik/Desktop/Svalbardundersjøiskkabel.geojson" }, "geometry": { "type": "LineString", "coordinates": [ [ 15.000285986706784, 78.215609833653517 ], [ 15.197413333333291, 78.247236667042529 ], [ 15.23059, 78.256683333708963 ], [ 15.249646666666692, 78.263186667042078 ], [ 15.273298333333292, 78.268908333708609 ], [ 15.29874, 78.272371667041824 ], [ 15.32259, 78.274180000375139 ], [ 15.357456666666696, 78.275250000375124 ], [ 15.403751666666693, 78.274476667041739 ], [ 15.443478333333294, 78.273728333708434 ], [ 15.5, 78.26966828107561 ] ] } },
{ "type": "Feature", "properties": { "gml_id": "ida7772ccd-2fe7-4d5e-8f41-abb43670fa6d", "lokalId": "1e67fa9e-3a0c-4af6-8f1f-2addb163508d", "navnerom": "https://data.geonorge.no/sosi/kyst/sjokart_maritim_infrastruktur", "oppdateringsdato": "2008-06-09T00:00:00", "datauttaksdato": "2025-01-30T00:00:29", "målemetode": "ukjentMålemetode", "sjøstatus": null, "kabeltype": "telefonledning", "førsteDatafangstdato": null, "layer": "Svalbardundersjøiskkabel", "path": "/Users/vegardhalkjelsvik/Desktop/Svalbardundersjøiskkabel.geojson" }, "geometry": { "type": "LineString", "coordinates": [ [ 15.000295560419582, 78.206154813106281 ], [ 15.078421666666685, 78.215693333710234 ], [ 15.131481666666689, 78.22624333370986 ], [ 15.237825, 78.247563333709223 ], [ 15.32323, 78.266408333708668 ], [ 15.34076, 78.268751667041911 ], [ 15.363315, 78.270613333708553 ], [ 15.381678333333289, 78.271030000375234 ], [ 15.389216666666698, 78.271066667041808 ], [ 15.430466666666698, 78.269865000375276 ], [ 15.481795, 78.266768333708669 ], [ 15.5, 78.264759113422727 ] ] } },
{ "type": "Feature", "properties": { "gml_id": "id97018eb8-71f3-47f3-be0d-392a032ff784", "lokalId": "91f028f6-702c-49ff-8fc7-a9ae92520242", "navnerom": "https://data.geonorge.no/sosi/kyst/sjokart_maritim_infrastruktur", "oppdateringsdato": "2008-06-12T00:00:00", "datauttaksdato": "2025-01-30T00:00:29", "målemetode": "ukjentMålemetode", "sjøstatus": null, "kabeltype": "telefonledning", "førsteDatafangstdato": null, "layer": "Svalbardundersjøiskkabel", "path": "/Users/vegardhalkjelsvik/Desktop/Svalbardundersjøiskkabel.geojson" }, "geometry": { "type": "LineString", "coordinates": [ [ 14.5, 78.167676361450077 ], [ 14.53779, 78.172348333711497 ], [ 14.570098333333272, 78.178636667044628 ], [ 14.627328333333276, 78.185528333711119 ], [ 14.635675, 78.186318333711085 ], [ 14.677823333333277, 78.189876667044302 ], [ 14.740066666666678, 78.193143333710893 ], [ 14.836133333333287, 78.197428333710775 ], [ 14.885085, 78.20024666704397 ], [ 14.956033333333281, 78.208510000377132 ], [ 15.000285986706784, 78.215609833653517 ] ] } },
{ "type": "Feature", "properties": { "gml_id": "idbfec32b0-32cc-4ee1-86fc-bf4dc6bd7d90", "lokalId": "9bbe21ed-3f92-475a-95c9-bd69d0e14ad8", "navnerom": "https://data.geonorge.no/sosi/kyst/sjokart_maritim_infrastruktur", "oppdateringsdato": "2008-06-12T00:00:00", "datauttaksdato": "2025-01-30T00:00:29", "målemetode": "ukjentMålemetode", "sjøstatus": null, "kabeltype": "telefonledning", "førsteDatafangstdato": null, "layer": "Svalbardundersjøiskkabel", "path": "/Users/vegardhalkjelsvik/Desktop/Svalbardundersjøiskkabel.geojson" }, "geometry": { "type": "LineString", "coordinates": [ [ 14.0, 78.155481440094988 ], [ 14.03126, 78.153988333712093 ], [ 14.08078333333326, 78.152481667045421 ], [ 14.248031666666664, 78.152335000378827 ], [ 14.337335, 78.153475000378776 ], [ 14.396341666666673, 78.155398333712 ], [ 14.441115, 78.159016667045208 ], [ 14.493086666666665, 78.166821667044999 ], [ 14.5, 78.167676361450077 ] ] } },
{ "type": "Feature", "properties": { "gml_id": "idf178f089-3689-4744-95dc-859649ef5592", "lokalId": "6a563311-a1fa-4885-9641-291903a2e0b4", "navnerom": "https://data.geonorge.no/sosi/kyst/sjokart_maritim_infrastruktur", "oppdateringsdato": "2008-06-12T00:00:00", "datauttaksdato": "2025-01-30T00:00:29", "målemetode": "ukjentMålemetode", "sjøstatus": null, "kabeltype": "telefonledning", "førsteDatafangstdato": null, "layer": "Svalbardundersjøiskkabel", "path": "/Users/vegardhalkjelsvik/Desktop/Svalbardundersjøiskkabel.geojson" }, "geometry": { "type": "LineString", "coordinates": [ [ 14.5, 78.154344465025176 ], [ 14.528356666666671, 78.158633333711933 ], [ 14.583603333333279, 78.171016667044867 ], [ 14.596508333333272, 78.172845000378175 ], [ 14.648313333333276, 78.178946667044613 ], [ 14.673483333333275, 78.181481667044523 ], [ 14.895941666666683, 78.19469500037755 ], [ 14.946416666666682, 78.199576667043999 ], [ 15.000295560419582, 78.206154813106281 ] ] } },
{ "type": "Feature", "properties": { "gml_id": "id5bb69290-4477-4e8d-aa3a-44762a6a243c", "lokalId": "e548f826-a153-4497-95d1-0a738c23361c", "navnerom": "https://data.geonorge.no/sosi/kyst/sjokart_maritim_infrastruktur", "oppdateringsdato": "2008-06-12T00:00:00", "datauttaksdato": "2025-01-30T00:00:29", "målemetode": "ukjentMålemetode", "sjøstatus": null, "kabeltype": "telefonledning", "førsteDatafangstdato": null, "layer": "Svalbardundersjøiskkabel", "path": "/Users/vegardhalkjelsvik/Desktop/Svalbardundersjøiskkabel.geojson" }, "geometry": { "type": "LineString", "coordinates": [ [ 14.0, 78.143482672057573 ], [ 14.095678333333259, 78.140791667045775 ], [ 14.108148333333261, 78.140590000379163 ], [ 14.153543333333262, 78.140103333712489 ], [ 14.23631666666666, 78.141041667045769 ], [ 14.251851666666669, 78.141406667045729 ], [ 14.421033333333266, 78.146246667045602 ], [ 14.478581666666674, 78.151105000378834 ], [ 14.5, 78.154344465025176 ] ] } },
{ "type": "Feature", "properties": { "gml_id": "id65121210-96da-4244-a9cf-c287548a2f2f", "lokalId": "29013b3c-3fe3-47fc-979a-104426e384c3", "navnerom": "https://data.geonorge.no/sosi/kyst/sjokart_maritim_infrastruktur", "oppdateringsdato": "2008-05-21T00:00:00", "datauttaksdato": "2025-01-30T00:00:30", "målemetode": "ukjentMålemetode", "sjøstatus": null, "kabeltype": "telefonledning", "førsteDatafangstdato": null, "layer": "Svalbardundersjøiskkabel", "path": "/Users/vegardhalkjelsvik/Desktop/Svalbardundersjøiskkabel.geojson" }, "geometry": { "type": "LineString", "coordinates": [ [ 15.5, 78.26966828107561 ], [ 15.5045933333333, 78.269338333708617 ], [ 15.524548333333296, 78.26663833370867 ], [ 15.539353333333301, 78.26342000037549 ], [ 15.54797, 78.260201667042182 ], [ 15.5513433333333, 78.257650000375619 ], [ 15.551643333333299, 78.255450000375717 ], [ 15.550101666666702, 78.253415000375767 ], [ 15.545546666666699, 78.251381667042466 ], [ 15.542538333333292, 78.250203333709166 ], [ 15.5388, 78.24881666704249 ], [ 15.537605439764601, 78.248418480297403 ] ] } },
{ "type": "Feature", "properties": { "gml_id": "ida51968f2-ab39-4307-b548-5cc12eb84fe8", "lokalId": "ac481c83-357f-4733-8769-f0795f16842f", "navnerom": "https://data.geonorge.no/sosi/kyst/sjokart_maritim_infrastruktur", "oppdateringsdato": "2008-05-21T00:00:00", "datauttaksdato": "2025-01-30T00:00:30", "målemetode": "ukjentMålemetode", "sjøstatus": null, "kabeltype": "telefonledning", "førsteDatafangstdato": null, "layer": "Svalbardundersjøiskkabel", "path": "/Users/vegardhalkjelsvik/Desktop/Svalbardundersjøiskkabel.geojson" }, "geometry": { "type": "LineString", "coordinates": [ [ 15.5, 78.264759113422727 ], [ 15.504175, 78.264298333708751 ], [ 15.517393333333299, 78.262045000375537 ], [ 15.533511666666699, 78.257798333708919 ], [ 15.539638333333297, 78.255300000375726 ], [ 15.541693333333301, 78.253731667042345 ], [ 15.541885, 78.251848333709106 ], [ 15.5411, 78.251178333709163 ], [ 15.537266666666698, 78.250033333709183 ], [ 15.537, 78.248850000375896 ] ] } },
{ "type": "Feature", "properties": { "gml_id": "id404cacf1-d32b-4e0a-a74f-73555319d0c6", "lokalId": "c971ec50-890d-4022-ae78-ad60a8fe7a8b", "navnerom": "https://data.geonorge.no/sosi/kyst/sjokart_maritim_infrastruktur", "oppdateringsdato": "2011-01-12T00:00:00", "datauttaksdato": "2025-01-30T00:00:31", "målemetode": "ukjentMålemetode", "sjøstatus": null, "kabeltype": "telefonledning", "førsteDatafangstdato": null, "layer": "Svalbardundersjøiskkabel", "path": "/Users/vegardhalkjelsvik/Desktop/Svalbardundersjøiskkabel.geojson" }, "geometry": { "type": "LineString", "coordinates": [ [ 12.000000000000144, 78.098395100507361 ], [ 12.011008333333429, 78.097520000380214 ], [ 12.155123333333364, 78.09434166704699 ], [ 12.303158333333316, 78.097160000380356 ], [ 12.480356666666676, 78.103478333713525 ], [ 12.642841666666655, 78.109303333713385 ], [ 12.836955, 78.118891667046441 ], [ 12.919608333333244, 78.125965000379594 ], [ 12.973583333333242, 78.127630000379554 ], [ 13.05757, 78.130388333712759 ], [ 13.185921666666639, 78.138038333712544 ], [ 13.5, 78.152617032230509 ] ] } },
{ "type": "Feature", "properties": { "gml_id": "id2ec41b0c-d4b1-46c2-99ef-63f0346c68f0", "lokalId": "ad14a3f7-b41e-450f-847b-5c8dc135142b", "navnerom": "https://data.geonorge.no/sosi/kyst/sjokart_maritim_infrastruktur", "oppdateringsdato": "2011-01-12T00:00:00", "datauttaksdato": "2025-01-30T00:00:31", "målemetode": "ukjentMålemetode", "sjøstatus": null, "kabeltype": "telefonledning", "førsteDatafangstdato": null, "layer": "Svalbardundersjøiskkabel", "path": "/Users/vegardhalkjelsvik/Desktop/Svalbardundersjøiskkabel.geojson" }, "geometry": { "type": "LineString", "coordinates": [ [ 13.5, 78.152617032230509 ], [ 13.736685, 78.163603333711777 ], [ 13.827201666666651, 78.163735000378466 ], [ 14.0, 78.155481440094988 ] ] } },
{ "type": "Feature", "properties": { "gml_id": "ide606b71c-2763-4920-b07a-95020a6fa9ab", "lokalId": "142296e5-438a-49ab-8fb5-885d2b417d61", "navnerom": "https://data.geonorge.no/sosi/kyst/sjokart_maritim_infrastruktur", "oppdateringsdato": "2011-01-12T00:00:00", "datauttaksdato": "2025-01-30T00:00:31", "målemetode": "ukjentMålemetode", "sjøstatus": null, "kabeltype": "telefonledning", "førsteDatafangstdato": null, "layer": "Svalbardundersjøiskkabel", "path": "/Users/vegardhalkjelsvik/Desktop/Svalbardundersjøiskkabel.geojson" }, "geometry": { "type": "LineString", "coordinates": [ [ 12.000000000000139, 78.07808774466028 ], [ 12.01219000000013, 78.076536667047463 ], [ 12.097416666666787, 78.069973333714387 ], [ 12.257455, 78.062545000381405 ], [ 12.314361666666713, 78.062693333714719 ], [ 12.530866666666673, 78.06300000038145 ], [ 12.729553333333257, 78.074173333714398 ], [ 12.898123333333244, 78.081020000380946 ], [ 12.998171666666639, 78.088276667047325 ], [ 13.068996666666644, 78.093368333713883 ], [ 13.360096666666639, 78.112761667046613 ], [ 13.376005, 78.114035000379971 ], [ 13.5, 78.124705593459424 ] ] } },
{ "type": "Feature", "properties": { "gml_id": "id21920f81-7df3-4768-9826-fe6f0b9c3377", "lokalId": "b10af5bd-0519-471e-ad14-9a676cef7857", "navnerom": "https://data.geonorge.no/sosi/kyst/sjokart_maritim_infrastruktur", "oppdateringsdato": "2011-01-12T00:00:00", "datauttaksdato": "2025-01-30T00:00:31", "målemetode": "ukjentMålemetode", "sjøstatus": null, "kabeltype": "telefonledning", "førsteDatafangstdato": null, "layer": "Svalbardundersjøiskkabel", "path": "/Users/vegardhalkjelsvik/Desktop/Svalbardundersjøiskkabel.geojson" }, "geometry": { "type": "LineString", "coordinates": [ [ 13.5, 78.124705593459424 ], [ 13.749886666666651, 78.146210000379 ], [ 13.791953333333254, 78.149318333712202 ], [ 13.801725, 78.149653333712195 ], [ 13.835833333333252, 78.150543333712179 ], [ 13.882688333333256, 78.149653333712195 ], [ 13.96122166666666, 78.14457333371233 ], [ 14.0, 78.143482672057573 ] ] } },
{ "type": "Feature", "properties": { "gml_id": "id7d8e88d4-b264-47a3-904a-febcdc0dc151", "lokalId": "236bb41a-c2ac-4746-bffc-dab9040e5380", "navnerom": "https://data.geonorge.no/sosi/kyst/sjokart_maritim_infrastruktur", "oppdateringsdato": "2012-07-06T00:00:00", "datauttaksdato": "2025-01-30T00:00:32", "målemetode": "ukjentMålemetode", "sjøstatus": null, "kabeltype": "kraftledning", "førsteDatafangstdato": null, "layer": "Svalbardundersjøiskkabel", "path": "/Users/vegardhalkjelsvik/Desktop/Svalbardundersjøiskkabel.geojson" }, "geometry": { "type": "LineString", "coordinates": [ [ 11.920883553970413, 78.930607453672721 ], [ 11.919683522701517, 78.930351217638716 ] ] } },
{ "type": "Feature", "properties": { "gml_id": "id25ff8e22-aa28-41c9-a83b-526f8a403866", "lokalId": "e558e409-6280-4cb2-acaf-b383edebf224", "navnerom": "https://data.geonorge.no/sosi/kyst/sjokart_maritim_infrastruktur", "oppdateringsdato": "2015-06-25T00:00:00", "datauttaksdato": "2025-01-30T00:00:40", "målemetode": "ukjentMålemetode", "sjøstatus": null, "kabeltype": null, "førsteDatafangstdato": null, "layer": "Svalbardundersjøiskkabel", "path": "/Users/vegardhalkjelsvik/Desktop/Svalbardundersjøiskkabel.geojson" }, "geometry": { "type": "LineString", "coordinates": [ [ 14.333333333333266, 78.24386697300065 ], [ 14.224582895415269, 78.229466214809008 ], [ 14.15795062367466, 78.219000749944101 ], [ 13.916666666666654, 78.190271779264364 ] ] } },
{ "type": "Feature", "properties": { "gml_id": "id85d6c03b-7e6f-4cbe-8c66-bf106fee3292", "lokalId": "56ac5a95-1e85-4a2b-92b4-3fcd5dcae329", "navnerom": "https://data.geonorge.no/sosi/kyst/sjokart_maritim_infrastruktur", "oppdateringsdato": "2015-06-25T00:00:00", "datauttaksdato": "2025-01-30T00:00:40", "målemetode": "ukjentMålemetode", "sjøstatus": null, "kabeltype": null, "førsteDatafangstdato": null, "layer": "Svalbardundersjøiskkabel", "path": "/Users/vegardhalkjelsvik/Desktop/Svalbardundersjøiskkabel.geojson" }, "geometry": { "type": "LineString", "coordinates": [ [ 15.539185830625696, 78.248079110216352 ], [ 15.541434331015999, 78.248599657835712 ], [ 15.541755347260199, 78.248649796402802 ], [ 15.5549170132696, 78.251365683414818 ], [ 15.556350885826799, 78.251601060188207 ], [ 15.559764358556, 78.252150254568889 ], [ 15.566751812136701, 78.252967461226504 ], [ 15.572219788828399, 78.253967645846842 ], [ 15.576799620578004, 78.255366455957926 ], [ 15.580566211175901, 78.257932692598544 ], [ 15.5805983128003, 78.26055064231123 ], [ 15.578811322374605, 78.263466299311872 ], [ 15.572530104531101, 78.26743253585127 ], [ 15.558951117404199, 78.271016684212938 ], [ 15.506015538746698, 78.279016730323065 ], [ 15.422883032057598, 78.288482363735355 ], [ 15.398421594254591, 78.290000944260569 ], [ 15.374452381359394, 78.290782970027166 ], [ 15.352751683255894, 78.290932852414727 ], [ 15.326931276686196, 78.289783705736369 ], [ 15.243263742923592, 78.283549438794267 ], [ 15.206678591633791, 78.282734331022112 ], [ 15.053211425855187, 78.280549566306973 ], [ 14.964332728396085, 78.282399577225704 ], [ 14.846669574379781, 78.28111699159443 ], [ 14.814664254839679, 78.279234165904285 ], [ 14.708771696441579, 78.273583898014067 ], [ 14.611300464181271, 78.2696327695338 ], [ 14.364545977857365, 78.248000158622034 ], [ 14.333333333333266, 78.24386697300065 ] ] } },
{ "type": "Feature", "properties": { "gml_id": "idef7d0330-2c1a-45a2-85f8-7d9900a9ed4c", "lokalId": "c2fc408b-be55-4b12-add8-a0473b7253d5", "navnerom": "https://data.geonorge.no/sosi/kyst/sjokart_maritim_infrastruktur", "oppdateringsdato": "2015-06-25T00:00:00", "datauttaksdato": "2025-01-30T00:00:40", "målemetode": "ukjentMålemetode", "sjøstatus": null, "kabeltype": null, "førsteDatafangstdato": null, "layer": "Svalbardundersjøiskkabel", "path": "/Users/vegardhalkjelsvik/Desktop/Svalbardundersjøiskkabel.geojson" }, "geometry": { "type": "LineString", "coordinates": [ [ 14.333333333333263, 78.19565811457413 ], [ 14.166799971471265, 78.177667639747455 ], [ 14.066899716297064, 78.171166058843951 ], [ 13.932982439786056, 78.169000276138206 ], [ 13.916666666666657, 78.169146802490701 ] ] } },
{ "type": "Feature", "properties": { "gml_id": "id11475e5b-543c-4a29-87a4-234b622c5f8f", "lokalId": "32f1c328-a840-4c1a-ade7-99ba52774f32", "navnerom": "https://data.geonorge.no/sosi/kyst/sjokart_maritim_infrastruktur", "oppdateringsdato": "2015-06-25T00:00:00", "datauttaksdato": "2025-01-30T00:00:40", "målemetode": "ukjentMålemetode", "sjøstatus": null, "kabeltype": null, "førsteDatafangstdato": null, "layer": "Svalbardundersjøiskkabel", "path": "/Users/vegardhalkjelsvik/Desktop/Svalbardundersjøiskkabel.geojson" }, "geometry": { "type": "LineString", "coordinates": [ [ 15.5384078549916, 78.248153293598747 ], [ 15.540749496361899, 78.248617097361205 ], [ 15.542654192743699, 78.249299398757572 ], [ 15.5429003051976, 78.249366972807238 ], [ 15.564729409798602, 78.255216124435719 ], [ 15.567629256537296, 78.257767145638425 ], [ 15.5662167850631, 78.260465709554268 ], [ 15.560684605122598, 78.263233334315274 ], [ 15.5510541177985, 78.265882769885792 ], [ 15.5373788257985, 78.268533791726824 ], [ 15.484721461219198, 78.275915665916401 ], [ 15.450704439882493, 78.278499217633211 ], [ 15.412813822533296, 78.280184312702772 ], [ 15.387036218129394, 78.282084378338723 ], [ 15.360734287193395, 78.283299478358188 ], [ 15.334132741096193, 78.283349470866256 ], [ 15.296402631869093, 78.281334388737321 ], [ 15.196769890231588, 78.271567158948727 ], [ 15.096602121520485, 78.262817469570393 ], [ 14.997921728073882, 78.252932594887781 ], [ 14.899487447081176, 78.242167091959018 ], [ 14.868616384936981, 78.23865060881441 ], [ 14.829088584742777, 78.235700500428408 ], [ 14.78401790406638, 78.231699668522822 ], [ 14.710012959252179, 78.227184298116569 ], [ 14.658414948278573, 78.224517505784249 ], [ 14.588497610306277, 78.221882890076714 ], [ 14.548231472750473, 78.219682562354691 ], [ 14.38281180214857, 78.202017191415209 ], [ 14.347296705005968, 78.197166567197456 ], [ 14.333333333333263, 78.19565811457413 ] ] } },
{ "type": "Feature", "properties": { "gml_id": "id624bfe8f-2c17-4db6-a3ca-2ecf075649d9", "lokalId": "bb30de4b-e0f6-415a-b6df-93dcdadabd57", "navnerom": "https://data.geonorge.no/sosi/kyst/sjokart_maritim_infrastruktur", "oppdateringsdato": "2015-06-25T00:00:00", "datauttaksdato": "2025-01-30T00:00:40", "målemetode": "ukjentMålemetode", "sjøstatus": null, "kabeltype": null, "førsteDatafangstdato": null, "layer": "Svalbardundersjøiskkabel", "path": "/Users/vegardhalkjelsvik/Desktop/Svalbardundersjøiskkabel.geojson" }, "geometry": { "type": "LineString", "coordinates": [ [ 13.916666666666657, 78.169146802490701 ], [ 13.858699280893655, 78.169667387665697 ], [ 13.784448223625555, 78.170266439753746 ], [ 13.627621087824952, 78.16618439340472 ], [ 13.485368089508043, 78.164999022976914 ], [ 13.237629153368839, 78.157034249496078 ], [ 13.109297559505839, 78.151567626000627 ], [ 12.830848069344642, 78.129751091983891 ], [ 12.381478830265399, 78.113083801407114 ], [ 12.161518499785361, 78.113917162660513 ], [ 12.006114536000526, 78.117615885596436 ], [ 12.003000678432434, 78.117717264875296 ], [ 11.991486895809436, 78.118517249695302 ], [ 11.960080806591751, 78.120833159675186 ], [ 11.835430198994942, 78.135033980790467 ], [ 11.654130924850023, 78.151367633999143 ], [ 11.598199194580683, 78.159232940817375 ], [ 11.579483947547715, 78.162882626105528 ], [ 11.557515735907549, 78.16731697129444 ], [ 11.531513420132782, 78.172717194727326 ], [ 11.495345589960534, 78.178182965136443 ], [ 11.476245123434566, 78.1805005590289 ], [ 11.452650429490808, 78.182050487597593 ], [ 11.428253194936742, 78.184584309524709 ], [ 11.251416046585526, 78.212366344688903 ], [ 11.226537287665288, 78.217484014795573 ], [ 11.181916029730898, 78.233749362165057 ], [ 11.12660493086686, 78.261983518975597 ], [ 11.123480372757271, 78.265149172602193 ], [ 11.120387916272161, 78.299149591848405 ], [ 11.114598923336276, 78.30344895103822 ], [ 11.073166426760318, 78.316567436580854 ], [ 11.027068494102879, 78.325617635580386 ], [ 11.00710128371785, 78.33029926865018 ], [ 10.979461785098151, 78.334550543284308 ], [ 10.900448986875771, 78.350083693917853 ], [ 10.880364070534569, 78.352532269432686 ], [ 10.870979695664404, 78.353783375413784 ], [ 10.845865524831826, 78.358265956324885 ], [ 10.789002847454713, 78.365082694830221 ], [ 10.76362116308535, 78.368600723320554 ], [ 10.740368886468787, 78.370283825730425 ], [ 10.711113606086966, 78.371200799609994 ], [ 10.69146741194608, 78.372600935007426 ], [ 10.662105126149559, 78.37558402762771 ], [ 10.636819746653439, 78.377850500415803 ], [ 10.584269387489208, 78.384832634664235 ], [ 10.520312251116893, 78.398900719520014 ], [ 10.48376990199338, 78.41290039273153 ], [ 10.46294664829076, 78.419616805032121 ], [ 10.455916392544207, 78.423851004613624 ], [ 10.355395505965529, 78.463099653081173 ], [ 10.344630761245734, 78.468732550630875 ], [ 10.325337684973531, 78.474749815987451 ], [ 10.306387026028425, 78.482134000439487 ], [ 10.269288248748396, 78.508600803030816 ], [ 10.263467154188133, 78.525250997393172 ], [ 10.259229739765653, 78.547032377685355 ], [ 10.250000000007041, 78.556105473901468 ] ] } },
{ "type": "Feature", "properties": { "gml_id": "id4860fc59-f736-4afa-bb48-7b05fb9f64db", "lokalId": "7d14f6cd-8417-4c62-a0ba-ad902cfd83c8", "navnerom": "https://data.geonorge.no/sosi/kyst/sjokart_maritim_infrastruktur", "oppdateringsdato": "2015-06-25T00:00:00", "datauttaksdato": "2025-01-30T00:00:40", "målemetode": "ukjentMålemetode", "sjøstatus": null, "kabeltype": null, "førsteDatafangstdato": null, "layer": "Svalbardundersjøiskkabel", "path": "/Users/vegardhalkjelsvik/Desktop/Svalbardundersjøiskkabel.geojson" }, "geometry": { "type": "LineString", "coordinates": [ [ 10.250000000007041, 78.556105473901468 ], [ 10.248614802626362, 78.557467162252607 ], [ 10.246752908410464, 78.568766578064256 ], [ 10.24027908082043, 78.575417126141573 ], [ 10.22691410452318, 78.583199520238324 ], [ 10.209568526798677, 78.588098978608855 ], [ 10.200420306267489, 78.591666667022793 ] ] } },
{ "type": "Feature", "properties": { "gml_id": "iddf94a30f-1d9b-4a6b-8339-4d261a6be240", "lokalId": "092205d6-871b-4fa2-a81a-31f8bb8a771f", "navnerom": "https://data.geonorge.no/sosi/kyst/sjokart_maritim_infrastruktur", "oppdateringsdato": "2015-06-25T00:00:00", "datauttaksdato": "2025-01-30T00:00:40", "målemetode": "ukjentMålemetode", "sjøstatus": null, "kabeltype": null, "førsteDatafangstdato": null, "layer": "Svalbardundersjøiskkabel", "path": "/Users/vegardhalkjelsvik/Desktop/Svalbardundersjøiskkabel.geojson" }, "geometry": { "type": "LineString", "coordinates": [ [ 13.916666666666654, 78.190271779264364 ], [ 13.821011973832354, 78.178882456493426 ], [ 13.768750529287455, 78.175700428070911 ], [ 13.727585546248047, 78.174700250193865 ], [ 13.659433797618554, 78.175465744701825 ], [ 13.534387269987247, 78.174783601537257 ], [ 13.351985840070641, 78.170099673679573 ], [ 13.204896197008743, 78.170167696963574 ], [ 13.088688316632535, 78.166583880756903 ], [ 12.930416607733338, 78.153749739927264 ], [ 12.779838588151845, 78.144216282265148 ], [ 12.684678672849248, 78.14029915251156 ], [ 12.554399580438563, 78.141649727691089 ], [ 12.421702165655278, 78.143950195381834 ], [ 12.15546199331266, 78.140367344796715 ], [ 11.996184433515328, 78.138416012764395 ], [ 11.870902493971618, 78.139784398268461 ], [ 11.847521810857236, 78.141033849029995 ], [ 11.824633352650551, 78.143532361117309 ], [ 11.80866814477567, 78.146283202914091 ], [ 11.794746740321777, 78.14981593459126 ], [ 11.780311709877283, 78.1558677472906 ], [ 11.724882905056944, 78.171933972971644 ], [ 11.706948797551368, 78.175399944801299 ], [ 11.686467961175774, 78.180450133657757 ], [ 11.668330543382201, 78.18311581020383 ], [ 11.614849237109672, 78.188384037741457 ], [ 11.602832529037576, 78.190432410602213 ], [ 11.595952080871687, 78.191783925713054 ], [ 11.568954614740118, 78.198250248167938 ], [ 11.54544552512816, 78.205949218581026 ], [ 11.5139538315787, 78.211998994860906 ], [ 11.493451594120133, 78.213966808586235 ], [ 11.458878144626995, 78.214817241110708 ], [ 11.452768135446997, 78.215134224894229 ], [ 11.421971977093261, 78.217599852947572 ], [ 11.401448338551695, 78.21981586087206 ], [ 11.366115150614061, 78.226734414245072 ], [ 11.353863030629684, 78.230634299937549 ], [ 11.309380879734373, 78.26123226017441 ], [ 11.297695888448001, 78.266483545827683 ], [ 11.225103415108165, 78.318216791339481 ], [ 11.219517732460174, 78.325767078026118 ], [ 11.21700310521447, 78.328816158037725 ], [ 11.195880236350625, 78.342983628850234 ], [ 11.184280849395959, 78.351084364694927 ], [ 11.183521110951462, 78.356799313664069 ], [ 11.174714565320784, 78.361416785375283 ], [ 11.160868064657222, 78.365766958065606 ], [ 11.136000006278387, 78.371067033750094 ], [ 11.115668977483351, 78.373683822403336 ], [ 11.083899069855752, 78.376582537035006 ], [ 11.017031386202978, 78.386317340109443 ], [ 10.979247774268623, 78.390832796337222 ], [ 10.929115737476721, 78.398633815146468 ], [ 10.809483683830251, 78.435967274376878 ], [ 10.724917304584507, 78.459016673937811 ], [ 10.708930695626711, 78.46674893330264 ], [ 10.69460267059697, 78.471383267428251 ], [ 10.672848469786402, 78.48220025309935 ], [ 10.643646692111883, 78.490867557254759 ], [ 10.614487716603275, 78.497283236453427 ], [ 10.600480707817665, 78.502067610075471 ], [ 10.593503954778615, 78.506632485912576 ], [ 10.591535055147919, 78.511815929220731 ], [ 10.599967081827051, 78.52093412273841 ], [ 10.604268699498412, 78.530566621831156 ], [ 10.598768621182343, 78.538717346044294 ], [ 10.574767306662793, 78.549816188361561 ], [ 10.55169693925127, 78.557099810007429 ], [ 10.515432804205838, 78.565117333203432 ], [ 10.489494691680136, 78.572533429087855 ], [ 10.460153806966579, 78.579400110969061 ], [ 10.424981127151383, 78.589234051842254 ], [ 10.413125913317579, 78.591666667025663 ] ] } },
{ "type": "Feature", "properties": { "gml_id": "id5c39fd43-6228-4676-9a38-2b1d47be0bd0", "lokalId": "5391155d-4480-4fea-8ba4-decf42f7385b", "navnerom": "https://data.geonorge.no/sosi/kyst/sjokart_maritim_infrastruktur", "oppdateringsdato": "2015-06-25T00:00:00", "datauttaksdato": "2025-01-30T00:00:40", "målemetode": "ukjentMålemetode", "sjøstatus": null, "kabeltype": null, "førsteDatafangstdato": null, "layer": "Svalbardundersjøiskkabel", "path": "/Users/vegardhalkjelsvik/Desktop/Svalbardundersjøiskkabel.geojson" }, "geometry": { "type": "LineString", "coordinates": [ [ 10.413125913317579, 78.591666667025663 ], [ 10.386480578938626, 78.597134121757904 ], [ 10.365828533899613, 78.604216727512053 ], [ 10.358431227646079, 78.608333333691149 ] ] } },
{ "type": "Feature", "properties": { "gml_id": "id86cfac5a-b1c9-4006-a686-6f9766cb585c", "lokalId": "0688ced0-8d9d-41ae-812e-bc7214bac9c0", "navnerom": "https://data.geonorge.no/sosi/kyst/sjokart_maritim_infrastruktur", "oppdateringsdato": "2016-10-19T00:00:00", "datauttaksdato": "2025-01-30T00:00:40", "målemetode": "ukjentMålemetode", "sjøstatus": null, "kabeltype": "ukjent", "førsteDatafangstdato": null, "layer": "Svalbardundersjøiskkabel", "path": "/Users/vegardhalkjelsvik/Desktop/Svalbardundersjøiskkabel.geojson" }, "geometry": { "type": "LineString", "coordinates": [ [ 15.350395845088594, 78.241954270046421 ], [ 15.349382785167798, 78.242180137945809 ], [ 15.347897930962695, 78.242606439969379 ], [ 15.346304428888894, 78.243102850382598 ], [ 15.344828628672891, 78.243625073964253 ], [ 15.343669718073697, 78.244090073582555 ], [ 15.342655671299495, 78.244510771889026 ], [ 15.340690955674393, 78.245451753810201 ], [ 15.339459613162893, 78.246045825697394 ], [ 15.338201108684094, 78.246555006598172 ], [ 15.337268547811391, 78.246892603676883 ], [ 15.33712955593669, 78.246939085072256 ], [ 15.336435580818295, 78.247171160183569 ], [ 15.335892341474898, 78.247322426551179 ], [ 15.333257630659798, 78.247853688331531 ], [ 15.333085604867691, 78.247901648298523 ], [ 15.333022226944291, 78.247949608072517 ], [ 15.333, 78.248000000375939 ] ] } },
{ "type": "Feature", "properties": { "gml_id": "ida42d29ce-8b28-46d6-823b-ccb8b04125d5", "lokalId": "4f1b6427-27b7-481a-95b8-5863aa665c1a", "navnerom": "https://data.geonorge.no/sosi/kyst/sjokart_maritim_infrastruktur", "oppdateringsdato": "2016-10-19T00:00:00", "datauttaksdato": "2025-01-30T00:00:41", "målemetode": "ukjentMålemetode", "sjøstatus": null, "kabeltype": null, "førsteDatafangstdato": null, "layer": "Svalbardundersjøiskkabel", "path": "/Users/vegardhalkjelsvik/Desktop/Svalbardundersjøiskkabel.geojson" }, "geometry": { "type": "LineString", "coordinates": [ [ 15.3315, 78.246666667042561 ], [ 15.332042544938892, 78.246766130193564 ], [ 15.332392722270292, 78.246861263176271 ], [ 15.332478987600997, 78.24693687799396 ], [ 15.332361285743294, 78.247759612450778 ], [ 15.332406555688497, 78.247831552896912 ], [ 15.332542365524398, 78.24789426985464 ], [ 15.332795877217892, 78.247958831083835 ], [ 15.333, 78.248000000375939 ] ] } },
{ "type": "Feature", "properties": { "gml_id": "ida3f7d0f2-694a-4382-9575-be1cd3fc6ead", "lokalId": "f912067d-1374-4f76-9ae7-412bcdfc85f9", "navnerom": "https://data.geonorge.no/sosi/kyst/sjokart_maritim_infrastruktur", "oppdateringsdato": "2021-03-12T00:00:00", "datauttaksdato": "2025-01-30T00:00:46", "målemetode": "ukjentMålemetode", "sjøstatus": null, "kabeltype": null, "førsteDatafangstdato": null, "layer": "Svalbardundersjøiskkabel", "path": "/Users/vegardhalkjelsvik/Desktop/Svalbardundersjøiskkabel.geojson" }, "geometry": { "type": "LineString", "coordinates": [ [ 10.200420306267489, 78.591666667022793 ], [ 10.185331800366971, 78.597550990373094 ], [ 10.17811963541555, 78.603315776955327 ], [ 10.176482452570454, 78.611166063998368 ], [ 10.151421784445366, 78.62884926323153 ], [ 10.144798149274829, 78.636000997554447 ], [ 10.123600376620791, 78.64585003350831 ], [ 10.111369657719559, 78.653149150700656 ], [ 10.100818923829161, 78.671266296651993 ], [ 10.083462645563154, 78.696299102448975 ], [ 10.069348631362958, 78.704050502513567 ], [ 10.056529382680724, 78.714549296797543 ], [ 9.983755000136718, 78.782001006053335 ], [ 9.979367778133602, 78.796082794483524 ], [ 9.95966808128556, 78.80993318165018 ], [ 9.9535366710227, 78.818215784012878 ], [ 9.929299944591008, 78.838917559693087 ], [ 9.911451441417467, 78.846766974620763 ], [ 9.883501627095381, 78.871867066328434 ], [ 9.882399471323843, 78.882449129728315 ], [ 9.905362833320359, 78.908515930584528 ], [ 9.927470151999216, 78.932882918340155 ], [ 9.945554067085062, 78.94241618579558 ], [ 9.966152609416596, 78.948449861522931 ], [ 9.993599498289544, 78.954582814305297 ], [ 10.055084809581574, 78.964800344700663 ], [ 10.14015411427582, 78.975000348464235 ], [ 10.536855288230395, 79.005983354844616 ], [ 10.704618377413473, 79.015799056538839 ], [ 10.821671600565407, 79.020566062243475 ], [ 10.954379715889592, 79.021200013711677 ], [ 11.227168619611836, 79.016500574909074 ], [ 11.328920068460434, 79.013100653215531 ], [ 11.374878894078767, 79.01033426299351 ], [ 11.394118467643729, 79.008099839351999 ], [ 11.409570049528, 79.005750659853462 ], [ 11.428028483565674, 79.004033873573803 ], [ 11.464988153806821, 79.002000333379428 ], [ 11.484752053903996, 79.000334023500614 ], [ 11.500332042285878, 78.998066951472197 ], [ 11.516414956116952, 78.994432545966575 ], [ 11.535461919935438, 78.991749393586744 ], [ 11.582854618110982, 78.988566782597943 ], [ 11.636496432505632, 78.987082479776021 ], [ 11.650118221798305, 78.986749200037778 ], [ 11.674536857435392, 78.986467029033093 ], [ 11.684937783745278, 78.986082610662123 ], [ 11.698645177369775, 78.985516182838737 ], [ 11.721736945864345, 78.985233980617693 ], [ 11.743084526099228, 78.986101013971364 ], [ 11.743705157504534, 78.986133730890671 ], [ 11.765234646944419, 78.987266494993065 ], [ 11.787470372121394, 78.988065903608359 ], [ 11.812563141871076, 78.987632471782831 ], [ 11.833150983661467, 78.986150089314364 ], [ 11.851545214450351, 78.983567205860766 ], [ 11.864995795079553, 78.980083557883859 ], [ 11.874562079154641, 78.975516141967816 ], [ 11.894165471129734, 78.968833542082322 ], [ 11.90124922958362, 78.966383891474848 ], [ 11.932997736128414, 78.954832983782282 ], [ 11.937213749468011, 78.952232588487746 ], [ 11.937031840263002, 78.949633639783855 ], [ 11.931167943536806, 78.946949955614343 ], [ 11.924201891039122, 78.945000392923347 ], [ 11.924116286707314, 78.944983974110784 ], [ 11.913704659855917, 78.943549287337035 ], [ 11.90331443408753, 78.942549618578539 ], [ 11.899419436992037, 78.942350495245122 ], [ 11.889778249126534, 78.942299174224033 ], [ 11.885936754738434, 78.942334072544 ], [ 11.877451225351837, 78.942366917922143 ], [ 11.868719213356549, 78.942488307259211 ] ] } },
{ "type": "Feature", "properties": { "gml_id": "id9164b335-e518-4be9-9140-9d3981a54e48", "lokalId": "240b459b-c364-41a4-a844-8d01fc62c085", "navnerom": "https://data.geonorge.no/sosi/kyst/sjokart_maritim_infrastruktur", "oppdateringsdato": "2021-03-12T00:00:00", "datauttaksdato": "2025-01-30T00:00:46", "målemetode": "ukjentMålemetode", "sjøstatus": null, "kabeltype": null, "førsteDatafangstdato": null, "layer": "Svalbardundersjøiskkabel", "path": "/Users/vegardhalkjelsvik/Desktop/Svalbardundersjøiskkabel.geojson" }, "geometry": { "type": "LineString", "coordinates": [ [ 10.358431227646079, 78.608333333691149 ], [ 10.302245916478824, 78.639600499223519 ], [ 10.259754066297509, 78.685983029070698 ], [ 10.060895203600536, 78.853882650210522 ], [ 10.064554788783575, 78.904417689121459 ], [ 10.050601282705351, 78.916732617949975 ], [ 10.026150545444168, 78.93086720114573 ], [ 10.022779874880808, 78.935150936994347 ], [ 10.022704971090514, 78.935666518463307 ], [ 10.028033840743115, 78.941617608738156 ], [ 10.040981495922926, 78.947116165757109 ], [ 10.056561484304591, 78.950749600189909 ], [ 10.076721304435905, 78.953467236419371 ], [ 10.147334177602836, 78.962300628994527 ], [ 10.619730981923674, 78.999500775006581 ], [ 10.76628559791118, 79.00743248606463 ], [ 10.929554459676686, 79.010366908777215 ], [ 10.954155004518698, 79.010250607730228 ], [ 11.000713060459343, 79.007316154331221 ], [ 11.019513911823982, 79.005299544288349 ], [ 11.057586438378067, 78.998683804173311 ], [ 11.077264734143407, 78.996283605592041 ], [ 11.099404154447058, 78.994716558538542 ], [ 11.196297557467712, 78.992299155286219 ], [ 11.238917814147122, 78.992483084370647 ], [ 11.294400121674711, 78.994933138799297 ], [ 11.31972830333676, 78.996549184934693 ], [ 11.368362264322876, 78.997899455765577 ], [ 11.384916001978644, 78.997599182764944 ], [ 11.403684751718918, 78.996400052699485 ], [ 11.422731715537489, 78.994416199698591 ], [ 11.435229947975767, 78.992182665295971 ], [ 11.456566827669036, 78.98713359541857 ], [ 11.469664290429725, 78.984982446528946 ], [ 11.483061368351503, 78.983716509957006 ], [ 11.4889145645362, 78.98335040457124 ], [ 11.519721423431459, 78.98224997076143 ], [ 11.527885936573936, 78.981967685850066 ], [ 11.542117656730523, 78.982133375686061 ], [ 11.565252227390996, 78.982567021380177 ], [ 11.584170784711882, 78.982333836640905 ], [ 11.602062090051561, 78.981282399268068 ], [ 11.619332763985945, 78.979166950577053 ], [ 11.632515831078322, 78.976799381838447 ], [ 11.64691875989841, 78.974650332165126 ], [ 11.666019226424391, 78.972750636966339 ], [ 11.689046791670183, 78.971333843400657 ], [ 11.702604377714076, 78.970332561455095 ], [ 11.709302916674956, 78.969865675365654 ], [ 11.786978147213699, 78.966166756044032 ], [ 11.804184617899184, 78.965365776574885 ], [ 11.817613797445473, 78.964732736811811 ], [ 11.824130427201373, 78.964382398412425 ], [ 11.836168536356364, 78.963833307934834 ], [ 11.866986095793147, 78.961349770601856 ], [ 11.892699496948232, 78.957883780501064 ], [ 11.901313432832429, 78.956266223854698 ], [ 11.908429292910721, 78.953783054701901 ], [ 11.913148231699418, 78.951483939868666 ], [ 11.911136529902922, 78.949083824221447 ], [ 11.907969169627421, 78.94708333432871 ], [ 11.907038222519422, 78.946683193414813 ], [ 11.893095416982632, 78.94436619878077 ], [ 11.892613892616428, 78.944300519663386 ], [ 11.878146760547445, 78.943450761323675 ], [ 11.87763313455684, 78.943434340237104 ], [ 11.874797491067046, 78.943300918015609 ], [ 11.869880420001044, 78.943375481468593 ] ] } }
]
}
