{"type": "FeatureCollection", "features": [{"type": "Feature", "properties": {"id": "longyearbyen-ny-lesund", "name": "Longyearbyen-Ny-\u00c5lesund", "color": "#cf3a26", "rfs_year": 2015, "is_planned": false, "source": "TeleGeography Submarine Cable Map", "attribution": "\u00a9 TeleGeography (CC BY-NC-SA)"}, "geometry": {"type": "MultiLineString", "coordinates": [[[15.642983075583015, 78.21811207261818], [14.399947770389728, 78.1805481048246], [13.439915521912717, 78.19553573312052], [12.263388654575373, 78.07462869329086], [11.14997050809113, 78.19880447898082], [10.33406490277247, 78.54942321411524], [10.153754271763217, 78.86018755510426], [10.622561912388363, 78.98059783611505], [11.555669427862263, 79.02102059975907], [12.00644600538694, 78.96594066644326], [11.921007920000019, 78.92419333144106]], [[15.642983075583015, 78.21811207261818], [14.390139242279188, 78.19893286543507], [13.425633978043717, 78.21532136999372], [12.264958151590536, 78.10800320893884], [11.267757793652537, 78.21811207261818], [10.489481769969634, 78.55852997828387], [10.296713510676524, 78.85337381187666], [10.708671691332297, 78.96094079551753], [11.535857562016208, 79.00093560089958], [11.889317022209221, 78.96157484541638], [11.921007920000019, 78.92419333144106]]]}}, {"type": "Feature", "properties": {"id": "tampnet-south", "name": "Tampnet South", "color": "#2fbfcc", "rfs_year": 1999, "is_planned": false, "source": "TeleGeography Submarine Cable Map", "attribution": "\u00a9 TeleGeography (CC BY-NC-SA)"}, "geometry": {"type": "MultiLineString", "coordinates": [[[6.786929427419412, 58.06444], [6.20773590285459, 57.77370115124407], [3.784811151305202, 57.05999766701889], [2.700072321395319, 55.1785958685009], [2.17686178854155, 52.71521693088626], [1.72927301090669, 52.46882263773048]]]}}, {"type": "Feature", "properties": {"id": "tampnet-north", "name": "Tampnet North", "color": "#97489b", "rfs_year": 1999, "is_planned": false, "source": "TeleGeography Submarine Cable Map", "attribution": "\u00a9 TeleGeography (CC BY-NC-SA)"}, "geometry": {"type": "MultiLineString", "coordinates": [[[-2.105148882723821, 57.154005529539894], [-1.019603539673328, 57.50156765666057], [2.543382434183802, 57.811692596339775], [2.812797000086261, 58.320872572952], [4.015159331096359, 59.00181694401486], [5.45632037003535, 59.12232256855451], [5.524480322346307, 59.27926758037185]], [[3.784811151305202, 57.05999766701889], [2.543382434183802, 57.811692596339775]], [[4.015159331096359, 59.00181694401486], [4.010328581080518, 60.35428947498098], [4.554407710970825, 60.566745741422686], [4.830229999999557, 60.58733799999982]]]}}, {"type": "Feature", "properties": {"id": "arctic-way", "name": "Arctic Way", "color": "#939597", "rfs_year": 2028, "is_planned": true, "source": "TeleGeography Submarine Cable Map", "attribution": "\u00a9 TeleGeography (CC BY-NC-SA)"}, "geometry": {"type": "MultiLineString", "coordinates": [[[15.642983075583015, 78.21811207261818], [14.4195648266119, 78.15976978593042], [13.471469882339086, 78.17388694870507], [12.398621627831993, 78.05318583195591], [7.014126102905231, 77.0253238524219], [3.247651308331295, 70.55228024514132], [-8.73434999999954, 70.909133]], [[3.247651308331295, 70.55228024514132], [7.617180079696026, 66.90144145307879], [10.990984417977389, 66.46843210694536], [14.400064034799321, 67.28599754127343], [15.392073040652047, 67.25991977910047]]]}}, {"type": "Feature", "properties": {"id": "ioema-1", "name": "IOEMA-1", "color": "#939597", "rfs_year": 2029, "is_planned": true, "source": "TeleGeography Submarine Cable Map", "attribution": "\u00a9 TeleGeography (CC BY-NC-SA)"}, "geometry": {"type": "MultiLineString", "coordinates": [[[1.43945857171798, 51.35885], [2.025072801359273, 51.86557165559819], [2.700072321395319, 52.00429650272413], [3.037572083499449, 52.356869357572975], [3.825071526223208, 52.69150159464696], [4.275071206843381, 53.23359531864929], [5.85007009109946, 53.76891056666807], [7.425068975355357, 54.16597178715178], [7.200069135343221, 55.462350188098306], [7.200069135343221, 55.77997032709834], [7.31256905505143, 56.55247760361325], [8.10006849658357, 57.932056586951404], [7.99484857171814, 58.143805]], [[5.85007009109946, 53.76891056666807], [6.52506961292339, 53.635715156995076], [6.816016292361981, 53.442799]], [[7.425068975355357, 54.16597178715178], [7.987568576875359, 53.90168472607427], [8.10006849717947, 53.70236555668246], [8.10686849236221, 53.532340299999966]], [[7.200069135343221, 55.77997032709834], [7.650068816559295, 55.716652093821786], [8.329197999999858, 55.751672743003255]], [[3.037572083499449, 52.356869357572975], [2.25007264196731, 52.34923443600231], [1.574842, 52.20525622625099]], [[2.700072321395319, 52.00429650272413], [3.375071846795381, 52.00429650272413], [4.317414999999649, 52.08399199999982]]]}}, {"type": "Feature", "properties": {"id": "norfest", "name": "Norfest", "color": "#4db748", "rfs_year": 2023, "is_planned": false, "source": "TeleGeography Submarine Cable Map", "attribution": "\u00a9 TeleGeography (CC BY-NC-SA)"}, "geometry": {"type": "MultiLineString", "coordinates": [[[10.748015840098633, 59.91860302672068], [10.575066743867334, 59.755303236949786], [10.630839956892295, 59.664530734634965], [10.603191723943405, 59.52787100202252], [10.700836654770828, 59.459167]], [[10.700836654770828, 59.459167], [10.571156746637262, 59.30270062107635], [10.575066743867334, 59.06836550247494], [10.237566982955368, 58.89444683796138], [9.900067222043404, 58.71964879559121], [9.450067540827328, 58.48521196181824], [9.112567779915365, 58.36740335134618], [8.662568098699472, 58.07115384928297], [8.325068337787325, 57.932056586951404], [7.875068657167333, 57.87227791046836], [6.883089359298951, 57.85581468734289], [6.52506961292339, 57.928738157570194], [5.962570011403388, 58.26235337816782], [5.988709992885582, 58.42414318521949], [5.512570330187313, 58.48521196181824], [5.287570489579458, 58.641677771385005], [5.287570489579458, 58.81686755183246], [5.512570330783214, 58.99117670269853], [5.730770176208511, 58.9708214866686]], [[6.52506961292339, 57.928738157570194], [6.786929427419412, 58.06444]], [[8.325068337787325, 57.932056586951404], [7.99484857171814, 58.143805]], [[9.112567779915365, 58.36740335134618], [8.758668030621324, 58.470047]], [[10.237566982955368, 58.89444683796138], [10.016367140251454, 59.081110697513395]], [[10.575066743867334, 59.06836550247494], [10.91256650477948, 58.98151591602632], [11.118406358960579, 58.96833839999996]]]}}, {"type": "Feature", "properties": {"id": "havsil", "name": "Havsil", "color": "#2b2f83", "rfs_year": 2022, "is_planned": false, "source": "TeleGeography Submarine Cable Map", "attribution": "\u00a9 TeleGeography (CC BY-NC-SA)"}, "geometry": {"type": "MultiLineString", "coordinates": [[[8.616168131569658, 57.1116502612406], [8.662568098699472, 57.28927362171987], [8.212568416291413, 57.932056586951404], [7.996258571315225, 58.15106571642484]]]}}, {"type": "Feature", "properties": {"id": "eviny-digital", "name": "Eviny Digital", "color": "#ca3693", "rfs_year": 2020, "is_planned": false, "source": "TeleGeography Submarine Cable Map", "attribution": "\u00a9 TeleGeography (CC BY-NC-SA)"}, "geometry": {"type": "MultiLineString", "coordinates": [[[5.332770458155255, 60.39072370580963], [5.400120410443995, 60.35426474321958], [5.468820361776232, 60.29859553499128], [5.512570330783214, 60.18692233975928], [5.45632037063125, 60.07486799642317], [5.456325370031929, 59.948350184903155], [5.568820290339459, 59.8966669924279], [5.568820290339459, 59.78362399299559], [5.540705310256183, 59.684391141142534], [5.512575330183894, 59.64177978429336], [5.498517840142164, 59.61333874687536], [5.512575330183894, 59.58487361294478], [5.484445350111423, 59.54925828942217], [5.45632037003535, 59.52787100202234], [5.484445350111423, 59.470771844605345], [5.568825290335857, 59.41356840141763], [5.59694527041535, 59.37061568324753], [5.59694527041535, 59.327600860309545], [5.568820290339459, 59.29889402722166], [5.524480322346307, 59.27926758037185], [5.850070091695361, 59.106894957190725], [5.850070091695361, 59.0490845446616], [5.730770176208511, 58.9708214866686]]]}}, {"type": "Feature", "properties": {"id": "n0r5ke-viking", "name": "N0r5ke Viking", "color": "#dabb26", "rfs_year": 2022, "is_planned": false, "source": "TeleGeography Submarine Cable Map", "attribution": "\u00a9 TeleGeography (CC BY-NC-SA)"}, "geometry": {"type": "MultiLineString", "coordinates": [[[9.663153327971374, 63.68839703736199], [9.618817421879303, 63.676230956459754], [9.637665064777563, 63.61946636684095], [9.112567779915365, 63.54288560128821], [8.97524787719417, 63.50462478492522], [8.69395807646262, 63.40817512674497], [8.380908298229913, 63.36151643295419], [8.09337850191876, 63.301036488500856], [7.875068656571432, 63.172946959532915], [7.729668760170019, 63.11078338854437], [7.762568738651288, 63.020234537564136], [7.650068815963395, 62.917978785251854], [7.425068974759457, 62.81536487879325], [7.16071369447304, 62.73722946432863], [6.862569374431255, 62.76392332890585], [6.637569533823219, 62.73816885430014], [6.465792311761914, 62.613002975496656], [6.300069772911254, 62.66077045886663], [6.187569852607326, 62.6090589082033], [6.174386268196741, 62.47148731681593], [5.962570011999289, 62.50536500000049], [5.850070091695361, 62.45338241250811], [5.400070410479286, 62.29689073879045], [5.287570488983557, 62.24454516169996], [5.343820449731422, 62.13958079203442], [5.522335948269336, 62.03599154304595], [5.45632037003535, 61.981449485650025], [5.498507840149368, 61.935540246038215], [5.06257064837552, 61.981449485650025], [4.837570808959284, 61.92855599360773], [4.725070888655357, 61.8224937418921], [4.725070888655357, 61.71606370959994], [4.975851960403757, 61.59630726299676], [4.725070888655357, 61.555727089493594], [4.725070888655357, 61.448373642843436], [4.950070729263212, 61.23255301306618], [5.293429861024427, 61.17224436826955], [4.837570808959284, 61.01524141470424], [4.725070888655357, 60.796431695350094], [4.855539546230003, 60.62197249344922], [5.062570649567322, 60.57611674038769], [5.287570490175359, 60.46539258705817], [5.332770458155255, 60.39072370580963]], [[7.16071369447304, 62.73722946432863], [7.425068975951258, 62.66077045886663], [7.68161176296393, 62.5639562408968]], [[9.637665064777563, 63.61946636684095], [9.815742282376158, 63.57628059164396], [9.900067222639304, 63.48851288982234], [10.293816943703233, 63.46341549544048], [10.39205906160764, 63.431002047425466]]]}}, {"type": "Feature", "properties": {"id": "skagenfiber-west", "name": "Skagenfiber West", "color": "#463d98", "rfs_year": 2020, "is_planned": false, "source": "TeleGeography Submarine Cable Map", "attribution": "\u00a9 TeleGeography (CC BY-NC-SA)"}, "geometry": {"type": "MultiLineString", "coordinates": [[[10.016367140251454, 59.081110697513395], [10.012567142943231, 58.93317132635278], [9.900067222639304, 58.347730245248535], [9.900067222639304, 57.8123997505166], [9.959267180701625, 57.58818834277179]]]}}, {"type": "Feature", "properties": {"id": "polar-circle-cable", "name": "Polar Circle Cable", "color": "#51b847", "rfs_year": 2007, "is_planned": false, "source": "TeleGeography Submarine Cable Map", "attribution": "\u00a9 TeleGeography (CC BY-NC-SA)"}, "geometry": {"type": "MultiLineString", "coordinates": [[[10.39205906160764, 63.431002047425466], [10.293816943703233, 63.475978110242565], [9.900067222639304, 63.501086792509675], [9.84381726248734, 63.57628059164396], [9.675067382031267, 63.67620878431391], [9.506323501571089, 63.676230956459754], [9.450067541423229, 63.72607438667935], [9.450067541423229, 63.82549832634276], [9.618817421879303, 63.9245724837926], [9.900067222639304, 64.12167519439019], [10.237566983551268, 64.31739001144432], [10.462566824159307, 64.46326983353534], [10.80006658507127, 64.53591955943627], [11.025066425679308, 64.70468599661157], [11.237370962780789, 64.86207950442952], [11.475066106895383, 64.96778031868575], [11.700065947503239, 65.01533984410804], [11.925065788111276, 65.13386892664593], [12.207765587844191, 65.4735570531501], [12.178190608795386, 65.55616358500053], [12.262565549023423, 65.62596082080819], [12.543815349783424, 65.83404693088374], [12.631465287691332, 66.02153874887068], [12.76881519039128, 66.15441959094389], [13.018265013678757, 66.19806628775785], [12.993815030999317, 66.38080449917227], [13.05006499115128, 66.44832399589347], [12.937565070847352, 66.56045213116762], [13.05006499115128, 66.71658546201289], [13.500064672367355, 66.9599547424863], [13.950064353583429, 67.13543790495432], [14.400064034799321, 67.28600553539499], [14.512563955103431, 67.4394931950777], [14.90631367616736, 67.61151472096566], [15.131313516775398, 67.65432532704786], [15.356313357383435, 67.78229156045444], [15.581313197991472, 67.90956187665087], [15.887562981041073, 67.97293705344723], [16.143812799511473, 68.0571685658069], [16.17188777962302, 68.1411682869287], [16.127072811370326, 68.22074777678259], [16.06516285522785, 68.28972225489511], [16.152422793411976, 68.36187412811805], [16.312562679967364, 68.38642806305175], [16.668812427596713, 68.41735740826869], [17.073261876822006, 68.4078545509302], [17.560022733754895, 68.42054850557746]]]}}, {"type": "Feature", "properties": {"id": "tverrlinken", "name": "Tverrlinken", "color": "#1bbaae", "rfs_year": 2010, "is_planned": false, "source": "TeleGeography Submarine Cable Map", "attribution": "\u00a9 TeleGeography (CC BY-NC-SA)"}, "geometry": {"type": "MultiLineString", "coordinates": [[[13.018229076204191, 66.19806628775785], [13.05006499115128, 66.24521776261776], [13.218814871607353, 66.2904946262551], [13.387564752063426, 66.31310255415397], [13.563638846080835, 66.29296835834754], [13.563638846080835, 66.24773433541888], [13.624478646731358, 66.22416306028732], [13.781314473127356, 66.256524477016], [13.950064353583429, 66.256524477016], [14.141958748893504, 66.31371064643902]]]}}, {"type": "Feature", "properties": {"id": "no-uk", "name": "NO-UK", "color": "#ac84bb", "rfs_year": 2021, "is_planned": false, "source": "TeleGeography Submarine Cable Map", "attribution": "\u00a9 TeleGeography (CC BY-NC-SA)"}, "geometry": {"type": "MultiLineString", "coordinates": [[[-1.617778330734679, 54.97824921450541], [-0.899925126544665, 55.33458061322904], [0.900073598319269, 55.84318584148108], [2.534972440141771, 56.54919247234551], [3.375071845007315, 58.05131589106027], [4.050071366831244, 58.641677771385005], [5.17507056987125, 58.90413203005045], [5.512570330783214, 59.020142808923744], [5.730770176208511, 58.9708214866686]]]}}, {"type": "Feature", "properties": {"id": "havfrueaec-2", "name": "Havfrue/AEC-2", "color": "#30aa9f", "rfs_year": 2020, "is_planned": false, "source": "TeleGeography Submarine Cable Map", "attribution": "\u00a9 TeleGeography (CC BY-NC-SA)"}, "geometry": {"type": "MultiLineString", "coordinates": [[[-16.199914287888834, 54.978249214505595], [-12.599916838160784, 54.81936191424915], [-10.799918113296759, 54.16597178715178], [-10.349918432080775, 53.90168472607427], [-9.696518894955075, 53.77080186175808]], [[-74.06286329723282, 40.15283384719588], [-71.09987539624129, 40.55848045058698], [-68.39987730894529, 41.2387523289666], [-61.271210686134594, 42.214658259454346], [-50.412904436546576, 44.56570279031], [-39.60007920054038, 47.68565977426421], [-23.399909187344846, 52.96339810559356], [-16.199914287888834, 54.978249214505595], [-8.865356717158239, 59.06209854585344], [-5.399921938704683, 59.679663707208995], [-1.799924488976633, 59.45171731890513], [1.800072960751236, 58.52439396084473], [4.414719545415143, 57.53602588648357], [5.400070410479286, 56.717468482041156], [6.300069772911254, 56.22032688484507], [7.200069135343221, 55.84318584148108], [7.650068816559295, 55.77997032709834], [8.329168335478972, 55.75165023178103]], [[7.996258571315225, 58.15106571642484], [7.987568576875359, 57.932056586951404], [6.300069772911254, 57.57189027900508], [4.414719545415143, 57.53602588648357]]]}}, {"type": "Feature", "properties": {"id": "bodo-rost-cable", "name": "Bodo-Rost Cable", "color": "#395eab", "rfs_year": 2016, "is_planned": false, "source": "TeleGeography Submarine Cable Map", "attribution": "\u00a9 TeleGeography (CC BY-NC-SA)"}, "geometry": {"type": "MultiLineString", "coordinates": [[[12.070165685321246, 67.50255969476507], [12.150065628719313, 67.4394931950777], [13.950064353583429, 67.26621947299489], [14.400064034799321, 67.28599754127343]]]}}, {"type": "Feature", "properties": {"id": "skagerrak-4", "name": "Skagerrak 4", "color": "#60bb46", "rfs_year": 2014, "is_planned": false, "source": "TeleGeography Submarine Cable Map", "attribution": "\u00a9 TeleGeography (CC BY-NC-SA)"}, "geometry": {"type": "MultiLineString", "coordinates": [[[7.996258571315225, 58.15106571642484], [8.437568258687335, 57.932056586951404], [8.7750680195993, 57.57189027900508], [9.112567780511265, 57.14714566273729], [9.112567780511265, 56.840738642145496], [9.225067700815375, 56.717468482041156], [9.281317660967337, 56.593792978418996], [9.337567621119302, 56.56281067903171], [9.611687426930285, 56.51079153038908]]]}}, {"type": "Feature", "properties": {"id": "svalbard-undersea-cable-system", "name": "Svalbard Undersea Cable System", "color": "#944c9d", "rfs_year": 2004, "is_planned": false, "source": "TeleGeography Submarine Cable Map", "attribution": "\u00a9 TeleGeography (CC BY-NC-SA)"}, "geometry": {"type": "MultiLineString", "coordinates": [[[15.642983075583015, 78.21811207261818], [14.42937335472244, 78.13693925913735], [13.507532008541482, 78.15076892267464], [12.76375065562616, 78.04851931491818], [11.700065947503239, 77.07068952519339], [12.600065309935387, 73.42211510500317], [16.20006275966344, 69.73724550802271], [16.875062281487367, 69.10459505606217], [16.875062281487367, 68.8625186415942], [16.553187508910593, 68.73431026184308], [16.987562201791476, 68.8625186415942], [17.100062122095405, 69.10459505606217], [16.65006244087933, 69.73724550802271], [13.05006499115128, 73.42211510500317], [12.150065628719313, 77.07068952519339], [13.05006499115128, 78.03993864842269], [13.525563071642315, 78.12018490851229], [14.452259920314427, 78.1154120692674], [15.642983075583015, 78.21811207261818]]]}}], "properties": {"source": "TeleGeography Submarine Cable Map", "license": "CC BY-NC-SA", "url": "https://www.submarinecablemap.com/country/norway", "cable_count": 17, "segment_count": 17}}