{"type": "FeatureCollection", "features": [{"type": "Feature", "properties": {"id": "kristiansand-norway", "name": "Kristiansand, Norway", "is_tbd": false, "source": "TeleGeography Submarine Cable Map"}, "geometry": {"type": "Point", "coordinates": [7.996259976968266, 58.15095596477219]}}, {"type": "Feature", "properties": {"id": "rst-norway", "name": "R\u00f8st, Norway", "is_tbd": false, "source": "TeleGeography Submarine Cable Map"}, "geometry": {"type": "Point", "coordinates": [12.070117249965712, 67.50256025183084]}}, {"type": "Feature", "properties": {"id": "bod-norway", "name": "Bod\u00f8, Norway", "is_tbd": false, "source": "TeleGeography Submarine Cable Map"}, "geometry": {"type": "Point", "coordinates": [14.400076793159448, 67.28600571343614]}}, {"type": "Feature", "properties": {"id": "wall-township-nj-united-states", "name": "Wall Township, NJ, United States", "is_tbd": false, "source": "TeleGeography Submarine Cable Map"}, "geometry": {"type": "Point", "coordinates": [-74.06287361347052, 40.15287376160566]}}, {"type": "Feature", "properties": {"id": "blaabjerg-denmark", "name": "Blaabjerg, Denmark", "is_tbd": false, "source": "TeleGeography Submarine Cable Map"}, "geometry": {"type": "Point", "coordinates": [8.329194484059272, 55.75167411423394]}}, {"type": "Feature", "properties": {"id": "lecanvey-ireland", "name": "Lecanvey, Ireland", "is_tbd": false, "source": "TeleGeography Submarine Cable Map"}, "geometry": {"type": "Point", "coordinates": [-9.696504823189091, 53.770824560670455]}}, {"type": "Feature", "properties": {"id": "newcastle-united-kingdom", "name": "Newcastle, United Kingdom", "is_tbd": false, "source": "TeleGeography Submarine Cable Map"}, "geometry": {"type": "Point", "coordinates": [-1.617778331330762, 54.978249214505595]}}, {"type": "Feature", "properties": {"id": "eemshaven-netherlands", "name": "Eemshaven, Netherlands", "is_tbd": false, "source": "TeleGeography Submarine Cable Map"}, "geometry": {"type": "Point", "coordinates": [6.816022174500881, 53.4428046914825]}}, {"type": "Feature", "properties": {"id": "trondheim-norway", "name": "Trondheim, Norway", "is_tbd": false, "source": "TeleGeography Submarine Cable Map"}, "geometry": {"type": "Point", "coordinates": [10.392083475057504, 63.43101023727201]}}, {"type": "Feature", "properties": {"id": "hirtshals-denmark", "name": "Hirtshals, Denmark", "is_tbd": false, "source": "TeleGeography Submarine Cable Map"}, "geometry": {"type": "Point", "coordinates": [9.959261211922845, 57.588193620275256]}}, {"type": "Feature", "properties": {"id": "larvik-norway", "name": "Larvik, Norway", "is_tbd": false, "source": "TeleGeography Submarine Cable Map"}, "geometry": {"type": "Point", "coordinates": [10.01639007770235, 59.08111106501056]}}, {"type": "Feature", "properties": {"id": "narvik-norway", "name": "Narvik, Norway", "is_tbd": false, "source": "TeleGeography Submarine Cable Map"}, "geometry": {"type": "Point", "coordinates": [17.55999831911432, 68.42055748484374]}}, {"type": "Feature", "properties": {"id": "nesna-norway", "name": "Nesna, Norway", "is_tbd": false, "source": "TeleGeography Submarine Cable Map"}, "geometry": {"type": "Point", "coordinates": [13.01819245454037, 66.19807367745263]}}, {"type": "Feature", "properties": {"id": "sandnessjen-norway", "name": "Sandnessj\u00f8en, Norway", "is_tbd": false, "source": "TeleGeography Submarine Cable Map"}, "geometry": {"type": "Point", "coordinates": [12.631461771472987, 66.0215486705702]}}, {"type": "Feature", "properties": {"id": "brnnysund-norway", "name": "Br\u00f8nn\u00f8ysund, Norway", "is_tbd": false, "source": "TeleGeography Submarine Cable Map"}, "geometry": {"type": "Point", "coordinates": [12.207743809919723, 65.47356212044562]}}, {"type": "Feature", "properties": {"id": "rrvik-norway", "name": "R\u00f8rvik, Norway", "is_tbd": false, "source": "TeleGeography Submarine Cable Map"}, "geometry": {"type": "Point", "coordinates": [11.237346548140215, 64.86207691166618]}}, {"type": "Feature", "properties": {"id": "utskarpen-norway", "name": "Utskarpen, Norway", "is_tbd": false, "source": "TeleGeography Submarine Cable Map"}, "geometry": {"type": "Point", "coordinates": [13.563626638462416, 66.29295854243092]}}, {"type": "Feature", "properties": {"id": "hemnesberget-norway", "name": "Hemnesberget, Norway", "is_tbd": false, "source": "TeleGeography Submarine Cable Map"}, "geometry": {"type": "Point", "coordinates": [13.624454232090782, 66.2241605995991]}}, {"type": "Feature", "properties": {"id": "mo-i-rana-norway", "name": "Mo I Rana, Norway", "is_tbd": false, "source": "TeleGeography Submarine Cable Map"}, "geometry": {"type": "Point", "coordinates": [14.141983162344278, 66.31371064643939]}}, {"type": "Feature", "properties": {"id": "tjele-denmark", "name": "Tjele, Denmark", "is_tbd": false, "source": "TeleGeography Submarine Cable Map"}, "geometry": {"type": "Point", "coordinates": [9.611688520083643, 56.51080050758227]}}, {"type": "Feature", "properties": {"id": "lista-norway", "name": "Lista, Norway", "is_tbd": false, "source": "TeleGeography Submarine Cable Map"}, "geometry": {"type": "Point", "coordinates": [6.786928999999851, 58.06444]}}, {"type": "Feature", "properties": {"id": "breivika-norway", "name": "Breivika, Norway", "is_tbd": false, "source": "TeleGeography Submarine Cable Map"}, "geometry": {"type": "Point", "coordinates": [16.553187508910593, 68.73504741252802]}}, {"type": "Feature", "properties": {"id": "longyearbyen-svalbard-norway", "name": "Longyearbyen, Svalbard, Norway", "is_tbd": false, "source": "TeleGeography Submarine Cable Map"}, "geometry": {"type": "Point", "coordinates": [15.648793618341642, 78.21852706841459]}}, {"type": "Feature", "properties": {"id": "lowestoft-united-kingdom", "name": "Lowestoft, United Kingdom", "is_tbd": false, "source": "TeleGeography Submarine Cable Map"}, "geometry": {"type": "Point", "coordinates": [1.729174572880337, 52.47136138660393]}}, {"type": "Feature", "properties": {"id": "krst-norway", "name": "K\u00e5rst\u00f8, Norway", "is_tbd": false, "source": "TeleGeography Submarine Cable Map"}, "geometry": {"type": "Point", "coordinates": [5.524386728065418, 59.27926561977106]}}, {"type": "Feature", "properties": {"id": "dumpton-gap-united-kingdom", "name": "Dumpton Gap, United Kingdom", "is_tbd": false, "source": "TeleGeography Submarine Cable Map"}, "geometry": {"type": "Point", "coordinates": [1.439331028208309, 51.358582140301266]}}, {"type": "Feature", "properties": {"id": "wilhelmshaven-germany", "name": "Wilhelmshaven, Germany", "is_tbd": false, "source": "TeleGeography Submarine Cable Map"}, "geometry": {"type": "Point", "coordinates": [8.10687219999963, 53.532340299999966]}}, {"type": "Feature", "properties": {"id": "leiston-united-kingdom", "name": "Leiston, United Kingdom", "is_tbd": false, "source": "TeleGeography Submarine Cable Map"}, "geometry": {"type": "Point", "coordinates": [1.574842, 52.20525899999987]}}, {"type": "Feature", "properties": {"id": "capri-strand-sweden", "name": "Capri Strand, Sweden", "is_tbd": false, "source": "TeleGeography Submarine Cable Map"}, "geometry": {"type": "Point", "coordinates": [11.118404899999714, 58.96833839999996]}}, {"type": "Feature", "properties": {"id": "moss-norway", "name": "Moss, Norway", "is_tbd": false, "source": "TeleGeography Submarine Cable Map"}, "geometry": {"type": "Point", "coordinates": [10.700833000000491, 59.459167]}}, {"type": "Feature", "properties": {"id": "drbak-norway", "name": "Dr\u00f8bak, Norway", "is_tbd": false, "source": "TeleGeography Submarine Cable Map"}, "geometry": {"type": "Point", "coordinates": [10.630839956892295, 59.664530734634965]}}, {"type": "Feature", "properties": {"id": "arendal-norway", "name": "Arendal, Norway", "is_tbd": false, "source": "TeleGeography Submarine Cable Map"}, "geometry": {"type": "Point", "coordinates": [8.758665999999655, 58.470047]}}, {"type": "Feature", "properties": {"id": "egersund-norway", "name": "Egersund, Norway", "is_tbd": false, "source": "TeleGeography Submarine Cable Map"}, "geometry": {"type": "Point", "coordinates": [5.988714595834254, 58.42414318521949]}}, {"type": "Feature", "properties": {"id": "stavanger-norway", "name": "Stavanger, Norway", "is_tbd": false, "source": "TeleGeography Submarine Cable Map"}, "geometry": {"type": "Point", "coordinates": [5.730793999999772, 58.970833]}}, {"type": "Feature", "properties": {"id": "oslo-norway", "name": "Oslo, Norway", "is_tbd": false, "source": "TeleGeography Submarine Cable Map"}, "geometry": {"type": "Point", "coordinates": [10.749980000000228, 59.91228]}}, {"type": "Feature", "properties": {"id": "fauske-norway", "name": "Fauske, Norway", "is_tbd": false, "source": "TeleGeography Submarine Cable Map"}, "geometry": {"type": "Point", "coordinates": [15.392073040652047, 67.25991977910047]}}, {"type": "Feature", "properties": {"id": "ny-lesund-norway", "name": "Ny-\u00c5lesund, Norway", "is_tbd": false, "source": "TeleGeography Submarine Cable Map"}, "geometry": {"type": "Point", "coordinates": [11.921007920000019, 78.92419333144106]}}, {"type": "Feature", "properties": {"id": "ygarden-norway", "name": "\u00d8ygarden, Norway", "is_tbd": false, "source": "TeleGeography Submarine Cable Map"}, "geometry": {"type": "Point", "coordinates": [4.830229999999557, 60.58733799999982]}}, {"type": "Feature", "properties": {"id": "aberdeen-united-kingdom", "name": "Aberdeen, United Kingdom", "is_tbd": false, "source": "TeleGeography Submarine Cable Map"}, "geometry": {"type": "Point", "coordinates": [-2.106789, 57.15381999999989]}}, {"type": "Feature", "properties": {"id": "the-hague-netherlands", "name": "The Hague, Netherlands", "is_tbd": false, "source": "TeleGeography Submarine Cable Map"}, "geometry": {"type": "Point", "coordinates": [4.317414999999649, 52.08399199999982]}}, {"type": "Feature", "properties": {"id": "olonkinbyen-norway", "name": "Olonkinbyen, Norway", "is_tbd": false, "source": "TeleGeography Submarine Cable Map"}, "geometry": {"type": "Point", "coordinates": [-8.73434999999954, 70.909133]}}, {"type": "Feature", "properties": {"id": "bergen-norway", "name": "Bergen, Norway", "is_tbd": false, "source": "TeleGeography Submarine Cable Map"}, "geometry": {"type": "Point", "coordinates": [5.332751777721427, 60.3907070886836]}}, {"type": "Feature", "properties": {"id": "hanstholm-denmark", "name": "Hanstholm, Denmark", "is_tbd": false, "source": "TeleGeography Submarine Cable Map"}, "geometry": {"type": "Point", "coordinates": [8.616176544405644, 57.11164198902862]}}, {"type": "Feature", "properties": {"id": "sture-norway", "name": "Sture, Norway", "is_tbd": false, "source": "TeleGeography Submarine Cable Map"}, "geometry": {"type": "Point", "coordinates": [4.85548799999971, 60.621982]}}, {"type": "Feature", "properties": {"id": "hyllestad-norway", "name": "Hyllestad, Norway", "is_tbd": false, "source": "TeleGeography Submarine Cable Map"}, "geometry": {"type": "Point", "coordinates": [5.293384, 61.17225099999944]}}, {"type": "Feature", "properties": {"id": "herlandsvika-norway", "name": "Herlandsvika, Norway", "is_tbd": false, "source": "TeleGeography Submarine Cable Map"}, "geometry": {"type": "Point", "coordinates": [6.465751000000408, 62.614440999999644]}}, {"type": "Feature", "properties": {"id": "andalsnes-norway", "name": "Andalsnes, Norway", "is_tbd": false, "source": "TeleGeography Submarine Cable Map"}, "geometry": {"type": "Point", "coordinates": [7.681580000000571, 62.56581899999933]}}, {"type": "Feature", "properties": {"id": "brekstad-norway", "name": "Brekstad, Norway", "is_tbd": false, "source": "TeleGeography Submarine Cable Map"}, "geometry": {"type": "Point", "coordinates": [9.66311, 63.68841000000035]}}, {"type": "Feature", "properties": {"id": "kristiansund-norway", "name": "Kristiansund, Norway", "is_tbd": false, "source": "TeleGeography Submarine Cable Map"}, "geometry": {"type": "Point", "coordinates": [7.72968, 63.11078500000032]}}, {"type": "Feature", "properties": {"id": "heim-norway", "name": "\u00c5heim, Norway", "is_tbd": false, "source": "TeleGeography Submarine Cable Map"}, "geometry": {"type": "Point", "coordinates": [5.522346499999918, 62.035985699999486]}}, {"type": "Feature", "properties": {"id": "lefdal-norway", "name": "Lefdal, Norway", "is_tbd": false, "source": "TeleGeography Submarine Cable Map"}, "geometry": {"type": "Point", "coordinates": [5.498518699999691, 61.93554279999944]}}, {"type": "Feature", "properties": {"id": "flor-norway", "name": "Flor\u00f8, Norway", "is_tbd": false, "source": "TeleGeography Submarine Cable Map"}, "geometry": {"type": "Point", "coordinates": [4.975850599999511, 61.5963114999995]}}, {"type": "Feature", "properties": {"id": "tjeldbergodden-norway", "name": "Tjeldbergodden, Norway", "is_tbd": false, "source": "TeleGeography Submarine Cable Map"}, "geometry": {"type": "Point", "coordinates": [8.693961500000043, 63.40817519999965]}}, {"type": "Feature", "properties": {"id": "hitra-norway", "name": "Hitra, Norway", "is_tbd": false, "source": "TeleGeography Submarine Cable Map"}, "geometry": {"type": "Point", "coordinates": [8.975251599999408, 63.504622699999835]}}, {"type": "Feature", "properties": {"id": "edya-norway", "name": "Ed\u00f8ya, Norway", "is_tbd": false, "source": "TeleGeography Submarine Cable Map"}, "geometry": {"type": "Point", "coordinates": [8.093379399999966, 63.30103670000029]}}, {"type": "Feature", "properties": {"id": "lesund-norway", "name": "\u00c5lesund, Norway", "is_tbd": false, "source": "TeleGeography Submarine Cable Map"}, "geometry": {"type": "Point", "coordinates": [6.174380000000262, 62.47148500000043]}}, {"type": "Feature", "properties": {"id": "molde-norway", "name": "Molde, Norway", "is_tbd": false, "source": "TeleGeography Submarine Cable Map"}, "geometry": {"type": "Point", "coordinates": [7.160730600000246, 62.737235199999844]}}], "properties": {"source": "TeleGeography Submarine Cable Map", "license": "CC BY-NC-SA", "url": "https://www.submarinecablemap.com/country/norway"}}