{"type": "FeatureCollection", "features": [{"type": "Feature", "geometry": {"type": "LineString", "coordinates": [[-17.850000000009217, 76.55000000000067], [-17.80000000000922, 76.55000000000067], [-17.700000000009226, 76.55000000000067], [-17.60000000000923, 76.55000000000067], [-17.500000000009237, 76.55000000000067], [-17.400000000009243, 76.55000000000067], [-17.30000000000925, 76.55000000000067], [-17.200000000009254, 76.55000000000067], [-17.150000000009257, 76.60000000000066], [-17.150000000009257, 76.70000000000067], [-17.200000000009254, 76.75000000000067], [-17.30000000000925, 76.75000000000067], [-17.400000000009243, 76.75000000000067], [-17.500000000009237, 76.75000000000067], [-17.60000000000923, 76.75000000000067], [-17.65000000000923, 76.75000000000067]]}, "properties": {"source": "Copernicus Marine / OSI SAF", "dataset_id": "osisaf_obs-si_glo_phy-siedge_nrt_nh-P1D", "variable": "ice_edge", "mode": "ice_edge_class", "time": "2026-09-24", "generated_at": "2026-09-25T14:51:05.359098+00:00", "level": 1.5}}, {"type": "Feature", "geometry": {"type": "LineString", "coordinates": [[-17.150000000009257, 76.95000000000067], [-17.150000000009257, 76.90000000000066], [-17.10000000000926, 76.85000000000066], [-17.000000000009265, 76.85000000000066], [-16.95000000000927, 76.90000000000066], [-16.90000000000927, 76.95000000000067], [-16.800000000009277, 76.95000000000067], [-16.700000000009283, 76.95000000000067], [-16.600000000009288, 76.95000000000067], [-16.500000000009294, 76.95000000000067], [-16.4000000000093, 76.95000000000067], [-16.300000000009305, 76.95000000000067], [-16.250000000009308, 77.00000000000067], [-16.300000000009305, 77.05000000000067], [-16.4000000000093, 77.05000000000067], [-16.450000000009297, 77.10000000000068], [-16.500000000009294, 77.15000000000067], [-16.600000000009288, 77.15000000000067], [-16.700000000009283, 77.15000000000067], [-16.800000000009277, 77.15000000000067], [-16.90000000000927, 77.15000000000067], [-17.000000000009265, 77.15000000000067], [-17.050000000009263, 77.20000000000067], [-17.000000000009265, 77.25000000000067], [-16.90000000000927, 77.25000000000067], [-16.800000000009277, 77.25000000000067], [-16.700000000009283, 77.25000000000067], [-16.600000000009288, 77.25000000000067], [-16.500000000009294, 77.25000000000067], [-16.450000000009297, 77.30000000000067], [-16.4000000000093, 77.35000000000068], [-16.300000000009305, 77.35000000000068], [-16.20000000000931, 77.35000000000068], [-16.150000000009314, 77.30000000000067], [-16.100000000009317, 77.25000000000067], [-16.000000000009322, 77.25000000000067], [-15.950000000009325, 77.30000000000067], [-15.900000000009328, 77.35000000000068], [-15.800000000009334, 77.35000000000068], [-15.70000000000934, 77.35000000000068], [-15.600000000009345, 77.35000000000068], [-15.50000000000935, 77.35000000000068], [-15.400000000009356, 77.35000000000068], [-15.35000000000936, 77.30000000000067], [-15.300000000009362, 77.25000000000067], [-15.200000000009368, 77.25000000000067], [-15.100000000009373, 77.25000000000067], [-15.00000000000938, 77.25000000000067], [-14.900000000009385, 77.25000000000067], [-14.850000000009388, 77.20000000000067], [-14.80000000000939, 77.15000000000067], [-14.700000000009396, 77.15000000000067], [-14.600000000009402, 77.15000000000067], [-14.550000000009405, 77.10000000000068], [-14.500000000009408, 77.05000000000067], [-14.400000000009413, 77.05000000000067], [-14.300000000009419, 77.05000000000067], [-14.200000000009425, 77.05000000000067], [-14.10000000000943, 77.05000000000067], [-14.000000000009436, 77.05000000000067], [-13.950000000009439, 77.00000000000067], [-14.000000000009436, 76.95000000000067], [-14.10000000000943, 76.95000000000067], [-14.150000000009427, 76.90000000000066], [-14.10000000000943, 76.85000000000066], [-14.000000000009436, 76.85000000000066], [-13.950000000009439, 76.80000000000067], [-13.900000000009442, 76.75000000000067], [-13.800000000009447, 76.75000000000067], [-13.700000000009453, 76.75000000000067], [-13.600000000009459, 76.75000000000067], [-13.550000000009462, 76.80000000000067], [-13.500000000009464, 76.85000000000066], [-13.40000000000947, 76.85000000000066], [-13.300000000009476, 76.85000000000066], [-13.200000000009481, 76.85000000000066], [-13.150000000009484, 76.80000000000067], [-13.100000000009487, 76.75000000000067], [-13.000000000009493, 76.75000000000067], [-12.900000000009499, 76.75000000000067], [-12.800000000009504, 76.75000000000067], [-12.70000000000951, 76.75000000000067], [-12.600000000009516, 76.75000000000067], [-12.500000000009521, 76.75000000000067], [-12.450000000009524, 76.70000000000067], [-12.400000000009527, 76.65000000000066], [-12.300000000009533, 76.65000000000066], [-12.200000000009538, 76.65000000000066], [-12.150000000009541, 76.60000000000066], [-12.200000000009538, 76.55000000000067], [-12.300000000009533, 76.55000000000067], [-12.400000000009527, 76.55000000000067], [-12.450000000009524, 76.50000000000065], [-12.500000000009521, 76.45000000000066], [-12.600000000009516, 76.45000000000066], [-12.70000000000951, 76.45000000000066], [-12.750000000009507, 76.40000000000066], [-12.70000000000951, 76.35000000000066], [-12.650000000009513, 76.30000000000067], [-12.600000000009516, 76.25000000000065], [-12.550000000009518, 76.30000000000067], [-12.500000000009521, 76.35000000000066], [-12.400000000009527, 76.35000000000066], [-12.300000000009533, 76.35000000000066], [-12.250000000009535, 76.40000000000066], [-12.200000000009538, 76.45000000000066], [-12.100000000009544, 76.45000000000066], [-12.00000000000955, 76.45000000000066], [-11.950000000009553, 76.40000000000066], [-11.900000000009555, 76.35000000000066], [-11.850000000009558, 76.40000000000066], [-11.800000000009561, 76.45000000000066], [-11.700000000009567, 76.45000000000066], [-11.600000000009572, 76.45000000000066], [-11.550000000009575, 76.50000000000065], [-11.500000000009578, 76.55000000000067], [-11.400000000009584, 76.55000000000067], [-11.30000000000959, 76.55000000000067], [-11.250000000009592, 76.60000000000066], [-11.200000000009595, 76.65000000000066], [-11.1000000000096, 76.65000000000066], [-11.000000000009607, 76.65000000000066], [-10.95000000000961, 76.70000000000067], [-10.900000000009612, 76.75000000000067], [-10.800000000009618, 76.75000000000067], [-10.700000000009624, 76.75000000000067], [-10.650000000009626, 76.80000000000067], [-10.60000000000963, 76.85000000000066], [-10.500000000009635, 76.85000000000066], [-10.40000000000964, 76.85000000000066], [-10.350000000009643, 76.90000000000066], [-10.300000000009646, 76.95000000000067], [-10.200000000009652, 76.95000000000067], [-10.150000000009655, 76.90000000000066], [-10.150000000009655, 76.80000000000067], [-10.100000000009658, 76.75000000000067], [-10.000000000009663, 76.75000000000067], [-9.950000000009666, 76.70000000000067], [-10.000000000009663, 76.65000000000066], [-10.100000000009658, 76.65000000000066], [-10.200000000009652, 76.65000000000066], [-10.300000000009646, 76.65000000000066], [-10.350000000009643, 76.60000000000066], [-10.40000000000964, 76.55000000000067], [-10.500000000009635, 76.55000000000067], [-10.550000000009632, 76.50000000000065], [-10.60000000000963, 76.45000000000066], [-10.700000000009624, 76.45000000000066], [-10.800000000009618, 76.45000000000066], [-10.850000000009615, 76.40000000000066], [-10.800000000009618, 76.35000000000066], [-10.700000000009624, 76.35000000000066], [-10.60000000000963, 76.35000000000066], [-10.500000000009635, 76.35000000000066], [-10.40000000000964, 76.35000000000066], [-10.300000000009646, 76.35000000000066], [-10.25000000000965, 76.30000000000067], [-10.200000000009652, 76.25000000000065], [-10.100000000009658, 76.25000000000065], [-10.07500000000966, 76.20000000000066], [-10.100000000009658, 76.17500000000065], [-10.200000000009652, 76.17500000000065], [-10.300000000009646, 76.17500000000065], [-10.375000000009642, 76.10000000000065], [-10.40000000000964, 76.07500000000064], [-10.500000000009635, 76.07500000000064], [-10.60000000000963, 76.07500000000064], [-10.675000000009625, 76.00000000000065], [-10.700000000009624, 75.95000000000066], [-10.800000000009618, 75.95000000000066], [-10.900000000009612, 75.95000000000066], [-10.95000000000961, 75.90000000000066], [-10.900000000009612, 75.85000000000065], [-10.850000000009615, 75.80000000000065], [-10.900000000009612, 75.75000000000065], [-11.000000000009607, 75.75000000000065], [-11.1000000000096, 75.75000000000065], [-11.200000000009595, 75.75000000000065], [-11.30000000000959, 75.75000000000065], [-11.400000000009584, 75.75000000000065], [-11.450000000009581, 75.70000000000064], [-11.400000000009584, 75.65000000000065], [-11.30000000000959, 75.65000000000065], [-11.250000000009592, 75.60000000000065], [-11.30000000000959, 75.55000000000065], [-11.400000000009584, 75.55000000000065], [-11.500000000009578, 75.55000000000065], [-11.550000000009575, 75.50000000000065], [-11.500000000009578, 75.45000000000064], [-11.400000000009584, 75.45000000000064], [-11.350000000009587, 75.40000000000065], [-11.400000000009584, 75.35000000000065], [-11.500000000009578, 75.35000000000065], [-11.600000000009572, 75.35000000000065], [-11.700000000009567, 75.35000000000065], [-11.750000000009564, 75.40000000000065], [-11.800000000009561, 75.45000000000064], [-11.900000000009555, 75.45000000000064], [-12.00000000000955, 75.45000000000064], [-12.100000000009544, 75.45000000000064], [-12.200000000009538, 75.45000000000064], [-12.250000000009535, 75.40000000000065], [-12.200000000009538, 75.35000000000065], [-12.100000000009544, 75.35000000000065], [-12.050000000009547, 75.30000000000064], [-12.00000000000955, 75.25000000000064], [-11.900000000009555, 75.25000000000064], [-11.800000000009561, 75.25000000000064], [-11.700000000009567, 75.25000000000064], [-11.600000000009572, 75.25000000000064], [-11.500000000009578, 75.25000000000064], [-11.400000000009584, 75.25000000000064], [-11.30000000000959, 75.25000000000064], [-11.250000000009592, 75.30000000000064], [-11.200000000009595, 75.35000000000065], [-11.1000000000096, 75.35000000000065], [-11.000000000009607, 75.35000000000065], [-10.900000000009612, 75.35000000000065], [-10.800000000009618, 75.35000000000065], [-10.700000000009624, 75.35000000000065], [-10.60000000000963, 75.35000000000065], [-10.550000000009632, 75.40000000000065], [-10.500000000009635, 75.45000000000064], [-10.40000000000964, 75.45000000000064], [-10.300000000009646, 75.45000000000064], [-10.25000000000965, 75.50000000000065], [-10.300000000009646, 75.55000000000065], [-10.350000000009643, 75.60000000000065], [-10.300000000009646, 75.62500000000065], [-10.200000000009652, 75.62500000000065], [-10.125000000009656, 75.70000000000064], [-10.100000000009658, 75.72500000000065], [-10.000000000009663, 75.72500000000065], [-9.900000000009669, 75.72500000000065], [-9.825000000009673, 75.80000000000065], [-9.800000000009675, 75.85000000000065], [-9.70000000000968, 75.85000000000065], [-9.600000000009686, 75.85000000000065], [-9.550000000009689, 75.80000000000065], [-9.500000000009692, 75.75000000000065], [-9.400000000009697, 75.75000000000065], [-9.3500000000097, 75.80000000000065], [-9.300000000009703, 75.85000000000065], [-9.200000000009709, 75.85000000000065], [-9.150000000009712, 75.90000000000066], [-9.100000000009715, 75.95000000000066], [-9.00000000000972, 75.95000000000066], [-8.900000000009726, 75.95000000000066], [-8.850000000009729, 76.00000000000065], [-8.800000000009732, 76.05000000000065], [-8.700000000009737, 76.05000000000065], [-8.600000000009743, 76.05000000000065], [-8.500000000009749, 76.05000000000065], [-8.450000000009751, 76.10000000000065], [-8.400000000009754, 76.15000000000066], [-8.30000000000976, 76.15000000000066], [-8.200000000009766, 76.15000000000066], [-8.150000000009769, 76.20000000000066], [-8.100000000009771, 76.25000000000065], [-8.000000000009777, 76.25000000000065], [-7.900000000009783, 76.25000000000065], [-7.800000000009788, 76.25000000000065], [-7.700000000009794, 76.25000000000065], [-7.6000000000098, 76.25000000000065], [-7.5000000000098055, 76.25000000000065], [-7.400000000009811, 76.25000000000065], [-7.350000000009814, 76.30000000000067], [-7.300000000009817, 76.35000000000066], [-7.2000000000098225, 76.35000000000066], [-7.100000000009828, 76.35000000000066], [-7.050000000009831, 76.40000000000066], [-7.000000000009834, 76.45000000000066], [-6.90000000000984, 76.45000000000066], [-6.800000000009845, 76.45000000000066], [-6.700000000009851, 76.45000000000066], [-6.650000000009854, 76.40000000000066], [-6.600000000009857, 76.35000000000066], [-6.5500000000098595, 76.40000000000066], [-6.500000000009862, 76.45000000000066], [-6.400000000009868, 76.45000000000066], [-6.300000000009874, 76.45000000000066], [-6.2500000000098765, 76.50000000000065], [-6.200000000009879, 76.55000000000067], [-6.100000000009885, 76.55000000000067], [-6.000000000009891, 76.55000000000067], [-5.900000000009896, 76.55000000000067], [-5.850000000009899, 76.60000000000066], [-5.800000000009902, 76.65000000000066], [-5.700000000009908, 76.65000000000066], [-5.6000000000099135, 76.65000000000066], [-5.550000000009916, 76.70000000000067], [-5.6000000000099135, 76.75000000000067], [-5.650000000009911, 76.80000000000067], [-5.6000000000099135, 76.85000000000066], [-5.500000000009919, 76.85000000000066], [-5.400000000009925, 76.85000000000066], [-5.350000000009928, 76.90000000000066], [-5.400000000009925, 76.95000000000067], [-5.425000000009923, 77.00000000000067], [-5.400000000009925, 77.02500000000067], [-5.3000000000099305, 77.05000000000067], [-5.200000000009936, 77.05000000000067], [-5.100000000009942, 77.05000000000067], [-5.000000000009948, 77.05000000000067], [-4.900000000009953, 77.05000000000067], [-4.800000000009959, 77.05000000000067], [-4.700000000009965, 77.05000000000067], [-4.6500000000099675, 77.10000000000068], [-4.700000000009965, 77.15000000000067], [-4.750000000009962, 77.20000000000067], [-4.700000000009965, 77.25000000000067], [-4.60000000000997, 77.25000000000067], [-4.500000000009976, 77.25000000000067], [-4.450000000009979, 77.30000000000067], [-4.450000000009979, 77.40000000000067], [-4.500000000009976, 77.45000000000067], [-4.60000000000997, 77.45000000000067], [-4.6500000000099675, 77.50000000000068], [-4.60000000000997, 77.55000000000068], [-4.500000000009976, 77.55000000000068], [-4.400000000009982, 77.55000000000068], [-4.300000000009987, 77.55000000000068], [-4.25000000000999, 77.60000000000068], [-4.200000000009993, 77.65000000000067], [-4.100000000009999, 77.65000000000067], [-4.000000000010004, 77.62500000000068], [-3.90000000001001, 77.62500000000068], [-3.8250000000100144, 77.70000000000067], [-3.800000000010016, 77.72500000000068], [-3.7000000000100215, 77.72500000000068], [-3.600000000010027, 77.72500000000068], [-3.500000000010033, 77.72500000000068], [-3.4000000000100385, 77.75000000000068], [-3.3500000000100414, 77.70000000000067], [-3.3000000000100442, 77.65000000000067], [-3.250000000010047, 77.70000000000067], [-3.20000000001005, 77.75000000000068], [-3.1000000000100556, 77.75000000000068], [-3.0000000000100613, 77.75000000000068], [-2.900000000010067, 77.75000000000068], [-2.85000000001007, 77.80000000000068], [-2.8000000000100727, 77.85000000000068], [-2.7000000000100783, 77.85000000000068], [-2.600000000010084, 77.85000000000068], [-2.5000000000100897, 77.82500000000068], [-2.425000000010094, 77.90000000000069], [-2.4000000000100954, 77.9250000000007], [-2.300000000010101, 77.9250000000007], [-2.2000000000101068, 77.9250000000007], [-2.1000000000101124, 77.9250000000007], [-2.000000000010118, 77.9250000000007], [-1.9250000000101224, 78.00000000000068], [-1.9000000000101238, 78.05000000000068], [-1.8000000000101295, 78.05000000000068], [-1.7000000000101352, 78.05000000000068], [-1.6000000000101409, 78.05000000000068], [-1.5500000000101437, 78.10000000000068], [-1.5000000000101466, 78.15000000000069], [-1.4000000000101522, 78.15000000000069], [-1.300000000010158, 78.15000000000069], [-1.2000000000101636, 78.15000000000069], [-1.1000000000101693, 78.15000000000069], [-1.0500000000101721, 78.20000000000068], [-1.000000000010175, 78.25000000000068], [-0.9000000000101807, 78.25000000000068], [-0.8000000000101863, 78.25000000000068], [-0.700000000010192, 78.25000000000068], [-0.6000000000101977, 78.25000000000068], [-0.5500000000102006, 78.3000000000007], [-0.5000000000102034, 78.35000000000069], [-0.4000000000102091, 78.35000000000069], [-0.30000000001021476, 78.35000000000069], [-0.20000000001022045, 78.35000000000069], [-0.10000000001022613, 78.35000000000069], [-0.05000000001022897, 78.40000000000069], [-1.0231815394945443e-11, 78.45000000000068], [0.0999999999897625, 78.45000000000068], [0.19999999998975682, 78.45000000000068], [0.24999999998975397, 78.50000000000068], [0.24999999998975397, 78.60000000000069], [0.19999999998975682, 78.65000000000069], [0.0999999999897625, 78.65000000000069], [-1.0231815394945443e-11, 78.65000000000069], [-0.10000000001022613, 78.65000000000069], [-0.1500000000102233, 78.7000000000007], [-0.20000000001022045, 78.7500000000007], [-0.30000000001021476, 78.7500000000007], [-0.4000000000102091, 78.7500000000007], [-0.5000000000102034, 78.7500000000007], [-0.6000000000101977, 78.7500000000007], [-0.700000000010192, 78.7500000000007], [-0.8000000000101863, 78.7500000000007], [-0.9000000000101807, 78.7500000000007], [-1.000000000010175, 78.7500000000007], [-1.1000000000101693, 78.7500000000007], [-1.2000000000101636, 78.7500000000007], [-1.300000000010158, 78.7500000000007], [-1.4000000000101522, 78.7500000000007], [-1.5000000000101466, 78.7500000000007], [-1.6000000000101409, 78.7500000000007], [-1.7000000000101352, 78.7500000000007], [-1.8000000000101295, 78.7500000000007], [-1.9000000000101238, 78.7500000000007], [-1.950000000010121, 78.8000000000007], [-2.000000000010118, 78.85000000000069], [-2.0500000000101153, 78.8000000000007], [-2.1000000000101124, 78.7500000000007], [-2.2000000000101068, 78.7500000000007], [-2.300000000010101, 78.7500000000007], [-2.4000000000100954, 78.7500000000007], [-2.5000000000100897, 78.7500000000007], [-2.600000000010084, 78.7500000000007], [-2.6250000000100826, 78.8000000000007], [-2.600000000010084, 78.85000000000069], [-2.5000000000100897, 78.85000000000069], [-2.4000000000100954, 78.85000000000069], [-2.300000000010101, 78.85000000000069], [-2.2000000000101068, 78.85000000000069], [-2.1500000000101096, 78.90000000000069], [-2.1000000000101124, 78.9500000000007], [-2.000000000010118, 78.9500000000007], [-1.9000000000101238, 78.9500000000007], [-1.8500000000101267, 78.90000000000069], [-1.8000000000101295, 78.85000000000069], [-1.7000000000101352, 78.85000000000069], [-1.6000000000101409, 78.85000000000069], [-1.5500000000101437, 78.90000000000069], [-1.5000000000101466, 78.9500000000007], [-1.4000000000101522, 78.9500000000007], [-1.300000000010158, 78.9500000000007], [-1.2000000000101636, 78.9500000000007], [-1.1000000000101693, 78.9500000000007], [-1.0500000000101721, 79.0000000000007], [-1.000000000010175, 79.0500000000007], [-0.9000000000101807, 79.0500000000007], [-0.8000000000101863, 79.0500000000007], [-0.700000000010192, 79.0500000000007], [-0.6000000000101977, 79.0500000000007], [-0.5000000000102034, 79.0500000000007], [-0.4000000000102091, 79.0500000000007], [-0.30000000001021476, 79.0500000000007], [-0.20000000001022045, 79.0500000000007], [-0.10000000001022613, 79.0500000000007], [-1.0231815394945443e-11, 79.0500000000007], [0.0999999999897625, 79.0500000000007], [0.19999999998975682, 79.0500000000007], [0.29999999998975113, 79.0500000000007], [0.39999999998974545, 79.0500000000007], [0.49999999998973976, 79.0500000000007], [0.5999999999897341, 79.0500000000007], [0.6999999999897284, 79.0500000000007], [0.7999999999897227, 79.0500000000007], [0.899999999989717, 79.0500000000007], [0.9999999999897113, 79.0500000000007], [1.0999999999897057, 79.0500000000007], [1.1999999999897, 79.0500000000007], [1.2999999999896943, 79.0500000000007], [1.3999999999896886, 79.0500000000007], [1.499999999989683, 79.0500000000007], [1.54999999998968, 79.1000000000007], [1.5999999999896772, 79.1500000000007], [1.6999999999896716, 79.1500000000007], [1.7999999999896659, 79.1500000000007], [1.8999999999896602, 79.1500000000007], [1.9999999999896545, 79.1500000000007], [2.0499999999896517, 79.2000000000007], [1.9999999999896545, 79.2500000000007], [1.9499999999896573, 79.3000000000007], [1.9999999999896545, 79.3500000000007], [2.099999999989649, 79.3500000000007], [2.199999999989643, 79.3500000000007], [2.2999999999896374, 79.3500000000007], [2.3499999999896346, 79.4000000000007], [2.3999999999896318, 79.4500000000007], [2.449999999989629, 79.50000000000071], [2.499999999989626, 79.55000000000071], [2.5999999999896204, 79.55000000000071], [2.6999999999896147, 79.55000000000071], [2.749999999989612, 79.6000000000007], [2.6999999999896147, 79.6500000000007], [2.5999999999896204, 79.6500000000007], [2.499999999989626, 79.6500000000007], [2.3999999999896318, 79.6500000000007], [2.2999999999896374, 79.6500000000007], [2.2499999999896403, 79.7000000000007], [2.2999999999896374, 79.75000000000071], [2.3499999999896346, 79.80000000000071], [2.3999999999896318, 79.8500000000007], [2.499999999989626, 79.8500000000007], [2.5499999999896232, 79.90000000000072], [2.499999999989626, 79.95000000000071], [2.3999999999896318, 79.95000000000071], [2.2999999999896374, 79.95000000000071], [2.199999999989643, 79.95000000000071], [2.099999999989649, 79.95000000000071], [2.0499999999896517, 80.00000000000071], [2.099999999989649, 80.05000000000071], [2.199999999989643, 80.05000000000071], [2.2499999999896403, 80.1000000000007], [2.2999999999896374, 80.15000000000072], [2.3999999999896318, 80.15000000000072], [2.499999999989626, 80.15000000000072], [2.5999999999896204, 80.15000000000072], [2.6999999999896147, 80.15000000000072], [2.799999999989609, 80.15000000000072], [2.8999999999896033, 80.15000000000072], [2.9499999999896005, 80.20000000000071], [2.9999999999895977, 80.25000000000071], [3.099999999989592, 80.25000000000071], [3.149999999989589, 80.20000000000071], [3.1999999999895863, 80.15000000000072], [3.2999999999895806, 80.15000000000072], [3.399999999989575, 80.15000000000072], [3.4999999999895692, 80.15000000000072], [3.5999999999895635, 80.15000000000072], [3.699999999989558, 80.15000000000072], [3.749999999989555, 80.20000000000071], [3.799999999989552, 80.25000000000071], [3.8999999999895465, 80.25000000000071], [3.999999999989541, 80.25000000000071], [4.099999999989535, 80.25000000000071], [4.199999999989529, 80.25000000000071], [4.299999999989524, 80.25000000000071], [4.399999999989518, 80.25000000000071], [4.499999999989512, 80.25000000000071], [4.5499999999895095, 80.20000000000071], [4.599999999989507, 80.15000000000072], [4.699999999989501, 80.15000000000072], [4.799999999989495, 80.15000000000072], [4.89999999998949, 80.15000000000072], [4.999999999989484, 80.15000000000072], [5.099999999989478, 80.15000000000072], [5.199999999989473, 80.15000000000072], [5.299999999989467, 80.15000000000072], [5.399999999989461, 80.15000000000072], [5.4999999999894555, 80.15000000000072], [5.59999999998945, 80.15000000000072], [5.699999999989444, 80.15000000000072], [5.749999999989441, 80.1000000000007], [5.7999999999894385, 80.05000000000071], [5.899999999989433, 80.05000000000071], [5.999999999989427, 80.05000000000071], [6.099999999989421, 80.05000000000071], [6.199999999989416, 80.05000000000071], [6.29999999998941, 80.05000000000071], [6.349999999989407, 80.1000000000007], [6.399999999989404, 80.15000000000072], [6.499999999989399, 80.15000000000072], [6.599999999989393, 80.15000000000072], [6.699999999989387, 80.15000000000072], [6.799999999989382, 80.15000000000072], [6.899999999989376, 80.15000000000072], [6.99999999998937, 80.15000000000072], [7.099999999989365, 80.15000000000072], [7.149999999989362, 80.20000000000071], [7.199999999989359, 80.25000000000071], [7.299999999989353, 80.25000000000071], [7.3999999999893475, 80.25000000000071], [7.499999999989342, 80.25000000000071], [7.599999999989336, 80.25000000000071], [7.6999999999893305, 80.25000000000071], [7.799999999989325, 80.25000000000071], [7.849999999989322, 80.30000000000072], [7.899999999989319, 80.35000000000072], [7.999999999989313, 80.35000000000072], [8.099999999989308, 80.35000000000072], [8.199999999989302, 80.35000000000072], [8.299999999989296, 80.35000000000072], [8.39999999998929, 80.35000000000072], [8.499999999989285, 80.35000000000072], [8.59999999998928, 80.35000000000072], [8.699999999989274, 80.35000000000072], [8.799999999989268, 80.35000000000072], [8.899999999989262, 80.35000000000072], [8.999999999989257, 80.35000000000072], [9.099999999989251, 80.35000000000072], [9.199999999989245, 80.35000000000072], [9.29999999998924, 80.35000000000072], [9.399999999989234, 80.35000000000072], [9.499999999989228, 80.35000000000072], [9.599999999989222, 80.35000000000072], [9.64999999998922, 80.40000000000072], [9.699999999989217, 80.45000000000071], [9.799999999989211, 80.45000000000071], [9.899999999989205, 80.45000000000071], [9.9999999999892, 80.45000000000071], [10.099999999989194, 80.45000000000071], [10.199999999989188, 80.45000000000071], [10.299999999989183, 80.45000000000071], [10.399999999989177, 80.45000000000071], [10.449999999989174, 80.50000000000071], [10.499999999989171, 80.55000000000072], [10.599999999989166, 80.55000000000072], [10.69999999998916, 80.55000000000072], [10.799999999989154, 80.55000000000072], [10.899999999989149, 80.55000000000072], [10.999999999989143, 80.55000000000072], [11.099999999989137, 80.55000000000072], [11.199999999989132, 80.55000000000072], [11.299999999989126, 80.55000000000072], [11.39999999998912, 80.55000000000072], [11.449999999989117, 80.60000000000072], [11.39999999998912, 80.65000000000072], [11.349999999989123, 80.70000000000073], [11.39999999998912, 80.75000000000072], [11.499999999989114, 80.75000000000072], [11.599999999989109, 80.75000000000072], [11.699999999989103, 80.75000000000072], [11.799999999989097, 80.75000000000072], [11.899999999989092, 80.75000000000072], [11.999999999989086, 80.75000000000072], [12.09999999998908, 80.75000000000072], [12.199999999989075, 80.75000000000072], [12.249999999989072, 80.80000000000072], [12.199999999989075, 80.85000000000072], [12.09999999998908, 80.85000000000072], [11.999999999989086, 80.85000000000072], [11.899999999989092, 80.85000000000072], [11.849999999989095, 80.90000000000072], [11.899999999989092, 80.95000000000073], [11.999999999989086, 80.95000000000073], [12.049999999989083, 81.00000000000072], [11.999999999989086, 81.05000000000072], [11.949999999989089, 81.10000000000073], [11.999999999989086, 81.15000000000073], [12.049999999989083, 81.20000000000073], [12.09999999998908, 81.25000000000072], [12.199999999989075, 81.25000000000072], [12.299999999989069, 81.25000000000072], [12.349999999989066, 81.30000000000072], [12.399999999989063, 81.35000000000073], [12.499999999989058, 81.35000000000073], [12.599999999989052, 81.35000000000073], [12.699999999989046, 81.35000000000073], [12.79999999998904, 81.35000000000073], [12.899999999989035, 81.35000000000073], [12.99999999998903, 81.35000000000073], [13.099999999989024, 81.35000000000073], [13.199999999989018, 81.35000000000073], [13.299999999989012, 81.35000000000073], [13.399999999989006, 81.35000000000073], [13.499999999989, 81.35000000000073], [13.599999999988995, 81.35000000000073], [13.69999999998899, 81.35000000000073], [13.799999999988984, 81.35000000000073], [13.899999999988978, 81.35000000000073], [13.949999999988975, 81.40000000000073], [13.999999999988972, 81.45000000000073], [14.099999999988967, 81.45000000000073], [14.199999999988961, 81.45000000000073], [14.299999999988955, 81.45000000000073], [14.39999999998895, 81.45000000000073], [14.499999999988944, 81.45000000000073], [14.599999999988938, 81.45000000000073], [14.699999999988933, 81.45000000000073], [14.799999999988927, 81.45000000000073], [14.899999999988921, 81.45000000000073], [14.999999999988916, 81.45000000000073], [15.09999999998891, 81.45000000000073], [15.199999999988904, 81.45000000000073], [15.299999999988898, 81.45000000000073], [15.399999999988893, 81.45000000000073], [15.499999999988887, 81.45000000000073], [15.599999999988881, 81.45000000000073], [15.699999999988876, 81.45000000000073], [15.79999999998887, 81.45000000000073], [15.899999999988864, 81.45000000000073], [15.999999999988859, 81.45000000000073], [16.099999999988853, 81.45000000000073], [16.199999999988847, 81.45000000000073], [16.29999999998884, 81.45000000000073], [16.399999999988836, 81.45000000000073], [16.449999999988833, 81.50000000000074], [16.49999999998883, 81.55000000000074], [16.599999999988825, 81.55000000000074], [16.69999999998882, 81.55000000000074], [16.799999999988813, 81.55000000000074], [16.899999999988808, 81.55000000000074], [16.999999999988802, 81.55000000000074], [17.099999999988796, 81.55000000000074], [17.19999999998879, 81.55000000000074], [17.299999999988785, 81.55000000000074], [17.39999999998878, 81.55000000000074], [17.499999999988773, 81.55000000000074], [17.599999999988768, 81.55000000000074], [17.699999999988762, 81.55000000000074], [17.799999999988756, 81.55000000000074], [17.89999999998875, 81.55000000000074], [17.999999999988745, 81.55000000000074], [18.09999999998874, 81.55000000000074], [18.199999999988734, 81.55000000000074], [18.299999999988728, 81.55000000000074], [18.399999999988722, 81.55000000000074], [18.499999999988717, 81.55000000000074], [18.59999999998871, 81.55000000000074], [18.699999999988705, 81.55000000000074], [18.7999999999887, 81.55000000000074], [18.899999999988694, 81.55000000000074], [18.94999999998869, 81.60000000000073], [18.999999999988688, 81.65000000000073], [19.049999999988685, 81.70000000000073], [19.049999999988685, 81.80000000000074], [19.099999999988682, 81.85000000000073], [19.199999999988677, 81.85000000000073], [19.29999999998867, 81.85000000000073], [19.399999999988665, 81.85000000000073], [19.49999999998866, 81.85000000000073], [19.599999999988654, 81.85000000000073], [19.69999999998865, 81.85000000000073], [19.799999999988643, 81.85000000000073], [19.899999999988637, 81.85000000000073], [19.99999999998863, 81.85000000000073], [20.099999999988626, 81.85000000000073], [20.19999999998862, 81.85000000000073], [20.299999999988614, 81.85000000000073], [20.39999999998861, 81.85000000000073], [20.449999999988606, 81.80000000000074], [20.39999999998861, 81.75000000000074], [20.299999999988614, 81.75000000000074], [20.19999999998862, 81.75000000000074], [20.099999999988626, 81.75000000000074], [20.04999999998863, 81.70000000000073], [20.099999999988626, 81.65000000000073], [20.19999999998862, 81.65000000000073], [20.299999999988614, 81.65000000000073], [20.39999999998861, 81.65000000000073], [20.499999999988603, 81.65000000000073], [20.5499999999886, 81.70000000000073], [20.599999999988597, 81.75000000000074], [20.69999999998859, 81.75000000000074], [20.74999999998859, 81.70000000000073], [20.799999999988586, 81.65000000000073], [20.89999999998858, 81.65000000000073], [20.999999999988574, 81.65000000000073], [21.09999999998857, 81.65000000000073], [21.199999999988563, 81.65000000000073], [21.299999999988557, 81.65000000000073], [21.39999999998855, 81.65000000000073], [21.499999999988546, 81.65000000000073], [21.59999999998854, 81.65000000000073], [21.699999999988535, 81.65000000000073], [21.79999999998853, 81.65000000000073], [21.899999999988523, 81.65000000000073], [21.999999999988518, 81.65000000000073], [22.099999999988512, 81.65000000000073], [22.14999999998851, 81.70000000000073], [22.199999999988506, 81.75000000000074], [22.2999999999885, 81.75000000000074], [22.399999999988495, 81.75000000000074], [22.49999999998849, 81.75000000000074], [22.549999999988486, 81.80000000000074], [22.599999999988484, 81.85000000000073], [22.699999999988478, 81.85000000000073], [22.799999999988472, 81.85000000000073], [22.899999999988466, 81.85000000000073], [22.99999999998846, 81.85000000000073], [23.099999999988455, 81.85000000000073], [23.19999999998845, 81.85000000000073], [23.299999999988444, 81.85000000000073], [23.399999999988438, 81.85000000000073], [23.499999999988432, 81.85000000000073], [23.599999999988427, 81.85000000000073], [23.649999999988424, 81.90000000000074], [23.599999999988427, 81.95000000000074], [23.499999999988432, 81.95000000000074], [23.399999999988438, 81.95000000000074], [23.34999999998844, 82.00000000000074], [23.399999999988438, 82.05000000000074], [23.499999999988432, 82.05000000000074], [23.599999999988427, 82.05000000000074], [23.69999999998842, 82.05000000000074], [23.799999999988415, 82.05000000000074], [23.89999999998841, 82.05000000000074], [23.949999999988407, 82.10000000000073], [23.999999999988404, 82.15000000000074], [24.0999999999884, 82.15000000000074], [24.199999999988393, 82.15000000000074], [24.24999999998839, 82.20000000000074], [24.199999999988393, 82.25000000000074], [24.0999999999884, 82.25000000000074], [24.0499999999884, 82.30000000000075], [24.0999999999884, 82.35000000000075], [24.199999999988393, 82.35000000000075], [24.299999999988387, 82.35000000000075], [24.39999999998838, 82.35000000000075], [24.499999999988376, 82.35000000000075], [24.59999999998837, 82.35000000000075], [24.649999999988367, 82.30000000000075], [24.699999999988364, 82.25000000000074], [24.79999999998836, 82.25000000000074], [24.899999999988353, 82.25000000000074], [24.999999999988347, 82.25000000000074], [25.09999999998834, 82.25000000000074], [25.199999999988336, 82.25000000000074], [25.29999999998833, 82.25000000000074], [25.399999999988324, 82.25000000000074], [25.49999999998832, 82.25000000000074], [25.599999999988313, 82.25000000000074], [25.64999999998831, 82.20000000000074], [25.699999999988307, 82.15000000000074], [25.7999999999883, 82.15000000000074], [25.899999999988296, 82.15000000000074], [25.949999999988293, 82.20000000000074], [25.99999999998829, 82.25000000000074], [26.099999999988285, 82.25000000000074], [26.19999999998828, 82.25000000000074], [26.299999999988273, 82.25000000000074], [26.34999999998827, 82.20000000000074], [26.399999999988268, 82.15000000000074], [26.499999999988262, 82.15000000000074], [26.599999999988256, 82.15000000000074], [26.69999999998825, 82.15000000000074], [26.799999999988245, 82.15000000000074], [26.89999999998824, 82.15000000000074], [26.999999999988233, 82.15000000000074], [27.099999999988228, 82.15000000000074], [27.199999999988222, 82.15000000000074], [27.299999999988216, 82.15000000000074], [27.349999999988214, 82.10000000000073], [27.39999999998821, 82.05000000000074], [27.499999999988205, 82.05000000000074], [27.5999999999882, 82.05000000000074], [27.699999999988194, 82.05000000000074], [27.799999999988188, 82.05000000000074], [27.899999999988182, 82.05000000000074], [27.999999999988177, 82.05000000000074], [28.049999999988174, 82.10000000000073], [28.09999999998817, 82.15000000000074], [28.149999999988168, 82.20000000000074], [28.199999999988165, 82.25000000000074], [28.29999999998816, 82.25000000000074], [28.399999999988154, 82.25000000000074], [28.499999999988148, 82.25000000000074], [28.549999999988145, 82.20000000000074], [28.599999999988142, 82.15000000000074], [28.699999999988137, 82.15000000000074], [28.79999999998813, 82.15000000000074], [28.899999999988125, 82.15000000000074], [28.99999999998812, 82.15000000000074], [29.099999999988114, 82.15000000000074], [29.19999999998811, 82.15000000000074], [29.249999999988106, 82.20000000000074], [29.299999999988103, 82.25000000000074], [29.399999999988097, 82.25000000000074], [29.49999999998809, 82.25000000000074], [29.599999999988086, 82.25000000000074], [29.69999999998808, 82.25000000000074], [29.749999999988077, 82.30000000000075], [29.799999999988074, 82.35000000000075], [29.89999999998807, 82.35000000000075], [29.999999999988063, 82.35000000000075], [30.099999999988057, 82.35000000000075], [30.19999999998805, 82.35000000000075], [30.299999999988046, 82.35000000000075], [30.39999999998804, 82.35000000000075], [30.499999999988034, 82.35000000000075], [30.59999999998803, 82.35000000000075], [30.699999999988023, 82.35000000000075], [30.799999999988017, 82.35000000000075], [30.89999999998801, 82.35000000000075], [30.94999999998801, 82.40000000000074], [30.999999999988006, 82.45000000000074], [31.099999999988, 82.45000000000074], [31.149999999987998, 82.50000000000074], [31.199999999987995, 82.55000000000075], [31.29999999998799, 82.55000000000075], [31.399999999987983, 82.55000000000075], [31.499999999987978, 82.55000000000075], [31.599999999987972, 82.55000000000075], [31.699999999987966, 82.55000000000075], [31.79999999998796, 82.55000000000075], [31.899999999987955, 82.55000000000075], [31.99999999998795, 82.55000000000075], [32.049999999987946, 82.60000000000075], [32.09999999998794, 82.65000000000074], [32.19999999998794, 82.65000000000074], [32.29999999998793, 82.65000000000074], [32.39999999998793, 82.65000000000074], [32.49999999998792, 82.65000000000074], [32.599999999987915, 82.65000000000074], [32.64999999998791, 82.70000000000076], [32.69999999998791, 82.75000000000075], [32.799999999987904, 82.75000000000075], [32.8999999999879, 82.75000000000075], [32.99999999998789, 82.75000000000075], [33.09999999998789, 82.75000000000075], [33.19999999998788, 82.75000000000075], [33.299999999987875, 82.75000000000075], [33.34999999998787, 82.70000000000076], [33.39999999998787, 82.65000000000074], [33.499999999987864, 82.65000000000074], [33.59999999998786, 82.65000000000074], [33.69999999998785, 82.65000000000074], [33.79999999998785, 82.65000000000074], [33.89999999998784, 82.65000000000074], [33.999999999987836, 82.65000000000074], [34.09999999998783, 82.65000000000074], [34.199999999987824, 82.65000000000074], [34.29999999998782, 82.65000000000074], [34.39999999998781, 82.65000000000074], [34.49999999998781, 82.65000000000074], [34.5999999999878, 82.65000000000074], [34.699999999987796, 82.65000000000074], [34.79999999998779, 82.65000000000074], [34.899999999987784, 82.65000000000074], [34.99999999998778, 82.65000000000074], [35.049999999987776, 82.70000000000076], [35.09999999998777, 82.75000000000075], [35.19999999998777, 82.75000000000075], [35.29999999998776, 82.75000000000075], [35.399999999987756, 82.75000000000075], [35.44999999998775, 82.80000000000075], [35.49999999998775, 82.85000000000075], [35.599999999987745, 82.85000000000075], [35.69999999998774, 82.85000000000075], [35.749999999987736, 82.90000000000074], [35.79999999998773, 82.95000000000076], [35.89999999998773, 82.95000000000076], [35.99999999998772, 82.95000000000076], [36.099999999987716, 82.95000000000076], [36.19999999998771, 82.95000000000076], [36.299999999987705, 82.95000000000076], [36.3999999999877, 82.95000000000076], [36.49999999998769, 82.95000000000076], [36.59999999998769, 82.95000000000076], [36.69999999998768, 82.95000000000076], [36.74999999998768, 82.90000000000074], [36.799999999987676, 82.85000000000075], [36.89999999998767, 82.85000000000075], [36.999999999987665, 82.85000000000075], [37.09999999998766, 82.85000000000075], [37.199999999987654, 82.85000000000075], [37.29999999998765, 82.85000000000075], [37.39999999998764, 82.85000000000075], [37.49999999998764, 82.85000000000075], [37.549999999987634, 82.90000000000074], [37.59999999998763, 82.95000000000076], [37.699999999987625, 82.95000000000076], [37.79999999998762, 82.95000000000076], [37.899999999987614, 82.95000000000076], [37.99999999998761, 82.95000000000076], [38.0999999999876, 82.95000000000076], [38.1999999999876, 82.95000000000076], [38.29999999998759, 82.95000000000076], [38.399999999987585, 82.95000000000076], [38.49999999998758, 82.95000000000076], [38.599999999987574, 82.95000000000076], [38.69999999998757, 82.95000000000076], [38.79999999998756, 82.95000000000076], [38.89999999998756, 82.95000000000076], [38.99999999998755, 82.95000000000076], [39.04999999998755, 82.90000000000074], [39.099999999987546, 82.85000000000075], [39.19999999998754, 82.85000000000075], [39.299999999987534, 82.85000000000075], [39.39999999998753, 82.85000000000075], [39.49999999998752, 82.85000000000075], [39.59999999998752, 82.85000000000075], [39.69999999998751, 82.85000000000075], [39.799999999987506, 82.85000000000075], [39.8499999999875, 82.80000000000075], [39.8999999999875, 82.75000000000075], [39.9499999999875, 82.70000000000076], [39.999999999987494, 82.65000000000074], [40.09999999998749, 82.65000000000074], [40.19999999998748, 82.65000000000074], [40.29999999998748, 82.65000000000074], [40.39999999998747, 82.65000000000074], [40.499999999987466, 82.65000000000074], [40.59999999998746, 82.65000000000074], [40.699999999987455, 82.65000000000074], [40.79999999998745, 82.65000000000074], [40.89999999998744, 82.65000000000074], [40.99999999998744, 82.65000000000074], [41.049999999987435, 82.70000000000076], [41.09999999998743, 82.75000000000075], [41.199999999987426, 82.75000000000075], [41.29999999998742, 82.75000000000075], [41.399999999987415, 82.75000000000075], [41.49999999998741, 82.75000000000075], [41.5999999999874, 82.75000000000075], [41.6999999999874, 82.75000000000075], [41.79999999998739, 82.75000000000075], [41.899999999987386, 82.75000000000075], [41.99999999998738, 82.75000000000075], [42.04999999998738, 82.80000000000075], [42.099999999987375, 82.85000000000075], [42.19999999998737, 82.85000000000075], [42.299999999987364, 82.85000000000075], [42.39999999998736, 82.85000000000075], [42.49999999998735, 82.85000000000075], [42.59999999998735, 82.85000000000075], [42.69999999998734, 82.85000000000075], [42.74999999998734, 82.90000000000074], [42.799999999987335, 82.95000000000076], [42.89999999998733, 82.95000000000076], [42.999999999987324, 82.95000000000076], [43.09999999998732, 82.95000000000076], [43.19999999998731, 82.95000000000076], [43.29999999998731, 82.95000000000076], [43.3999999999873, 82.95000000000076], [43.4499999999873, 83.00000000000075], [43.499999999987295, 83.05000000000075], [43.59999999998729, 83.05000000000075], [43.699999999987284, 83.05000000000075], [43.79999999998728, 83.05000000000075], [43.89999999998727, 83.05000000000075], [43.99999999998727, 83.05000000000075], [44.09999999998726, 83.05000000000075], [44.199999999987256, 83.05000000000075], [44.29999999998725, 83.05000000000075], [44.399999999987244, 83.05000000000075], [44.49999999998724, 83.05000000000075], [44.59999999998723, 83.05000000000075], [44.69999999998723, 83.05000000000075], [44.79999999998722, 83.05000000000075], [44.899999999987216, 83.05000000000075], [44.99999999998721, 83.05000000000075]]}, "properties": {"source": "Copernicus Marine / OSI SAF", "dataset_id": "osisaf_obs-si_glo_phy-siedge_nrt_nh-P1D", "variable": "ice_edge", "mode": "ice_edge_class", "time": "2026-09-24", "generated_at": "2026-09-25T14:51:05.359098+00:00", "level": 1.5}}, {"type": "Feature", "geometry": {"type": "LineString", "coordinates": [[-76.75000000000587, 77.55000000000068], [-76.70000000000587, 77.55000000000068], [-76.60000000000588, 77.55000000000068], [-76.50000000000588, 77.55000000000068], [-76.45000000000589, 77.60000000000068], [-76.50000000000588, 77.65000000000067], [-76.55000000000588, 77.65000000000067]]}, "properties": {"source": "Copernicus Marine / OSI SAF", "dataset_id": "osisaf_obs-si_glo_phy-siedge_nrt_nh-P1D", "variable": "ice_edge", "mode": "ice_edge_class", "time": "2026-09-24", "generated_at": "2026-09-25T14:51:05.359098+00:00", "level": 1.5}}, {"type": "Feature", "geometry": {"type": "LineString", "coordinates": [[-74.15000000000602, 78.15000000000069], [-74.10000000000602, 78.15000000000069], [-74.00000000000603, 78.15000000000069], [-73.95000000000603, 78.15000000000069]]}, "properties": {"source": "Copernicus Marine / OSI SAF", "dataset_id": "osisaf_obs-si_glo_phy-siedge_nrt_nh-P1D", "variable": "ice_edge", "mode": "ice_edge_class", "time": "2026-09-24", "generated_at": "2026-09-25T14:51:05.359098+00:00", "level": 1.5}}, {"type": "Feature", "geometry": {"type": "LineString", "coordinates": [[-71.45000000000617, 78.85000000000069], [-71.50000000000617, 78.85000000000069], [-71.55000000000616, 78.90000000000069], [-71.60000000000616, 78.9500000000007], [-71.70000000000616, 78.9500000000007], [-71.80000000000615, 78.9500000000007], [-71.90000000000614, 78.9500000000007], [-72.00000000000614, 78.9500000000007], [-72.10000000000613, 78.9500000000007], [-72.20000000000613, 78.9500000000007], [-72.30000000000612, 78.9500000000007], [-72.35000000000612, 79.0000000000007], [-72.30000000000612, 79.0500000000007], [-72.20000000000613, 79.0500000000007], [-72.10000000000613, 79.0500000000007], [-72.00000000000614, 79.0500000000007], [-71.90000000000614, 79.0500000000007], [-71.80000000000615, 79.0500000000007], [-71.70000000000616, 79.0500000000007], [-71.60000000000616, 79.0500000000007], [-71.55000000000616, 79.1000000000007], [-71.55000000000616, 79.2000000000007], [-71.50000000000617, 79.2500000000007], [-71.40000000000617, 79.2500000000007], [-71.30000000000618, 79.2500000000007], [-71.20000000000618, 79.2500000000007], [-71.10000000000619, 79.2500000000007], [-71.0500000000062, 79.3000000000007], [-71.0000000000062, 79.3500000000007], [-70.9000000000062, 79.3500000000007], [-70.80000000000621, 79.3500000000007], [-70.75000000000621, 79.4000000000007], [-70.70000000000621, 79.4500000000007], [-70.60000000000622, 79.4500000000007], [-70.50000000000622, 79.4500000000007], [-70.40000000000623, 79.4500000000007], [-70.30000000000624, 79.4500000000007], [-70.20000000000624, 79.4500000000007], [-70.10000000000625, 79.4500000000007], [-70.00000000000625, 79.4500000000007], [-69.90000000000626, 79.4500000000007], [-69.80000000000626, 79.4500000000007], [-69.70000000000627, 79.4500000000007], [-69.65000000000627, 79.4000000000007], [-69.60000000000628, 79.3500000000007], [-69.50000000000628, 79.3500000000007], [-69.40000000000629, 79.3500000000007], [-69.35000000000629, 79.3000000000007], [-69.30000000000629, 79.2500000000007], [-69.2500000000063, 79.3000000000007], [-69.2000000000063, 79.3500000000007], [-69.1000000000063, 79.3500000000007], [-69.00000000000631, 79.3500000000007], [-68.90000000000632, 79.3500000000007], [-68.85000000000632, 79.3000000000007]]}, "properties": {"source": "Copernicus Marine / OSI SAF", "dataset_id": "osisaf_obs-si_glo_phy-siedge_nrt_nh-P1D", "variable": "ice_edge", "mode": "ice_edge_class", "time": "2026-09-24", "generated_at": "2026-09-25T14:51:05.359098+00:00", "level": 1.5}}, {"type": "Feature", "geometry": {"type": "LineString", "coordinates": [[-67.95000000000637, 79.3500000000007], [-67.95000000000637, 79.4000000000007], [-68.00000000000637, 79.4500000000007], [-68.10000000000636, 79.4500000000007], [-68.20000000000636, 79.4500000000007], [-68.25000000000635, 79.50000000000071], [-68.20000000000636, 79.55000000000071], [-68.10000000000636, 79.55000000000071], [-68.00000000000637, 79.55000000000071], [-67.95000000000637, 79.50000000000071], [-67.90000000000637, 79.4500000000007], [-67.80000000000638, 79.4500000000007], [-67.70000000000638, 79.4500000000007], [-67.65000000000639, 79.50000000000071], [-67.60000000000639, 79.55000000000071], [-67.5000000000064, 79.55000000000071], [-67.4000000000064, 79.55000000000071], [-67.3000000000064, 79.55000000000071], [-67.20000000000641, 79.55000000000071], [-67.15000000000641, 79.50000000000071], [-67.10000000000642, 79.4500000000007], [-67.00000000000642, 79.4500000000007], [-66.90000000000643, 79.4500000000007], [-66.80000000000643, 79.4500000000007], [-66.70000000000644, 79.4500000000007], [-66.60000000000645, 79.4500000000007], [-66.50000000000645, 79.4500000000007], [-66.40000000000646, 79.4500000000007], [-66.35000000000646, 79.4500000000007]]}, "properties": {"source": "Copernicus Marine / OSI SAF", "dataset_id": "osisaf_obs-si_glo_phy-siedge_nrt_nh-P1D", "variable": "ice_edge", "mode": "ice_edge_class", "time": "2026-09-24", "generated_at": "2026-09-25T14:51:05.359098+00:00", "level": 1.5}}, {"type": "Feature", "geometry": {"type": "LineString", "coordinates": [[-70.15000000000624, 79.75000000000071], [-70.10000000000625, 79.75000000000071], [-70.00000000000625, 79.75000000000071], [-69.90000000000626, 79.75000000000071], [-69.85000000000626, 79.7000000000007], [-69.90000000000626, 79.6500000000007], [-70.00000000000625, 79.6500000000007], [-70.10000000000625, 79.6500000000007], [-70.20000000000624, 79.6500000000007], [-70.30000000000624, 79.6500000000007], [-70.40000000000623, 79.6500000000007]]}, "properties": {"source": "Copernicus Marine / OSI SAF", "dataset_id": "osisaf_obs-si_glo_phy-siedge_nrt_nh-P1D", "variable": "ice_edge", "mode": "ice_edge_class", "time": "2026-09-24", "generated_at": "2026-09-25T14:51:05.359098+00:00", "level": 1.5}}, {"type": "Feature", "geometry": {"type": "LineString", "coordinates": [[-66.35000000000646, 79.8500000000007], [-66.40000000000646, 79.8500000000007], [-66.50000000000645, 79.8500000000007], [-66.55000000000645, 79.80000000000071], [-66.60000000000645, 79.75000000000071], [-66.70000000000644, 79.75000000000071], [-66.80000000000643, 79.75000000000071], [-66.90000000000643, 79.75000000000071], [-67.00000000000642, 79.75000000000071], [-67.10000000000642, 79.75000000000071], [-67.20000000000641, 79.75000000000071], [-67.3000000000064, 79.75000000000071], [-67.4000000000064, 79.75000000000071], [-67.5000000000064, 79.75000000000071], [-67.60000000000639, 79.75000000000071], [-67.70000000000638, 79.75000000000071], [-67.80000000000638, 79.75000000000071], [-67.85000000000637, 79.80000000000071], [-67.80000000000638, 79.8500000000007], [-67.70000000000638, 79.8500000000007], [-67.60000000000639, 79.8500000000007], [-67.5000000000064, 79.8500000000007], [-67.4000000000064, 79.8500000000007], [-67.3000000000064, 79.8500000000007], [-67.20000000000641, 79.8500000000007], [-67.10000000000642, 79.8500000000007], [-67.00000000000642, 79.8500000000007], [-66.95000000000643, 79.8500000000007]]}, "properties": {"source": "Copernicus Marine / OSI SAF", "dataset_id": "osisaf_obs-si_glo_phy-siedge_nrt_nh-P1D", "variable": "ice_edge", "mode": "ice_edge_class", "time": "2026-09-24", "generated_at": "2026-09-25T14:51:05.359098+00:00", "level": 1.5}}, {"type": "Feature", "geometry": {"type": "LineString", "coordinates": [[-18.400000000009186, 72.3500000000006], [-18.30000000000919, 72.3500000000006], [-18.200000000009197, 72.3500000000006], [-18.100000000009203, 72.3500000000006], [-18.00000000000921, 72.3500000000006], [-17.900000000009214, 72.3500000000006], [-17.850000000009217, 72.4000000000006], [-17.900000000009214, 72.4500000000006], [-18.00000000000921, 72.4500000000006], [-18.100000000009203, 72.4500000000006], [-18.200000000009197, 72.4500000000006], [-18.250000000009194, 72.5000000000006], [-18.200000000009197, 72.55000000000061], [-18.100000000009203, 72.55000000000061], [-18.050000000009206, 72.6000000000006], [-18.100000000009203, 72.6500000000006], [-18.200000000009197, 72.6500000000006], [-18.30000000000919, 72.6500000000006], [-18.400000000009186, 72.6500000000006], [-18.450000000009183, 72.6000000000006], [-18.50000000000918, 72.55000000000061], [-18.550000000009177, 72.5000000000006], [-18.50000000000918, 72.4500000000006], [-18.450000000009183, 72.4000000000006], [-18.400000000009186, 72.3500000000006]]}, "properties": {"source": "Copernicus Marine / OSI SAF", "dataset_id": "osisaf_obs-si_glo_phy-siedge_nrt_nh-P1D", "variable": "ice_edge", "mode": "ice_edge_class", "time": "2026-09-24", "generated_at": "2026-09-25T14:51:05.359098+00:00", "level": 1.5}}, {"type": "Feature", "geometry": {"type": "LineString", "coordinates": [[-17.80000000000922, 72.6500000000006], [-17.700000000009226, 72.6500000000006], [-17.60000000000923, 72.6500000000006], [-17.500000000009237, 72.6500000000006], [-17.400000000009243, 72.6500000000006], [-17.30000000000925, 72.6500000000006], [-17.25000000000925, 72.70000000000061], [-17.200000000009254, 72.75000000000061], [-17.10000000000926, 72.75000000000061], [-17.000000000009265, 72.75000000000061], [-16.90000000000927, 72.75000000000061], [-16.800000000009277, 72.75000000000061], [-16.700000000009283, 72.75000000000061], [-16.650000000009285, 72.80000000000061], [-16.700000000009283, 72.8500000000006], [-16.800000000009277, 72.8500000000006], [-16.90000000000927, 72.8500000000006], [-17.000000000009265, 72.8500000000006], [-17.10000000000926, 72.8500000000006], [-17.150000000009257, 72.9000000000006], [-17.200000000009254, 72.95000000000061], [-17.30000000000925, 72.95000000000061], [-17.400000000009243, 72.95000000000061], [-17.500000000009237, 72.95000000000061], [-17.550000000009234, 72.9000000000006], [-17.60000000000923, 72.8500000000006], [-17.700000000009226, 72.8500000000006], [-17.750000000009223, 72.80000000000061], [-17.80000000000922, 72.75000000000061], [-17.850000000009217, 72.70000000000061], [-17.80000000000922, 72.6500000000006]]}, "properties": {"source": "Copernicus Marine / OSI SAF", "dataset_id": "osisaf_obs-si_glo_phy-siedge_nrt_nh-P1D", "variable": "ice_edge", "mode": "ice_edge_class", "time": "2026-09-24", "generated_at": "2026-09-25T14:51:05.359098+00:00", "level": 1.5}}, {"type": "Feature", "geometry": {"type": "LineString", "coordinates": [[-17.10000000000926, 72.95000000000061], [-17.050000000009263, 73.00000000000061], [-17.000000000009265, 73.05000000000061], [-16.90000000000927, 73.05000000000061], [-16.850000000009274, 73.10000000000062], [-16.800000000009277, 73.15000000000062], [-16.700000000009283, 73.15000000000062], [-16.600000000009288, 73.15000000000062], [-16.500000000009294, 73.15000000000062], [-16.4000000000093, 73.15000000000062], [-16.350000000009302, 73.20000000000061], [-16.300000000009305, 73.25000000000061], [-16.20000000000931, 73.25000000000061], [-16.150000000009314, 73.30000000000061], [-16.100000000009317, 73.35000000000062], [-16.000000000009322, 73.35000000000062], [-15.950000000009325, 73.40000000000062], [-16.000000000009322, 73.45000000000061], [-16.02500000000932, 73.50000000000063], [-16.100000000009317, 73.57500000000061], [-16.20000000000931, 73.57500000000061], [-16.300000000009305, 73.57500000000061], [-16.350000000009302, 73.60000000000062], [-16.4000000000093, 73.65000000000062], [-16.500000000009294, 73.65000000000062], [-16.600000000009288, 73.65000000000062], [-16.650000000009285, 73.60000000000062], [-16.700000000009283, 73.55000000000062], [-16.800000000009277, 73.55000000000062], [-16.850000000009274, 73.50000000000063], [-16.90000000000927, 73.45000000000061], [-16.95000000000927, 73.40000000000062], [-17.000000000009265, 73.35000000000062], [-17.10000000000926, 73.35000000000062], [-17.150000000009257, 73.30000000000061], [-17.200000000009254, 73.25000000000061], [-17.30000000000925, 73.25000000000061], [-17.350000000009246, 73.20000000000061], [-17.30000000000925, 73.15000000000062], [-17.200000000009254, 73.15000000000062], [-17.150000000009257, 73.10000000000062], [-17.150000000009257, 73.00000000000061], [-17.10000000000926, 72.95000000000061]]}, "properties": {"source": "Copernicus Marine / OSI SAF", "dataset_id": "osisaf_obs-si_glo_phy-siedge_nrt_nh-P1D", "variable": "ice_edge", "mode": "ice_edge_class", "time": "2026-09-24", "generated_at": "2026-09-25T14:51:05.359098+00:00", "level": 1.5}}, {"type": "Feature", "geometry": {"type": "LineString", "coordinates": [[-15.70000000000934, 73.55000000000062], [-15.600000000009345, 73.55000000000062], [-15.550000000009348, 73.60000000000062], [-15.50000000000935, 73.65000000000062], [-15.400000000009356, 73.65000000000062], [-15.35000000000936, 73.70000000000061], [-15.400000000009356, 73.75000000000063], [-15.425000000009355, 73.80000000000062], [-15.400000000009356, 73.85000000000062], [-15.300000000009362, 73.85000000000062], [-15.250000000009365, 73.90000000000063], [-15.200000000009368, 73.95000000000063], [-15.100000000009373, 73.95000000000063], [-15.050000000009376, 74.00000000000063], [-15.100000000009373, 74.05000000000062], [-15.200000000009368, 74.05000000000062], [-15.300000000009362, 74.05000000000062], [-15.400000000009356, 74.05000000000062], [-15.450000000009354, 74.00000000000063], [-15.50000000000935, 73.95000000000063], [-15.600000000009345, 73.95000000000063], [-15.650000000009342, 73.90000000000063], [-15.70000000000934, 73.85000000000062], [-15.800000000009334, 73.85000000000062], [-15.900000000009328, 73.85000000000062], [-16.000000000009322, 73.85000000000062], [-16.100000000009317, 73.85000000000062], [-16.20000000000931, 73.85000000000062], [-16.250000000009308, 73.80000000000062], [-16.20000000000931, 73.75000000000063], [-16.100000000009317, 73.75000000000063], [-16.05000000000932, 73.70000000000061], [-16.000000000009322, 73.65000000000062], [-15.900000000009328, 73.65000000000062], [-15.800000000009334, 73.65000000000062], [-15.750000000009337, 73.60000000000062], [-15.70000000000934, 73.55000000000062]]}, "properties": {"source": "Copernicus Marine / OSI SAF", "dataset_id": "osisaf_obs-si_glo_phy-siedge_nrt_nh-P1D", "variable": "ice_edge", "mode": "ice_edge_class", "time": "2026-09-24", "generated_at": "2026-09-25T14:51:05.359098+00:00", "level": 1.5}}, {"type": "Feature", "geometry": {"type": "LineString", "coordinates": [[-15.800000000009334, 73.95000000000063], [-15.70000000000934, 73.95000000000063], [-15.650000000009342, 74.00000000000063], [-15.70000000000934, 74.05000000000062], [-15.800000000009334, 74.05000000000062], [-15.85000000000933, 74.00000000000063], [-15.800000000009334, 73.95000000000063]]}, "properties": {"source": "Copernicus Marine / OSI SAF", "dataset_id": "osisaf_obs-si_glo_phy-siedge_nrt_nh-P1D", "variable": "ice_edge", "mode": "ice_edge_class", "time": "2026-09-24", "generated_at": "2026-09-25T14:51:05.359098+00:00", "level": 1.5}}, {"type": "Feature", "geometry": {"type": "LineString", "coordinates": [[-14.900000000009385, 73.95000000000063], [-14.80000000000939, 73.95000000000063], [-14.700000000009396, 73.95000000000063], [-14.650000000009399, 74.00000000000063], [-14.600000000009402, 74.05000000000062], [-14.500000000009408, 74.05000000000062], [-14.45000000000941, 74.10000000000062], [-14.400000000009413, 74.15000000000063], [-14.300000000009419, 74.15000000000063], [-14.250000000009422, 74.20000000000063], [-14.200000000009425, 74.25000000000063], [-14.10000000000943, 74.25000000000063], [-14.050000000009433, 74.30000000000064], [-14.000000000009436, 74.35000000000063], [-13.900000000009442, 74.35000000000063], [-13.850000000009445, 74.40000000000063], [-13.800000000009447, 74.45000000000063], [-13.700000000009453, 74.45000000000063], [-13.600000000009459, 74.45000000000063], [-13.550000000009462, 74.50000000000063], [-13.500000000009464, 74.55000000000064], [-13.40000000000947, 74.55000000000064], [-13.350000000009473, 74.60000000000063], [-13.40000000000947, 74.65000000000063], [-13.450000000009467, 74.70000000000064], [-13.500000000009464, 74.75000000000064], [-13.550000000009462, 74.70000000000064], [-13.600000000009459, 74.65000000000063], [-13.700000000009453, 74.65000000000063], [-13.75000000000945, 74.60000000000063], [-13.800000000009447, 74.55000000000064], [-13.900000000009442, 74.55000000000064], [-13.950000000009439, 74.50000000000063], [-14.000000000009436, 74.45000000000063], [-14.10000000000943, 74.45000000000063], [-14.200000000009425, 74.45000000000063], [-14.300000000009419, 74.45000000000063], [-14.400000000009413, 74.45000000000063], [-14.500000000009408, 74.45000000000063], [-14.600000000009402, 74.45000000000063], [-14.650000000009399, 74.40000000000063], [-14.600000000009402, 74.35000000000063], [-14.500000000009408, 74.35000000000063], [-14.45000000000941, 74.30000000000064], [-14.500000000009408, 74.25000000000063], [-14.600000000009402, 74.25000000000063], [-14.650000000009399, 74.20000000000063], [-14.700000000009396, 74.15000000000063], [-14.80000000000939, 74.15000000000063], [-14.850000000009388, 74.10000000000062], [-14.900000000009385, 74.05000000000062], [-14.950000000009382, 74.00000000000063], [-14.900000000009385, 73.95000000000063]]}, "properties": {"source": "Copernicus Marine / OSI SAF", "dataset_id": "osisaf_obs-si_glo_phy-siedge_nrt_nh-P1D", "variable": "ice_edge", "mode": "ice_edge_class", "time": "2026-09-24", "generated_at": "2026-09-25T14:51:05.359098+00:00", "level": 1.5}}, {"type": "Feature", "geometry": {"type": "LineString", "coordinates": [[-13.300000000009476, 74.75000000000064], [-13.200000000009481, 74.75000000000064], [-13.100000000009487, 74.75000000000064], [-13.000000000009493, 74.75000000000064], [-12.900000000009499, 74.75000000000064], [-12.850000000009501, 74.80000000000064], [-12.900000000009499, 74.85000000000063], [-13.000000000009493, 74.85000000000063], [-13.100000000009487, 74.85000000000063], [-13.200000000009481, 74.85000000000063], [-13.300000000009476, 74.85000000000063], [-13.350000000009473, 74.80000000000064], [-13.300000000009476, 74.75000000000064]]}, "properties": {"source": "Copernicus Marine / OSI SAF", "dataset_id": "osisaf_obs-si_glo_phy-siedge_nrt_nh-P1D", "variable": "ice_edge", "mode": "ice_edge_class", "time": "2026-09-24", "generated_at": "2026-09-25T14:51:05.359098+00:00", "level": 1.5}}, {"type": "Feature", "geometry": {"type": "LineString", "coordinates": [[-12.800000000009504, 74.95000000000064], [-12.70000000000951, 74.95000000000064], [-12.600000000009516, 74.95000000000064], [-12.500000000009521, 74.95000000000064], [-12.450000000009524, 75.00000000000064], [-12.500000000009521, 75.05000000000064], [-12.600000000009516, 75.05000000000064], [-12.70000000000951, 75.05000000000064], [-12.800000000009504, 75.05000000000064], [-12.850000000009501, 75.00000000000064], [-12.800000000009504, 74.95000000000064]]}, "properties": {"source": "Copernicus Marine / OSI SAF", "dataset_id": "osisaf_obs-si_glo_phy-siedge_nrt_nh-P1D", "variable": "ice_edge", "mode": "ice_edge_class", "time": "2026-09-24", "generated_at": "2026-09-25T14:51:05.359098+00:00", "level": 1.5}}, {"type": "Feature", "geometry": {"type": "LineString", "coordinates": [[-9.00000000000972, 76.55000000000067], [-9.050000000009717, 76.60000000000066], [-9.050000000009717, 76.70000000000067], [-9.00000000000972, 76.75000000000067], [-8.950000000009723, 76.70000000000067], [-8.900000000009726, 76.65000000000066], [-8.850000000009729, 76.60000000000066], [-8.900000000009726, 76.55000000000067], [-9.00000000000972, 76.55000000000067]]}, "properties": {"source": "Copernicus Marine / OSI SAF", "dataset_id": "osisaf_obs-si_glo_phy-siedge_nrt_nh-P1D", "variable": "ice_edge", "mode": "ice_edge_class", "time": "2026-09-24", "generated_at": "2026-09-25T14:51:05.359098+00:00", "level": 1.5}}, {"type": "Feature", "geometry": {"type": "LineString", "coordinates": [[-11.500000000009578, 76.95000000000067], [-11.550000000009575, 77.00000000000067], [-11.500000000009578, 77.05000000000067], [-11.450000000009581, 77.10000000000068], [-11.400000000009584, 77.15000000000067], [-11.30000000000959, 77.15000000000067], [-11.250000000009592, 77.10000000000068], [-11.200000000009595, 77.05000000000067], [-11.1000000000096, 77.05000000000067], [-11.050000000009604, 77.00000000000067], [-11.1000000000096, 76.95000000000067], [-11.200000000009595, 76.95000000000067], [-11.30000000000959, 76.95000000000067], [-11.400000000009584, 76.95000000000067], [-11.500000000009578, 76.95000000000067]]}, "properties": {"source": "Copernicus Marine / OSI SAF", "dataset_id": "osisaf_obs-si_glo_phy-siedge_nrt_nh-P1D", "variable": "ice_edge", "mode": "ice_edge_class", "time": "2026-09-24", "generated_at": "2026-09-25T14:51:05.359098+00:00", "level": 1.5}}, {"type": "Feature", "geometry": {"type": "LineString", "coordinates": [[-68.40000000000634, 79.75000000000071], [-68.45000000000634, 79.80000000000071], [-68.40000000000634, 79.8500000000007], [-68.30000000000635, 79.8500000000007], [-68.20000000000636, 79.8500000000007], [-68.10000000000636, 79.8500000000007], [-68.00000000000637, 79.8500000000007], [-67.95000000000637, 79.80000000000071], [-68.00000000000637, 79.75000000000071], [-68.10000000000636, 79.75000000000071], [-68.20000000000636, 79.75000000000071], [-68.30000000000635, 79.75000000000071], [-68.40000000000634, 79.75000000000071]]}, "properties": {"source": "Copernicus Marine / OSI SAF", "dataset_id": "osisaf_obs-si_glo_phy-siedge_nrt_nh-P1D", "variable": "ice_edge", "mode": "ice_edge_class", "time": "2026-09-24", "generated_at": "2026-09-25T14:51:05.359098+00:00", "level": 1.5}}], "properties": {"source": "Copernicus Marine / OSI SAF", "dataset_id": "osisaf_obs-si_glo_phy-siedge_nrt_nh-P1D", "variable": "ice_edge", "mode": "ice_edge_class", "time": "2026-09-24", "generated_at": "2026-09-25T14:51:05.359098+00:00"}}