{"type":"FeatureCollection","features":[{"type":"Feature","properties":{"name":"Jan Mayen EEZ","kind":"outer-boundary"},"geometry":{"type":"LineString","coordinates":[[2.356224500061046,71.17424422229328],[2.351840638734728,71.15637527779703],[2.34716694389985,71.13851411063786],[2.342204305884565,71.1206611668795],[2.336953667178364,71.10281697172618],[2.331415944191065,71.08498202789855],[2.32559208300853,71.06715680574234],[2.319483027919887,71.04934183315919],[2.313089694434325,71.03153755621344],[2.306413055618464,71.01374447222983],[2.299454027881723,70.99596308303],[2.292213583390463,70.9781938607583],[2.284692667333246,70.96043730633681],[2.276892250077566,70.94269388921208],[2.268813249831879,70.92496408332607],[2.260456666642199,70.90724836082339],[2.251823471776078,70.88954722172721],[2.242914611320515,70.87186113908064],[2.233731055643972,70.85419058322935],[2.224273805691922,70.83653602811555],[2.214543805752299,70.8188979171054],[2.20454205587157,70.80127675022189],[2.194269528216552,70.78367299960965],[2.183727194055081,70.76608711133125],[2.177469444159755,70.75592222173347],[2.172916083111204,70.74851952785417],[2.161837138773336,70.73097077797931],[2.150491361087887,70.71344125021378],[2.138879750100784,70.69593144368145],[2.127003332837972,70.67844180624456],[2.114863028406376,70.66097280555101],[2.102459916891888,70.64352486068395],[2.089794944381509,70.62609847166735],[2.076869138800163,70.60869405578623],[2.063683500193861,70.59131205640676],[2.050239027709324,70.57395294387365],[2.036536722292425,70.55661716694908],[2.022577610968511,70.53930516719996],[2.008362693783681,70.52201736101247],[1.993892999562803,70.5047541935516],[1.979169499573288,70.4875161387593],[1.964193249619086,70.47030361122304],[1.948965277626002,70.4531170282286],[1.933486555760169,70.4359568610206],[1.917758111048528,70.41882349990468],[1.901780972314384,70.40171741702542],[1.901538889208808,70.40146388914744],[1.885556166584252,70.3846389999901],[1.869084721782798,70.36758872184208],[1.85236763885581,70.35056697198834],[1.835405943929516,70.33357419379436],[1.827665083377127,70.32590880614671],[1.812269666612139,70.30874966686392],[1.796625972211473,70.29161741731025],[1.780734943563033,70.27451241721454],[1.764597667048946,70.25743516659966],[1.748215083359668,70.24038605577203],[1.731588277977124,70.22336552809685],[1.714718194289702,70.20637397208156],[1.697605889001096,70.18941186076907],[1.680252361257857,70.17247955568729],[1.662658638985306,70.15557752808064],[1.644825722229569,70.13870616735596],[1.626754638915997,70.12186591687902],[1.608446416968803,70.10505716695499],[1.589902083414898,70.08828030609143],[1.571122611319907,70.07153580643242],[1.552109055588716,70.05482402770696],[1.532862444146787,70.03814538899877],[1.513383777939339,70.02150030579475],[1.493674083092714,70.00488916660206],[1.473734389330986,69.9883123887061],[1.453565721881063,69.9717703606139],[1.433169082587369,69.95526347173234],[1.412545500274945,69.93879216722499],[1.391696028049807,69.92235677804311],[1.370621666856863,69.90595772237123],[1.349323416742834,69.88959541659543],[1.327802332611867,69.87327022224343],[1.306059417208644,69.85698255570065],[1.284095721840316,69.84073274971672],[1.261912250150687,69.82452125035567],[1.239510028265585,69.80834838856757],[1.216890083211041,69.79221458343676],[1.194053416831963,69.7761202216713],[1.171001111012714,69.76006563871866],[1.147734110940775,69.74405125006535],[1.124253500299346,69.7280773893605],[1.10056025035567,69.71214447209016],[1.076655443894055,69.69625283280246],[1.05254005577919,69.6804028887828],[1.028215139117833,69.66459497188092],[1.003681693955485,69.64882944362418],[0.978940722137025,69.633106694319],[0.953993306446165,69.61742705581429],[0.928840417251848,69.6017909166178],[0.903483083377949,69.58619861127696],[0.87792233274979,69.57065052829961],[0.852159167212307,69.555147000434],[0.826194638971714,69.53968838920807],[0.800029749873346,69.52427505614929],[0.773665499963386,69.50890733310729],[0.747102917166245,69.49358558340842],[0.720343027609033,69.47831013890232],[0.693386861015142,69.46308136111614],[0.66623538865278,69.44789958279978],[0.638889639345962,69.4327651394],[0.61135066710014,69.41767841672595],[0.583619444082586,69.40263969356715],[0.555696972137838,69.38764933325038],[0.527584306171235,69.37270769370537],[0.499282417449933,69.35781505642004],[0.470792360879301,69.34297180630409],[0.442115111323659,69.32817825002667],[0.413251667031233,69.31343472213507],[0.384203055926719,69.29874152839915],[0.354970305935097,69.28409902764821],[0.325554389224123,69.26950749957166],[0.295956305839098,69.25496733267636],[0.266177110685391,69.2404787778735],[0.236217749849857,69.22604219399227],[0.206079250357448,69.21165788860085],[0.175762639234932,69.19732616656967],[0.145268860769875,69.18304736064749],[0.114598971665572,69.16882177840253],[0.106623611091123,69.16514455577692],[0.102234471643783,69.16312308306397],[0.071350027682058,69.14896411090515],[0.040291694406619,69.13485905580097],[0.009060471863819,69.1208082496012],[0.000011459156326,69.11677511174668],[-1.248935e-9,69.1167700038522],[-0.000011459155559,69.11676489707142],[-0.022342611122355,69.10681191713644],[-0.053916611162265,69.09287044421626],[-0.085660500331358,69.07898408264958],[-0.117573305563269,69.06515316698508],[-0.149654027710767,69.05137797241588],[-0.181901666727981,69.03765877773088],[-0.214315221669779,69.02399591657874],[-0.246893750046127,69.01038966684987],[-0.279636222133718,68.99684030643508],[-0.312541666664288,68.98334813930569],[-0.345609110571445,68.9699134442505],[-0.378837527729161,68.9565365279386],[-0.412225972050578,68.94321763858346],[-0.445773472267661,68.9299571107322],[-0.479478999555795,68.9167551674173],[-0.513341611425801,68.90361211081051],[-0.547360333012534,68.89052825027898],[-0.581534139088973,68.87750383313545],[-0.615862111447086,68.86453911119125],[-0.650343222161666,68.85163441719493],[-0.684976527844015,68.83878997237952],[-0.719761056327229,68.82600605643484],[-0.754695832746108,68.8132829436532],[-0.789779889429951,68.80062091732194],[-0.825012221836175,68.78802019417685],[-0.860391889273842,68.77548111056507],[-0.895917943857739,68.76300386073973],[-0.931589389138736,68.75058872169225],[-0.967405250251716,68.73823597221278],[-1.003364582908944,68.7259458326343],[-1.039466416741391,68.71371858264675],[-1.075709805662541,68.70155450014062],[-1.112093778404756,68.68945377757024],[-1.148617361001982,68.67741672160457],[-1.185279610964926,68.66544355617543],[-1.222079583106051,68.65353449981757],[-1.259016278278182,68.64168983311961],[-1.296088778274168,68.62990980609305],[-1.333296110926312,68.61819463907153],[-1.37063736072534,68.60654455598672],[-1.408111527624527,68.59495983293039],[-1.445717667336112,68.58344069383315],[-1.483454860752857,68.57198738870724],[-1.521322139304857,68.56060011090699],[-1.559318528127164,68.54927911134234],[-1.597443138689471,68.53802461124681],[-1.635694999724137,68.52683686063307],[-1.63741508263962,68.52633622243923],[-1.645722917178432,68.52391819366994],[-1.684098389129019,68.51279847227195],[-1.722599222076099,68.5017459167407],[-1.761224471731794,68.49076083284638],[-1.799973138948872,68.47984336088282],[-1.838844361277893,68.46899374996187],[-1.877837138672646,68.45821222221679],[-1.916950582602851,68.44749899977927],[-1.956183749680008,68.43685427780287],[-1.995535666837213,68.42627827841994],[-2.00806466725021,68.42293213940678],[-2.018470111106353,68.42015666699666],[-2.057967361404394,68.40966902780366],[-2.097581222295162,68.3992506112269],[-2.137310806148434,68.38890161062119],[-2.177155193856663,68.37862224991713],[-2.217113388971256,68.36841269369125],[-2.257184528142943,68.35827319375329],[-2.297367667083847,68.34820391737702],[-2.337661889384322,68.3382051109773],[-2.37806624985717,68.32827691664664],[-2.418579860871489,68.31841955561822],[-2.459201750260291,68.30863322214591],[-2.499931027694458,68.29891811138205],[-2.540766777664203,68.28927441668122],[-2.581708055881791,68.27970233319652],[-2.622753999896645,68.2702020282014],[-2.663903639341015,68.26077372202997],[-2.705156082986605,68.25141758285534],[-2.746510389242701,68.24213380583069],[-2.787965693861111,68.23292255643119],[-2.829521056151464,68.22378402801081],[-2.871175556106721,68.21471838874291],[-2.912928306096035,68.20572583288134],[-2.954778388811235,68.19680652769927],[-2.996724888742165,68.18796066655204],[-3.033966527832604,68.18018527832828],[-3.068555278402982,68.1729918333067],[-3.110654500304634,68.16427588912137],[-3.152847639306856,68.15563386111401],[-3.195133750221999,68.14706588868009],[-3.237511972399034,68.13857213909321],[-3.279981389429281,68.1301528326872],[-3.32254108310417,68.12180808277711],[-3.36519019367222,68.11353805573697],[-3.407927777744362,68.10534294402194],[-3.450752944092869,68.09722286094677],[-3.493664832965294,68.08917799986511],[-3.536662527952899,68.08120852805135],[-3.579745110847796,68.07331455612223],[-3.622911721898049,68.06549624955261],[-3.666161443795318,68.0577537783146],[-3.709493388908385,68.05008730608458],[-3.752906693888349,68.04249694437866],[-3.796400417145094,68.03498283259182],[-3.839973722309026,68.02754516677632],[-3.883625666890623,68.02018405575001],[-3.927355417218394,68.01289963890747],[-3.971162055983655,68.00569205564409],[-3.997370832897275,68.00142258268616],[-4.034704221722109,67.99365408326963],[-4.076548416575633,67.98498583283015],[-4.118485499705798,67.97639172160098],[-4.160514555601821,67.9678718889767],[-4.202634721814547,67.95942650043281],[-4.244845055854256,67.951055722344],[-4.287144694371705,67.9427596941047],[-4.329532749736188,67.93453863874751],[-4.372008306437863,67.92639266688832],[-4.414570472349112,67.91832194400277],[-4.457218360738466,67.91032663916343],[-4.499951083075757,67.90240691694629],[-4.542767749931329,67.89456288886649],[-4.585667471875922,67.88679475007791],[-4.628649333399665,67.87910263907571],[-4.671712499931459,67.8714866943557],[-4.71485602808275,67.86394708319159],[-4.758079056303075,67.85648394407909],[-4.801380722142198,67.84909741731215],[-4.844760110989967,67.84178763868903],[-4.888216333416608,67.8345547503016],[-4.931748527871946,67.82739891672685],[-4.975355805825245,67.82032025037972],[-5.019037277847787,67.81331888885612],[-5.062792083287661,67.80639497155101],[-5.106619332715525,67.79954863875895],[-5.150518139400219,67.7927800280761],[-5.194487639092813,67.78608925011889],[-5.2385269441628,67.77947644428275],[-5.282635166978935,67.77294174996223],[-5.32681147207137,67.76648527777371],[-5.371054943930062,67.76010713923364],[-5.415364721903927,67.75380747193745],[-5.459739944442504,67.74758638920068],[-5.504179722116078,67.74144402771972],[-5.548683194273679,67.73538047203141],[-5.593249472384855,67.72939588940906],[-5.637877721878908,67.723490360792],[-5.672985360585471,67.71890586071714],[-5.717679583445602,67.71309600018066],[-5.762393971804045,67.70731936060011],[-5.807168028381284,67.7016220556134],[-5.852000861050556,67.69600422191758],[-5.896891610958619,67.69046594404864],[-5.94183941655541,67.68500736140078],[-5.986843444169267,67.67962855581337],[-6.031902750411405,67.67432963880188],[-6.077016555569116,67.66911069400342],[-6.122183944133468,67.66397180595428],[-6.167404056351756,67.65891313923001],[-6.212676055855013,67.65393472171036],[-6.257999055911398,67.64903669368863],[-6.303372221950156,67.64421911092364],[-6.348794639089988,67.63948208303307],[-6.394265528430992,67.63482572182988],[-6.439783943973566,67.63025008277529],[-6.485349082893663,67.62575524960562],[-6.530960082741331,67.62134133293665],[-6.576616055971272,67.61700841707642],[-6.622316193836809,67.61275655577089],[-6.631999948838143,67.61186853100801],[-6.63234611313564,67.61227382123081],[-6.633823451091075,67.61399486736994],[-6.636791864052839,67.61743630394236],[-6.63828173936156,67.6191553058056],[-6.650268705880848,67.63291329810676],[-6.651359194970553,67.63415994652476],[-6.651772812065246,67.63463062020747],[-6.654795580950747,67.63806550342053],[-6.656313028622975,67.63978167788244],[-6.662412825191268,67.6466467363581],[-6.663943649416439,67.64836125777157],[-6.667019055612542,67.65178958398062],[-6.668562395488806,67.65350200567084],[-6.680977617540208,67.66720706383126],[-6.682535225083228,67.66891774440063],[-6.685665044905477,67.67233928083385],[-6.687235999638716,67.67404875613303],[-6.693549951668729,67.68088688542207],[-6.695134289097268,67.6825946493168],[-6.698316741620204,67.68600940034435],[-6.699913570779131,67.68771501042863],[-6.712757243851343,67.70136527398847],[-6.714368374871839,67.70306908090623],[-6.71760529030459,67.70647680635605],[-6.719229773435018,67.70817934899813],[-6.725757961160525,67.7149896198755],[-6.727395830745621,67.71669039342692],[-6.730685365536942,67.72009110422147],[-6.732335701531042,67.72178966995753],[-6.745607951123276,67.73538327964948],[-6.747272620534659,67.73707997935801],[-6.750616657832211,67.74047342810661],[-6.75229468215349,67.74216880664531],[-6.75903715044376,67.74895028842536],[-6.760728562155435,67.75064383953395],[-6.764125197928706,67.75403004593215],[-6.765829049070817,67.75572133447204],[-6.779529929961882,67.76925642714289],[-6.78124814301728,67.77094578896114],[-6.784699312223154,67.77432449537952],[-6.786430880380465,67.77601247699454],[-6.793387639355302,67.78276423879379],[-6.795132595258906,67.78445033447491],[-6.798636331700948,67.78782157010983],[-6.800393696911271,67.78950535009201],[-6.814523193127599,67.80298006484864],[-6.816294947242767,67.80466185452647],[-6.819000307027494,67.80721911401295],[-6.819853239217679,67.8080253539865],[-6.821638346519393,67.80970570583037],[-6.828809369913529,67.81642681631249],[-6.830607861763099,67.8181052237776],[-6.833808136618359,67.82107947419493],[-6.834218682152198,67.82146102447564],[-6.836029552421564,67.82313706282551],[-6.850587574456625,67.8365495365324],[-6.852412856644065,67.83822352199527],[-6.856078244657795,67.84157134872649],[-6.857916876462298,67.84324383803326],[-6.865302101396821,67.84993336682717],[-6.867154112671756,67.85160385393502],[-6.870871981056723,67.85494375345152],[-6.872736336133187,67.85661181832657],[-6.887722723024808,67.86996018871221],[-6.889601511419357,67.87162613762223],[-6.89337394974828,67.87495782615395],[-6.895266081663976,67.87662222073905],[-6.90286540871125,67.88327923634839],[-6.903505632458234,67.88383775836004],[-6.904770913030376,67.88494157102176],[-6.908595774935009,67.88826510443363],[-6.910513587536798,67.88992496244501],[-6.925928099901626,67.9032073684256],[-6.926996552048934,67.90412553576519],[-6.929139466706459,67.90596302575841],[-6.930212602974507,67.90688120861864],[-6.934516593065922,67.910555415001],[-6.935594065049486,67.91147315049642],[-6.937753523805725,67.9133084799031],[-6.938834637763648,67.91422533388612],[-6.947510366212271,67.9215651059742],[-6.949473209515105,67.92321892149482],[-6.953412877202197,67.92652544819117],[-6.955388587013431,67.92817722220164],[-6.963321433037322,67.93478275072374],[-6.965310562893706,67.93643242119066],[-6.969302691765449,67.93973053103952],[-6.971304676169666,67.94137813129618],[-6.978471384258427,67.94725291907892],[-6.979367671214192,67.94798623002563],[-6.981163749507118,67.94945321679282],[-6.982062817045033,67.9501863009574],[-6.985666324135195,67.95311934177249],[-6.98656774084597,67.95385174513703],[-6.988373596264864,67.95531651940797],[-6.989276699526641,67.95604780932337],[-7.00554644759535,67.96919270493314],[-7.007585531746543,67.97083314783208],[-7.011678659342351,67.97411363094],[-7.013731055243568,67.97575234679348],[-7.021971708491805,67.98230624228967],[-7.024037439990025,67.98394272338322],[-7.028182764822304,67.98721436904819],[-7.030260684382711,67.98884821417406],[-7.044503247490638,68.00000000000173],[-7.046957385918404,68.00192156621907],[-7.047400336605108,68.00226791259473],[-7.048289060398247,68.00296226282379],[-7.048733590561596,68.00330929434952],[-7.050515647634597,68.00469934584291],[-7.052615169260037,68.00633109074388],[-7.056827195833876,68.00959253485297],[-7.058939133959143,68.01122179559138],[-7.065611054824103,68.01634940639497],[-7.067282145925333,68.01762981714839],[-7.070633107259425,68.02018993048449],[-7.072311379002883,68.02146841417078],[-7.078381021181173,68.02607651800076],[-7.089434485755476,68.03446836564973],[-7.091580149879803,68.03609064417066],[-7.095886490690418,68.03933466821721],[-7.098045434440053,68.04095510382717],[-7.106712431741755,68.04743560784263],[-7.108884674059595,68.04905369295813],[-7.113243015031287,68.05228842641236],[-7.115427353080293,68.05390376980137],[-7.12100855069076,68.05801430397594],[-7.132976236573427,68.06682846631938],[-7.134482138703618,68.06793424365966],[-7.137502263948704,68.07014643982635],[-7.139710975630067,68.07175855700442],[-7.141103564823823,68.07277145980942],[-7.141799888688865,68.07327736217795],[-7.150679576612674,68.07971978004966],[-7.151267982573529,68.08014509001967],[-7.15290495204033,68.08132831976425],[-7.157369552875423,68.08454390222056],[-7.159606974780502,68.08614964774927],[-7.159633222130395,68.08616840907723],[-7.17758092465607,68.09899723692908],[-7.179832848356568,68.10060042445465],[-7.184351752669443,68.10380613576743],[-7.18661691450211,68.10540736507],[-7.19570891742643,68.11181077145096],[-7.197987330858325,68.11340953462428],[-7.202557998920838,68.11660550378585],[-7.20484840723077,68.11820142048651],[-7.223246631039842,68.13097005306037],[-7.225551538871116,68.13256334845306],[-7.230176429933067,68.13574920995157],[-7.232400635776571,68.13727621759023],[-7.241798452392231,68.14370396061827],[-7.24412979834932,68.1452927164957],[-7.248806320189317,68.14846861082438],[-7.251149607034051,68.15005446811051],[-7.269971228249858,68.1627422976002],[-7.272329009164991,68.16432547026483],[-7.277059662461284,68.16749102070989],[-7.279430630529987,68.16907212017458],[-7.288945970073144,68.17539473370917],[-7.291330132423354,68.17697325186572],[-7.296112273476183,68.1801286106444],[-7.298508320504709,68.18170417839917],[-7.317752378460852,68.1943093621451],[-7.320162910819988,68.19588218193047],[-7.324999080601344,68.19902696097012],[-7.326605675764483,68.20006812602404],[-7.327422771088777,68.20059765027301],[-7.337149047617118,68.20687848592351],[-7.339585899692793,68.20844653647728],[-7.344473404108214,68.21158089995359],[-7.346922082243225,68.2131459484952],[-7.366587530158199,68.22566664736962],[-7.369050681655722,68.22722888464756],[-7.373992100717317,68.23035243292696],[-7.376468378835682,68.23191248252934],[-7.386405047545679,68.2381506219462],[-7.388894451822182,68.23970797547028],[-7.393887042132576,68.24282088489704],[-7.396388211535566,68.24437518508427],[-7.41647391650406,68.25680956450194],[-7.4189895439456,68.25836099015052],[-7.424035923338181,68.26146284937758],[-7.426564643456459,68.26301203030079],[-7.436711116031233,68.26920655736106],[-7.439252924139566,68.27075298502075],[-7.44435030112345,68.27384398281484],[-7.446903811058348,68.27538730608205],[-7.467408552053428,68.28773353572123],[-7.469456813927479,68.28896218651087],[-7.469976501307372,68.28927392121523],[-7.475127530128361,68.29235363427546],[-7.47770853557364,68.29389171809913],[-7.487349939369523,68.29961754666039],[-7.488064179601281,68.30004171903255],[-7.490658232195074,68.30157699261812],[-7.495860074504947,68.30464562237199],[-7.497984315217423,68.30589465425825],[-7.498465763121828,68.30617774071848],[-7.519388231128119,68.31843399557093],[-7.522008336968497,68.31996311300628],[-7.527263682147975,68.32302022407137],[-7.529896805224439,68.3245469830635],[-7.540460943858875,68.33065154672036],[-7.543107070385588,68.33217543863009],[-7.548413034408497,68.33522124526615],[-7.551070728775301,68.33674193139439],[-7.572409524763543,68.34890639148401],[-7.575081610758502,68.35042401362892],[-7.580440916766179,68.35345806821357],[-7.583125978515397,68.35497327530351],[-7.593897889926438,68.36103149329352],[-7.596595908604058,68.36254377663582],[-7.602005628224219,68.36556630649562],[-7.604715144157353,68.36707533382256],[-7.626468779276308,68.3791461852382],[-7.629192657690851,68.38065208558947],[-7.634655546375996,68.38366263068696],[-7.637392356529517,68.38516605955243],[-7.647432327330137,68.39066295259087],[-7.648371273505688,68.39117702646598],[-7.651120991247467,68.3926774751273],[-7.656634077613035,68.39567627606147],[-7.659395219499629,68.39717341873103],[-7.681562113148345,68.40914885341618],[-7.682755312830182,68.40979221686987],[-7.685146949213959,68.4110800111745],[-7.686343572678368,68.41172346392798],[-7.691139122037384,68.41429845199423],[-7.692338560232201,68.41494157272672],[-7.694740335555537,68.41622761538227],[-7.695941702936409,68.4168700184396],[-7.705574016183959,68.4220125893996],[-7.708373310774675,68.42350221102203],[-7.713985320497557,68.42647918974714],[-7.716796631043678,68.4279658012509],[-7.728071845275565,68.43390838827551],[-7.730895889808892,68.43539188234212],[-7.736557586597087,68.43835668773016],[-7.739393611465118,68.43983714635323],[-7.751123122399008,68.44593973166675],[-7.752339846200471,68.44657276409609],[-7.753958758499436,68.44741331229122],[-7.757202228772144,68.44909434263849],[-7.758825479102654,68.4499341461271],[-7.765330250501165,68.4532931530901],[-7.766957308548911,68.45413178073858],[-7.770216196130832,68.45580851173014],[-7.771846043877304,68.45664559723647],[-7.794834344626679,68.46842480142416],[-7.79697349025372,68.4695177799322],[-7.801261524308131,68.4717036422083],[-7.803408288415767,68.47279544051267],[-7.812014859596559,68.47716190230011],[-7.814913044836089,68.47862758285117],[-7.820722569808652,68.48155647342745],[-7.823633130745009,68.48301928886389],[-7.826621433432535,68.48451663917643],[-7.827367940576437,68.48489037933683],[-7.828862140784452,68.48563785975921],[-7.829608060958094,68.48601071416931],[-7.853004323698599,68.49768911889177],[-7.855933264601902,68.49914588332618],[-7.861806241977433,68.50205789308058],[-7.864747912625319,68.50351196221555],[-7.87654625701532,68.50932493715669],[-7.879500608876072,68.51077580242682],[-7.885422811568674,68.51367519980536],[-7.888388270518703,68.51512256247776],[-7.912190541479049,68.5266983882818],[-7.915170162790616,68.52814231102886],[-7.921144484950787,68.5310285716574],[-7.923550230945921,68.53217088232816],[-7.938949742938803,68.53948297051625],[-7.941363600811485,68.5406093765915],[-7.942383441803599,68.54110564113742],[-7.961413176661097,68.55022738643021],[-7.967393847235599,68.5530762145026],[-7.972523100211106,68.55550512163455],[-7.978600774257472,68.55836611289081],[-7.984683714766902,68.56121259016939],[-7.987431834271661,68.56249500679954],[-7.999648228134731,68.56817915003953],[-8.001058052471649,68.56883403801726],[-8.006654314960088,68.57142975835592],[-8.007834593403516,68.57197267648255],[-8.030430685966621,68.58247097310783],[-8.03667145562224,68.5853516496988],[-8.04284688841841,68.58818508794565],[-8.045939636172818,68.58959980445059],[-8.058342209974853,68.59525495420093],[-8.061447437867628,68.59666630165202],[-8.06767125040966,68.59948648767744],[-8.069984285730186,68.60053141330525],[-8.070787321387627,68.60089418880244],[-8.095794941461747,68.61215168618392],[-8.09892500965384,68.61355576177652],[-8.105200160022775,68.61636213118067],[-8.10834271388552,68.61776329139519],[-8.120944472641384,68.62336407802923],[-8.124099433592733,68.62476181470896],[-8.130422659385658,68.62755472104874],[-8.133588370430061,68.62894876428248],[-8.15899322621101,68.64009665151607],[-8.162172871589462,68.6414870077711],[-8.1685471486972,68.64426587307074],[-8.170265279376167,68.64501263499292],[-8.171739212023056,68.64565325959143],[-8.18453896238293,68.65119881363105],[-8.187743356799672,68.65258272249002],[-8.194165393635956,68.65534791516274],[-8.19738044237954,68.65672808375157],[-8.22318009822618,68.66776462679618],[-8.226409014617332,68.66914104727476],[-8.23288180312943,68.67189197569084],[-8.236123067063318,68.67326537237753],[-8.24911956664846,68.67875482937993],[-8.252373082446923,68.68012469453191],[-8.258893303605987,68.68286174210874],[-8.26215737563092,68.6842278206689],[-8.288349297001446,68.69515129552704],[-8.29162716598222,68.6965135651024],[-8.298197826016974,68.69923612648498],[-8.301487969306606,68.7005953184667],[-8.314679926514202,68.70602781927022],[-8.317982239475953,68.7073834262298],[-8.324599993589175,68.71009189993822],[-8.327912762051312,68.71144367437327],[-8.354494316241357,68.7222523680586],[-8.357820806923996,68.7236002729089],[-8.364488673776862,68.72629403978266],[-8.367827362891546,68.7276388135868],[-8.38121343656428,68.73301350449262],[-8.384564210017743,68.7343546401192],[-8.391278820972445,68.73703411396235],[-8.394639946685857,68.73837137158094],[-8.421584118149951,68.74905395454476],[-8.42160840108545,68.74906358202489],[-8.424983170261555,68.75039690977124],[-8.43174755450417,68.7530614575328],[-8.435134443507195,68.75439160110915],[-8.448713242820418,68.75970763414549],[-8.452112127678447,68.76103408673751],[-8.45892289445078,68.7636841375801],[-8.46233202574075,68.76500666711132],[-8.489684548748471,68.77558070414716],[-8.493107240733138,68.77689924386439],[-8.499967427901709,68.77953415080833],[-8.503402158309086,68.78084945354908],[-8.517172242426568,68.78610598663559],[-8.51973229265758,68.78708017104935],[-8.5206188770822,68.78741754596393],[-8.527525073670517,68.79003775365723],[-8.530981846462169,68.79134534536087],[-8.552568854538094,68.79948255435565],[-8.558715505751707,68.80179953062986],[-8.562185752321795,68.80310307289884],[-8.569141002991444,68.80570792039353],[-8.57262320384558,68.8070081732368],[-8.58658308193634,68.8122043704825],[-8.59007709240501,68.81350082791636],[-8.597077967816858,68.81609077543467],[-8.600582005414537,68.81738322108839],[-8.628693768967253,68.82771588901329],[-8.632211189411237,68.8290042260086],[-8.639260738987048,68.83157859855913],[-8.6427900267729,68.83286359402541],[-8.656938157633022,68.83799862586676],[-8.660479157124769,68.83927977428328],[-8.667573935129496,68.84183904777382],[-8.671124848379975,68.84311614080303],[-8.69084476081514,68.85018365502987],[-8.699611582845591,68.85332563852634],[-8.700598403502681,68.85367879026086],[-8.702576711737606,68.85438617868027],[-8.703566017025423,68.85473963407969],[-8.707529936193794,68.85615460815964],[-8.708520832450859,68.85650801181833],[-8.710503993314546,68.85721472114122],[-8.711495457382284,68.85756774167243],[-8.719441506121825,68.86039425870388],[-8.723021191427677,68.86166378010424],[-8.730192434027686,68.86419944943066],[-8.733782490167187,68.86546506699591],[-8.748170783323928,68.87052142727288],[-8.751771997700928,68.87178297931172],[-8.758987109477857,68.87430298742305],[-8.762598634119342,68.87556061520237],[-8.783511063650053,68.8828187608865],[-8.786125978599443,68.88372403085233],[-8.791364199643283,68.88553356764129],[-8.793985393622222,68.88643710365503],[-8.804487783077832,68.89004905831962],[-8.807114697423174,68.8909504383102],[-8.812375495629567,68.89275169687258],[-8.815006709557565,68.89365066291677],[-8.844452220793528,68.90368333380133],[-8.845769129889788,68.90413140880554],[-8.847750608076296,68.90480513163203],[-8.851412625092223,68.90604664584686],[-8.858747507851433,68.9085259182749],[-8.862419385317423,68.90976334349676],[-8.875360682867552,68.91411094942777],[-8.878598563932144,68.91519568122663],[-8.88508423077235,68.91736274649725],[-8.888329158052045,68.9184441264795],[-8.917920998096974,68.92827433392009],[-8.921623054524161,68.92949980485122],[-8.929041649999078,68.93194818999262],[-8.932755198486632,68.93317011490603],[-8.947639920114682,68.93805232513608],[-8.94925861793456,68.93858242148477],[-8.952499995083826,68.93964253334013],[-8.956230380970226,68.94085904153886],[-8.960451126009843,68.94223143679568],[-8.962561151017724,68.94291635883201],[-8.992514419435395,68.95261692389192],[-8.99626155682057,68.95382617592378],[-9.003770249840898,68.95624206005155],[-9.007528778505389,68.95744771596122],[-9.022593289766121,68.96226471658787],[-9.026362993493876,68.96346627391387],[-9.033914758811306,68.96586609013391],[-9.035624735094984,68.96640785600823],[-9.037693770624742,68.9670633813823],[-9.068004828991036,68.9766327230976],[-9.071796590815552,68.97782555901901],[-9.079394465222606,68.98020854799262],[-9.08005801160374,68.9804165216812],[-9.083197514756478,68.9813977381173],[-9.098439971181051,68.98614874259835],[-9.102254079009128,68.98733378526197],[-9.109894559591737,68.989700518245],[-9.1137178467784,68.9908812542879],[-9.144382954613889,69.00031780714932],[-9.148218871704614,69.0014940317181],[-9.155904985959012,69.00384373533004],[-9.159752084367653,69.00501626486022],[-9.175170590758569,69.0097004945838],[-9.179028627542664,69.01086882828255],[-9.186756870236024,69.01320208983515],[-9.190623955174601,69.01436607693961],[-9.196451002715804,69.01611374405235],[-9.221639271555887,69.02366829183453],[-9.225518862071851,69.02482771182812],[-9.233292249437739,69.02714374396842],[-9.237182912242645,69.02829942018076],[-9.252775522983427,69.032916104772],[-9.256677000964487,69.0340675372641],[-9.264492027395988,69.03636694332894],[-9.26840241982211,69.03751398981998],[-9.299764002002632,69.0466803340226],[-9.303686771491357,69.04782275830684],[-9.311546439890492,69.05010473702038],[-9.315480169853686,69.05124336924604],[-9.331244888705783,69.05579174671021],[-9.335189307660016,69.05692608790807],[-9.340313194725411,69.05839511249661],[-9.343090114257336,69.05919125866853],[-9.347043311268749,69.06032117498336],[-9.378747116354589,69.06935013305718],[-9.382712557732532,69.07047537263],[-9.390657489890202,69.07272292026155],[-9.394633777243257,69.07384432000191],[-9.410568557662259,69.07832363701539],[-9.414555404453552,69.07944069890408],[-9.422540962439086,69.08167125888178],[-9.426536448785384,69.0827838577001],[-9.45857833250733,69.09167393152421],[-9.462585926207964,69.09278179960683],[-9.47061507976349,69.09499454292501],[-9.474633402111692,69.09609852387433],[-9.490736147309576,69.10050803598853],[-9.494764896606057,69.10160763287956],[-9.502834152124763,69.10380321106211],[-9.506871399699492,69.10489830720869],[-9.53924711821378,69.11364801685883],[-9.54329633215616,69.1147383289296],[-9.55140863968552,69.1169158992262],[-9.555468462158842,69.11800227735819],[-9.571737025243522,69.12234124922017],[-9.575807138947368,69.12342319763334],[-9.583959013124286,69.12558342758268],[-9.588037481595052,69.12666083824834],[-9.594649395250144,69.12840106821523],[-9.620742690355542,69.13526872203613],[-9.624832979869836,69.13634129585611],[-9.633027348994062,69.13848332906221],[-9.637128124267633,69.139551922679],[-9.6535603085552,69.14381962828978],[-9.657671236324973,69.14488374714239],[-9.665904625446103,69.14700826712595],[-9.670023761904076,69.14806781181332],[-9.703054017615159,69.15653242715317],[-9.707184825728689,69.15758708288482],[-9.71041457997515,69.15840908247125],[-9.715460139185495,69.15969321967424],[-9.719601307466121,69.16074384944389],[-9.736194866544565,69.16493957234118],[-9.74034604536348,69.16598568287236],[-9.74865982085322,69.16807413594259],[-9.75281906017915,69.16911563660341],[-9.786169819716633,69.17743556005351],[-9.790854707294955,69.17859946767197],[-9.800240460423879,69.1809229098285],[-9.80493781712687,69.18208157373502],[-9.823761592132257,69.18670704393156],[-9.82847124185838,69.18785991543979],[-9.837904465706401,69.1901607617846],[-9.842624229952662,69.19130780921427],[-9.880473740958507,69.20046725531878],[-9.885562937303916,69.20169326136283],[-9.895759462267392,69.20414009427441],[-9.90086286960917,69.20535997765131],[-9.921315230805362,69.21022856227617],[-9.92643393577788,69.21144199995896],[-9.936687018326552,69.21386308307339],[-9.941819827244785,69.21507035560333],[-9.944857047381618,69.21578203592904],[-9.945926543759015,69.21603249556091],[-9.947709127729581,69.2164497147657],[-9.94877291628302,69.21669855839974],[-9.95971283603916,69.21925347841992],[-9.997169063717195,69.22800104404263],[-10.001611992184564,69.22903418527758],[-10.010513851130895,69.23109715321488],[-10.014968337951188,69.23212594675286],[-10.032818149474451,69.2362335778713],[-10.03888190894952,69.23762233103241],[-10.047346258400637,69.2395518795237],[-10.05102918869187,69.24039144700936],[-10.057111075379567,69.24177143530224],[-10.063521228063223,69.24321932167999],[-10.065122347223507,69.24358050168536],[-10.068326637734401,69.24430243622027],[-10.06992609767417,69.24466235607915],[-10.118752453682816,69.25562447744392],[-10.124861114834403,69.256988373512],[-10.137102088210838,69.25970863226556],[-10.143229463436285,69.26106389397782],[-10.167788981336173,69.26646888592978],[-10.16888628525652,69.26671004850556],[-10.171084738726734,69.26719281064996],[-10.177235283543553,69.26853735388849],[-10.18734873845932,69.27073785853116],[-10.192407824948702,69.27183433870147],[-10.241826193943893,69.28249350696257],[-10.248008543387641,69.28381950046452],[-10.260396544058608,69.28646380843611],[-10.266039564497362,69.28766307659254],[-10.266597198651766,69.28778105257123],[-10.291449081135056,69.2930336651188],[-10.29565288696756,69.2939176420779],[-10.297667772795876,69.29434133259036],[-10.310124937844705,69.29694821217277],[-10.316358378099778,69.29824637385502],[-10.36635421727118,69.30859893638322],[-10.37260843065161,69.30988657265738],[-10.377378032003435,69.31086377749716],[-10.385139798334876,69.31245402269093],[-10.391411897802413,69.31373279711266],[-10.416548779946822,69.31883122646371],[-10.422838450682605,69.32010031297915],[-10.435437169147349,69.3226299089807],[-10.441741126536783,69.32388939926662],[-10.492299517258687,69.333931793387],[-10.498623723736046,69.33518062913132],[-10.49999999973764,69.33545105214827],[-10.511294705295768,69.33767033686331],[-10.51763636862313,69.33891020084553],[-10.543050700667834,69.34385268910066],[-10.549409458036394,69.34508275682228],[-10.557026805849432,69.3465488974241],[-10.56214593503256,69.34753419615612],[-10.56851850864058,69.34875458014653],[-10.619624167820746,69.35848333633695],[-10.62601645072607,69.35969294023843],[-10.638823201529192,69.3621040446663],[-10.645232503135446,69.36330456934428],[-10.67091655285617,69.36808940520194],[-10.677342458887097,69.36928002845065],[-10.69021280867372,69.37165246159196],[-10.696652052571267,69.37283331637533],[-10.701383826511403,69.37369576005457],[-10.748289333752098,69.38224506080766],[-10.75151375698755,69.38283060267503],[-10.757973270549542,69.38400057866426],[-10.761204017551108,69.38458422428269],[-10.774145532931072,69.38691569842621],[-10.777381205078086,69.38749700698162],[-10.783857983958313,69.38865755959901],[-10.787096476103898,69.38923633603389],[-10.813050955137157,69.39386051535067],[-10.8162949399549,69.39443668915118],[-10.822790065340428,69.39558727204448],[-10.826038586443644,69.39616121664636],[-10.839047633241307,69.39845320734975],[-10.842300830018871,69.39902476338219],[-10.848812612311633,69.40016579171845],[-10.852069933380335,69.40073504188882],[-10.85784866682917,69.4017422698011],[-10.860547374661223,69.40221161087734],[-10.86594804288842,69.40314878766259],[-10.868648887635743,69.40361642925504],[-10.879461334072857,69.40548417725319],[-10.88216434450851,69.40595000089212],[-10.887574275631948,69.40688025512009],[-10.890279012803433,69.40734431065809],[-10.911947607030982,69.41105227094641],[-10.914654855336948,69.41151432222844],[-10.920074704938429,69.41243727742597],[-10.922785119090463,69.4128978076599],[-10.93363791955403,69.414737451972],[-10.936350263369718,69.41519612747473],[-10.941778830263218,69.41611207609122],[-10.944491399358071,69.41656873425976],[-10.988006153260926,69.42387104311459],[-10.99344671382886,69.42477918653623],[-11.004343270824847,69.42658983305472],[-11.00979487156502,69.42749160391082],[-11.015310995577522,69.42839965322631],[-11.031633752085725,69.43108666098553],[-11.037095771252552,69.43198146027663],[-11.048032193730307,69.43376489773215],[-11.053502179781447,69.43465281727393],[-11.097350498526339,69.44173193687973],[-11.102832547183851,69.44261217531201],[-11.113811848437706,69.44436693338758],[-11.119304670973463,69.44524074256654],[-11.14130792841786,69.44872378897225],[-11.1468108700588,69.44959057432249],[-11.157828880897796,69.45131791938664],[-11.16333949953031,69.4521777843909],[-11.207511796032122,69.45903201071908],[-11.212287349880825,69.45976934507942],[-11.221851156005755,69.46123991109326],[-11.226635148193111,69.46197248534219],[-11.245796874425878,69.46489388354615],[-11.25058842631438,69.46562119676088],[-11.260180773323782,69.46707117729332],[-11.264977696114158,69.4677932607737],[-11.300321579895268,69.47308739419319],[-11.303423511114687,69.47355203010702],[-11.308576174050756,69.47431981101047],[-11.318894224488531,69.475850336624],[-11.32405563515897,69.47661248957516],[-11.344728378910986,69.47965042462758],[-11.349899215376126,69.48040663126142],[-11.36025111207448,69.48191362251089],[-11.365430594346094,69.48266417511178],[-11.368388383946183,69.48309089053868],[-11.369430234717242,69.48324109829849],[-11.371166748027292,69.4834912992811],[-11.37220404338143,69.48364065988872],[-11.410633822475404,69.48902357174026],[-11.413872769730801,69.48950871602696],[-11.420362252415714,69.49045129858874],[-11.423606874835968,69.49092772512955],[-11.433478305978497,69.49237503118312],[-11.436601413124379,69.49281982147775],[-11.441391865357673,69.4935005811513],[-11.450980259223684,69.49486024161587],[-11.455776910671887,69.49553895944695],[-11.461943913725179,69.49640974394782],[-11.463484282690274,69.49662708581587],[-11.466566434633194,69.49706166862703],[-11.468105577210224,69.49727584710288],[-11.497701710277,69.50133084072766],[-11.506570493932827,69.50250985194822],[-11.511379770703002,69.50314747987326],[-11.520987488781259,69.50459155405704],[-11.525800892396944,69.50524941173117],[-11.54507794049411,69.507871721503],[-11.549897909166305,69.50852431881464],[-11.559546375906905,69.50982486075296],[-11.564370977638077,69.51047228207031],[-11.603033968529587,69.51563319901132],[-11.607866192992901,69.5162748158007],[-11.617541683101763,69.51755372462506],[-11.619539539287928,69.51781726712346],[-11.622381045648353,69.51819049949202],[-11.633494964898432,69.51964586528018],[-11.641761580713933,69.52072837710321],[-11.6466073084801,69.52135986236817],[-11.656307120323618,69.52261814507403],[-11.661157288777304,69.52324443488328],[-11.700024072952033,69.52823601038378],[-11.704881631481669,69.5288564625559],[-11.714607632136222,69.53009299349702],[-11.719472150025524,69.5307085727992],[-11.738952957396066,69.53316156542166],[-11.743823638297954,69.53377182736298],[-11.75357318435465,69.53498762567861],[-11.75844811328949,69.53559267246399],[-11.797512222033447,69.54041401758519],[-11.802394306146141,69.54101319398427],[-11.812169196650643,69.54220712675763],[-11.817058058782038,69.54280139966514],[-11.836635886936222,69.545169069997],[-11.84153070797538,69.54575799913277],[-11.8513283590637,69.5469310969593],[-11.85622723325747,69.54751479297437],[-11.895482129296454,69.55216504548099],[-11.895870400125716,69.55221077520173],[-11.900387920415739,69.55274283939426],[-11.910210062044484,69.55389396063816],[-11.915122447742533,69.55446682158689],[-11.93479401133419,69.55674874605842],[-11.93971215082513,69.55731623772212],[-11.949556261312068,69.5584464241636],[-11.954478257165647,69.55900866501821],[-11.99391733423397,69.56348699361052],[-11.998846006271663,69.56404330160584],[-12.008713742671489,69.56515140487434],[-12.01364882527264,69.56570275149232],[-12.033410804931293,69.56789852173893],[-12.038351431472961,69.56844447333404],[-12.048240338020719,69.56953154684348],[-12.053184624470475,69.57007223094897],[-12.0928012109095,69.57437783290874],[-12.097751928708135,69.57491255487074],[-12.107663589060792,69.57597744208877],[-12.108197435550807,69.5760344926106],[-12.11262053150378,69.57650717519576],[-12.132469575395419,69.57861639727116],[-12.137431851098654,69.57914071117492],[-12.143326606965445,69.57976019639395],[-12.15666666703271,69.578333333117],[-12.407059793434144,69.57946123014548],[-12.67284353223431,69.58065845428905],[-12.925308746892796,69.58179568502734],[-13.266666666562855,69.5833333333926],[-13.62955555589528,69.90955555554606],[-13.185941572856024,70.92339158892293],[-12.767027777609542,71.88077777757252],[-11.474638889273052,72.8228333328922],[-5.02375204121762,74.35920343335212],[-5.007694444542722,74.36302777781003],[-4.972303278373204,74.36015413900259],[-4.908798360755441,74.35489927797983],[-4.845441583062353,74.34953386059965],[-4.782235860895923,74.34405816655124],[-4.719184055899063,74.33847247192708],[-4.65628911065366,74.33277699975889],[-4.593553888600752,74.32697211067472],[-4.53098124958467,74.32105802770585],[-4.468574028268392,74.31503508270319],[-4.40633502783885,74.30890355625414],[-4.344267110838075,74.30266377841093],[-4.282373000413259,74.29631600008341],[-4.220655499751274,74.28986058279966],[-4.159117332898234,74.28329780624884],[-4.097761277860343,74.27662805624018],[-4.036590000227989,74.26985158278475],[-3.975606167390367,74.26296875010814],[-3.914812527675565,74.2559799170399],[-3.854211666634797,74.2488853893496],[-3.793806221979025,74.24168552766523],[-3.73359880623957,74.23438069441369],[-3.673592028349105,74.22697122234439],[-3.613788444181012,74.21945747208488],[-3.554190582628848,74.21183983304212],[-3.494800999566166,74.20411866674308],[-3.435622167228814,74.19629430593795],[-3.376656556054911,74.18836716701145],[-3.317906667058651,74.18033763937069],[-3.259374943698276,74.17220605576512],[-3.201063750291382,74.16397286135853],[-3.142975499719171,74.15563844375961],[-3.085112556299009,74.1472031671926],[-3.027477305932507,74.13866747232612],[-2.970072028400807,74.1300317215869],[-2.91289902776748,74.1212963610385],[-2.855960610793204,74.1124618061678],[-2.799259027581741,74.10352844368305],[-2.742796500357827,74.0944967223461],[-2.686575221668761,74.08536708282492],[-2.63059741733673,74.07613991722363],[-2.574865193573373,74.06681566710967],[-2.51938072224209,74.05739477764706],[-2.464146139232582,74.04787772187996],[-2.409163500394811,74.0382648892134],[-2.35443486067993,74.02855674999438],[-2.299962305615622,74.01875375028558],[-2.245747805616418,74.00885636133219],[-2.191793388653593,73.99886502829867],[-2.138100999960784,73.9887802224296],[-2.084672610852039,73.97860241676858],[-2.031510110802571,73.96833202770148],[-1.978615417167418,73.95796961100919],[-1.92599038884498,73.94751558307797],[-1.873636861351599,73.93697041695143],[-1.821556693586103,73.92633463873295],[-1.76975163922657,73.91560869358665],[-1.718223528392798,73.90479308333445],[-1.666974028428172,73.89388827832187],[-1.616004944272447,73.88289483343038],[-1.565317917187826,73.87181316684442],[-1.514914638799212,73.86064383344635],[-1.464796750369374,73.8493873062796],[-1.414965888664426,73.83804411144675],[-1.365423667068171,73.82661474987111],[-1.31617161083085,73.81509969369611],[-1.267211306356387,73.80349952838088],[-1.218544277995704,73.79181469369365],[-1.170172027616672,73.78004577779086],[-1.122096000429678,73.7681932222396],[-1.074317666826516,73.75625763857934],[-1.02683847201763,73.74423947197434],[-0.979659806354562,73.73213930608438],[-0.932782999935057,73.71995763913392],[-0.886209471889174,73.70769502780348],[-0.839940528032514,73.69535197211607],[-0.793977443603808,73.68292902785265],[-0.748321528015651,73.67042674989511],[-0.702974055607854,73.6578456670444],[-0.657936193700039,73.64518630630337],[-0.613209194148624,73.63244922165453],[-0.568794221575672,73.61963497157711],[-0.524692444200582,73.60674408307327],[-0.480904999665626,73.59377713890402],[-0.437433000432065,73.58073463909284],[-0.394277499606659,73.56761719427857],[-0.351439582670281,73.55442533326274],[-0.308920278447602,73.54115961092754],[-0.266720639145888,73.527820583054],[-0.224841610851342,73.51440883330127],[-0.183284166630642,73.50092491655198],[-0.142049277751767,73.4873693885867],[-0.101137860623226,73.47374280608594],[-0.060550777695823,73.46004572213266],[-0.020288943579658,73.44627877794375],[-0.000011459155559,73.43925334187193],[-1.248935e-9,73.43924937210991],[0.000011459156326,73.43924540148225],[0.019646806255594,73.4324424438642],[0.059255639036877,73.41853736111071],[0.098536749871613,73.40456408276646],[0.137489360845876,73.3905231942901],[0.176112694045941,73.37641524966423],[0.214406028216217,73.36224080556897],[0.252368610623165,73.34800049962388],[0.289999806346344,73.33369486062986],[0.32729888873331,73.31932447224668],[0.364265221962711,73.30488994421589],[0.400898193596987,73.29039180623718],[0.437197193895713,73.27583069413143],[0.473161611319597,73.26120716727729],[0.508790917067472,73.2465218057373],[0.544084528378818,73.23177519407005],[0.57904194433064,73.21696794381603],[0.613662638819989,73.2021005828758],[0.647946166682573,73.18717377764804],[0.681892055774227,73.17218802815518],[0.715499888809148,73.1571439998961],[0.748769193643682,73.14204222167172],[0.781699582670228,73.12688333289992],[0.814290722239463,73.11166788936185],[0.846542222046168,73.0963964998987],[0.878453722361996,73.08106972209004],[0.910024944396184,73.06568819355542],[0.941255556299268,73.05025247187433],[0.97214530626124,73.03476316678706],[1.00269388941183,73.01922088893338],[1.03290111059826,73.00362616711405],[1.062127028439903,72.98831722196249],[1.06801855641163,72.98520816672382],[1.097539416810918,72.96951069376377],[1.126718333384815,72.95376261055631],[1.155555166737912,72.9379644998622],[1.184049749596852,72.92211694444171],[1.212201917384846,72.9062205279553],[1.240011610747558,72.89027588892131],[1.267478721765997,72.87428355614148],[1.294603138924202,72.85824419421468],[1.321384805564776,72.84215833284094],[1.34782372168786,72.8260266114392],[1.373919833334128,72.80984961097141],[1.399673110825574,72.79362791689513],[1.425083582941625,72.77736211107305],[1.45015127755974,72.76105280594246],[1.474876221660651,72.74470061124441],[1.499258471901243,72.72830608275976],[1.523298111019358,72.7118698329266],[1.546995221752326,72.69539247238492],[1.570349888636912,72.67887455601618],[1.593362278047152,72.66231672233894],[1.616032471821626,72.64571950015514],[1.638360666911467,72.62908352798286],[1.660347000014298,72.61240938858265],[1.681991639303192,72.59569766741359],[1.703294832990423,72.57894894363895],[1.72425672227007,72.56216383329448],[1.744877611113196,72.54534288856385],[1.765157666793215,72.528486749764],[1.785097167200831,72.51159594389793],[1.804696389327319,72.49467111128288],[1.823955638941953,72.47771283288154],[1.842875139076767,72.46072166717164],[1.861455278238935,72.44369819421644],[1.873152778078804,72.43276666674868],[1.87969630643974,72.42664302825338],[1.897598611287179,72.40955675024387],[1.899319027851163,72.40789591736296],[1.911638861244768,72.39598269444608],[1.929147611073944,72.37886191664438],[1.946318582736808,72.36171124987459],[1.963152167438977,72.34453130567525],[1.979648777969032,72.3273226389289],[1.995808806431597,72.31008583329506],[2.011632638635888,72.29282150031247],[2.027120722443897,72.27553019396359],[2.042273500322466,72.25821249970721],[2.057091417435259,72.24086897242532],[2.071574889270011,72.22350022185793],[2.085724443728452,72.20610680558497],[2.099540555652482,72.1886893333467],[2.113023693589099,72.17124830606474],[2.126174361158064,72.15378436135953],[2.138993082664911,72.13629805591091],[2.151480416588328,72.11878994370147],[2.163636833273785,72.10126061108866],[2.17546294425992,72.08371061115622],[2.186959278348439,72.06614052756373],[2.1981263886222,72.04855091699159],[2.208964889318679,72.03094238918007],[2.219475332620959,72.01331544415291],[2.229658332766093,71.99567066736782],[2.239514528273133,71.97800863888773],[2.249044472225251,71.96032991719244],[2.258248832817713,71.94263502838419],[2.267128221590582,71.92492458310304],[2.275683305840062,71.90719911105057],[2.283914722286994,71.8894591940869],[2.291823139126876,71.87170536101371],[2.299409249737437,71.85393816671339],[2.306673666557145,71.83615816696621],[2.313617166599187,71.8183659436337],[2.320240361403791,71.8005620003361],[2.326544000105855,71.78274691713705],[2.332528805760006,71.76492124981615],[2.338195471744029,71.74708552807468],[2.343544722011728,71.72924030589562],[2.348577305698399,71.71138613905944],[2.353293944060511,71.69352352758895],[2.35769541681077,71.67565308302375],[2.361782472183677,71.65777527840669],[2.365555861114501,71.63989069380096],[2.369016360616996,71.62199986070542],[2.372164778282325,71.60410333310261],[2.375001832668858,71.58620161101604],[2.377528361045336,71.56829522234696],[2.379745167405844,71.55038474985662],[2.381653027865525,71.53247069356775],[2.383252777893773,71.5145536110605],[2.384545222384418,71.49663397178068],[2.385531167130182,71.47871236118675],[2.386211471882518,71.46078927840296],[2.386586944232363,71.44286525043123],[2.38665844393239,71.42494080607383],[2.386426805552873,71.40701647233266],[2.385892888846229,71.38909275013057],[2.385057556261501,71.37117019434905],[2.383921638772989,71.3532492780322],[2.382486027608479,71.33533055606046],[2.380751583419396,71.31741449967996],[2.37871919383619,71.2995016673681],[2.376389722208415,71.28159252767313],[2.37376408314617,71.2636876111946],[2.370843139100145,71.24578744403559],[2.367627832558696,71.22789252801797],[2.364118999892412,71.21000333258809],[2.36031758269084,71.1921204171239],[2.356224500061046,71.17424422229328]]}}]}