{"type":"FeatureCollection","features":[{"type":"Feature","geometry":{"type":"Point","coordinates":[2.825646592000055,60.49134963800003]},"properties":{"id":"271245","name":"OSEBERG A","kind":"CONDEEP 4 SHAFTS","phase":"IN SERVICE","fixedOrMoveable":"FIXED","operator":"Equinor Energy AS","belongsTo":"OSEBERG","functions":"DRILLING - PROCESSING - QUARTER","status":null,"waterDepthM":109,"updated":"2026-02-19T23:00:00.000Z","factPageUrl":"https://factpages.sodir.no/facility/pageview/fixed/all/271245","surface":"Y","source":"sodir-factmaps"}},{"type":"Feature","geometry":{"type":"Point","coordinates":[1.8521389100000647,61.25518686800007]},"properties":{"id":"271273","name":"STATFJORD A","kind":"CONDEEP 3 SHAFTS","phase":"IN SERVICE","fixedOrMoveable":"FIXED","operator":"Equinor Energy AS","belongsTo":"STATFJORD","functions":"DRILLING - PROCESSING - QUARTER - STORAGE","status":null,"waterDepthM":145,"updated":"2026-02-19T23:00:00.000Z","factPageUrl":"https://factpages.sodir.no/facility/pageview/fixed/all/271273","surface":"Y","source":"sodir-factmaps"}},{"type":"Feature","geometry":{"type":"Point","coordinates":[1.8289019310000754,61.20641246300005]},"properties":{"id":"271301","name":"STATFJORD B","kind":"CONDEEP 4 SHAFTS","phase":"IN SERVICE","fixedOrMoveable":"FIXED","operator":"Equinor Energy AS","belongsTo":"STATFJORD","functions":"DRILLING - PROCESSING - QUARTER - STORAGE","status":null,"waterDepthM":145,"updated":"2026-02-19T23:00:00.000Z","factPageUrl":"https://factpages.sodir.no/facility/pageview/fixed/all/271301","surface":"Y","source":"sodir-factmaps"}},{"type":"Feature","geometry":{"type":"Point","coordinates":[1.9008103740000593,61.29608908300003]},"properties":{"id":"271329","name":"STATFJORD C","kind":"CONDEEP 4 SHAFTS","phase":"IN SERVICE","fixedOrMoveable":"FIXED","operator":"Equinor Energy AS","belongsTo":"STATFJORD","functions":"DRILLING - PROCESSING - QUARTER - STORAGE","status":null,"waterDepthM":145,"updated":"2026-02-19T23:00:00.000Z","factPageUrl":"https://factpages.sodir.no/facility/pageview/fixed/all/271329","surface":"Y","source":"sodir-factmaps"}},{"type":"Feature","geometry":{"type":"Point","coordinates":[3.2022036150000304,56.56469688700008]},"properties":{"id":"271413","name":"EKOFISK B","kind":"JACKET 12 LEGS","phase":"IN SERVICE","fixedOrMoveable":"FIXED","operator":"ConocoPhillips Skandinavia AS","belongsTo":"EKOFISK","functions":"DRILLING - OIL PRODUCER - PROCESSING - WELLHEAD","status":null,"waterDepthM":74,"updated":"2026-02-19T23:00:00.000Z","factPageUrl":"https://factpages.sodir.no/facility/pageview/fixed/all/271413","surface":"Y","source":"sodir-factmaps"}},{"type":"Feature","geometry":{"type":"Point","coordinates":[3.214032398000029,56.54718530200006]},"properties":{"id":"271441","name":"EKOFISK C","kind":"JACKET 12 LEGS","phase":"SHUT DOWN","fixedOrMoveable":"FIXED","operator":"ConocoPhillips Skandinavia AS","belongsTo":"EKOFISK","functions":"DRILLING - OIL PRODUCER","status":null,"waterDepthM":76.8,"updated":"2026-06-02T22:00:00.000Z","factPageUrl":"https://factpages.sodir.no/facility/pageview/fixed/all/271441","surface":"Y","source":"sodir-factmaps"}},{"type":"Feature","geometry":{"type":"Point","coordinates":[3.2046203630000605,56.56514693100007]},"properties":{"id":"271469","name":"EKOFISK K","kind":"JACKET 8 LEGS","phase":"IN SERVICE","fixedOrMoveable":"FIXED","operator":"ConocoPhillips Skandinavia AS","belongsTo":"EKOFISK","functions":"DRILLING - QUARTER - WATER INJECTION","status":null,"waterDepthM":74,"updated":"2026-02-19T23:00:00.000Z","factPageUrl":"https://factpages.sodir.no/facility/pageview/fixed/all/271469","surface":"Y","source":"sodir-factmaps"}},{"type":"Feature","geometry":{"type":"Point","coordinates":[3.264326302000029,56.376218718000075]},"properties":{"id":"271581","name":"ELDFISK A","kind":"JACKET 12 LEGS","phase":"IN SERVICE","fixedOrMoveable":"FIXED","operator":"ConocoPhillips Skandinavia AS","belongsTo":"ELDFISK","functions":"DRILLING - OIL PRODUCER - PROCESSING - QUARTER","status":null,"waterDepthM":71,"updated":"2026-02-19T23:00:00.000Z","factPageUrl":"https://factpages.sodir.no/facility/pageview/fixed/all/271581","surface":"Y","source":"sodir-factmaps"}},{"type":"Feature","geometry":{"type":"Point","coordinates":[3.2169150370000352,56.41866967400006]},"properties":{"id":"271609","name":"ELDFISK B","kind":"JACKET 12 LEGS","phase":"IN SERVICE","fixedOrMoveable":"FIXED","operator":"ConocoPhillips Skandinavia AS","belongsTo":"ELDFISK","functions":"DRILLING - OIL PRODUCER - PROCESSING - QUARTER","status":null,"waterDepthM":71,"updated":"2026-02-19T23:00:00.000Z","factPageUrl":"https://factpages.sodir.no/facility/pageview/fixed/all/271609","surface":"Y","source":"sodir-factmaps"}},{"type":"Feature","geometry":{"type":"Point","coordinates":[2.844467166000072,57.11044004000007]},"properties":{"id":"271665","name":"ULA QP","kind":"JACKET 4 LEGS","phase":"IN SERVICE","fixedOrMoveable":"FIXED","operator":"Aker BP ASA","belongsTo":"ULA","functions":"QUARTER","status":null,"waterDepthM":71,"updated":"2026-02-19T23:00:00.000Z","factPageUrl":"https://factpages.sodir.no/facility/pageview/fixed/all/271665","surface":"Y","source":"sodir-factmaps"}},{"type":"Feature","geometry":{"type":"Point","coordinates":[3.393861255000047,56.27750002100004]},"properties":{"id":"271749","name":"VALHALL DP","kind":"JACKET 8 LEGS","phase":"PARTLY REMOVED","fixedOrMoveable":"FIXED","operator":"Aker BP ASA","belongsTo":"VALHALL","functions":"DRILLING","status":null,"waterDepthM":74,"updated":"2026-02-19T23:00:00.000Z","factPageUrl":"https://factpages.sodir.no/facility/pageview/fixed/all/271749","surface":"Y","source":"sodir-factmaps"}},{"type":"Feature","geometry":{"type":"Point","coordinates":[2.2271654240000203,59.57360430400007]},"properties":{"id":"271777","name":"HEIMDAL","kind":"JACKET 8 LEGS","phase":"PARTLY REMOVED","fixedOrMoveable":"FIXED","operator":"Aker BP ASA","belongsTo":"HEIMDAL","functions":"DISTRIBUTION - DRILLING - OIL PRODUCER - PROCESSING - QUARTER - WELLHEAD","status":null,"waterDepthM":120,"updated":"2026-07-07T22:00:00.000Z","factPageUrl":"https://factpages.sodir.no/facility/pageview/fixed/all/271777","surface":"Y","source":"sodir-factmaps"}},{"type":"Feature","geometry":{"type":"Point","coordinates":[2.1874282640000615,61.17561021200004]},"properties":{"id":"271833","name":"GULLFAKS A","kind":"CONDEEP 4 SHAFTS","phase":"IN SERVICE","fixedOrMoveable":"FIXED","operator":"Equinor Energy AS","belongsTo":"GULLFAKS","functions":"DRILLING - OIL PRODUCER - PROCESSING - QUARTER - STORAGE","status":null,"waterDepthM":133,"updated":"2026-02-19T23:00:00.000Z","factPageUrl":"https://factpages.sodir.no/facility/pageview/fixed/all/271833","surface":"Y","source":"sodir-factmaps"}},{"type":"Feature","geometry":{"type":"Point","coordinates":[2.0601294700000494,59.874741537000034]},"properties":{"id":"271861","name":"10/1-CDP1","kind":"CONCRETE STRUCTURE","phase":"PARTLY REMOVED","fixedOrMoveable":"FIXED","operator":null,"belongsTo":null,"functions":"DRILLING","status":null,"waterDepthM":100,"updated":"2026-02-19T23:00:00.000Z","factPageUrl":"https://factpages.sodir.no/facility/pageview/fixed/all/271861","surface":"Y","source":"sodir-factmaps"}},{"type":"Feature","geometry":{"type":"Point","coordinates":[2.8458144880000305,57.11079006800003]},"properties":{"id":"271889","name":"ULA DP","kind":"JACKET 4 LEGS","phase":"IN SERVICE","fixedOrMoveable":"FIXED","operator":"Aker BP ASA","belongsTo":"ULA","functions":"DRILLING","status":null,"waterDepthM":71,"updated":"2026-02-19T23:00:00.000Z","factPageUrl":"https://factpages.sodir.no/facility/pageview/fixed/all/271889","surface":"Y","source":"sodir-factmaps"}},{"type":"Feature","geometry":{"type":"Point","coordinates":[2.1995772050000255,61.20242251500008]},"properties":{"id":"271917","name":"GULLFAKS B","kind":"CONDEEP 4 SHAFTS","phase":"IN SERVICE","fixedOrMoveable":"FIXED","operator":"Equinor Energy AS","belongsTo":"GULLFAKS","functions":"DRILLING - OIL PRODUCER - PROCESSING - QUARTER - STORAGE","status":null,"waterDepthM":141,"updated":"2026-02-19T23:00:00.000Z","factPageUrl":"https://factpages.sodir.no/facility/pageview/fixed/all/271917","surface":"Y","source":"sodir-factmaps"}},{"type":"Feature","geometry":{"type":"Point","coordinates":[2.4712208700000247,58.188263687000074]},"properties":{"id":"271945","name":"DRAUPNER S","kind":"JACKET 4 LEGS","phase":"IN SERVICE","fixedOrMoveable":"FIXED","operator":"Gassco AS","belongsTo":"GASSLED","functions":"QUARTER - RISER","status":null,"waterDepthM":70,"updated":"2026-02-19T23:00:00.000Z","factPageUrl":"https://factpages.sodir.no/facility/pageview/fixed/all/271945","surface":"Y","source":"sodir-factmaps"}},{"type":"Feature","geometry":{"type":"Point","coordinates":[2.847053309000046,57.11111509400007]},"properties":{"id":"272029","name":"ULA PP","kind":"JACKET 4 LEGS","phase":"IN SERVICE","fixedOrMoveable":"FIXED","operator":"Aker BP ASA","belongsTo":"ULA","functions":"PROCESSING","status":null,"waterDepthM":71,"updated":"2026-02-19T23:00:00.000Z","factPageUrl":"https://factpages.sodir.no/facility/pageview/fixed/all/272029","surface":"Y","source":"sodir-factmaps"}},{"type":"Feature","geometry":{"type":"Point","coordinates":[3.264456849000055,56.37505747900008]},"properties":{"id":"272057","name":"ELDFISK FTP","kind":"JACKET 8 LEGS","phase":"IN SERVICE","fixedOrMoveable":"FIXED","operator":"ConocoPhillips Skandinavia AS","belongsTo":"ELDFISK","functions":"PROCESSING","status":null,"waterDepthM":76.8,"updated":"2026-02-19T23:00:00.000Z","factPageUrl":"https://factpages.sodir.no/facility/pageview/fixed/all/272057","surface":"Y","source":"sodir-factmaps"}},{"type":"Feature","geometry":{"type":"Point","coordinates":[2.142606633000071,61.44885091300006]},"properties":{"id":"272085","name":"SNORRE A","kind":"TLP STEEL","phase":"IN SERVICE","fixedOrMoveable":"FIXED","operator":"Equinor Energy AS","belongsTo":"SNORRE","functions":"DRILLING - PROCESSING - QUARTER","status":null,"waterDepthM":335,"updated":"2026-02-19T23:00:00.000Z","factPageUrl":"https://factpages.sodir.no/facility/pageview/fixed/all/272085","surface":"Y","source":"sodir-factmaps"}},{"type":"Feature","geometry":{"type":"Point","coordinates":[3.211096155000064,56.54888532800004]},"properties":{"id":"272141","name":"EKOFISK T","kind":"DORIS","phase":"ABANDONED IN PLACE","fixedOrMoveable":"FIXED","operator":"ConocoPhillips Skandinavia AS","belongsTo":"EKOFISK","functions":null,"status":null,"waterDepthM":76.8,"updated":"2026-02-19T23:00:00.000Z","factPageUrl":"https://factpages.sodir.no/facility/pageview/fixed/all/272141","surface":"Y","source":"sodir-factmaps"}},{"type":"Feature","geometry":{"type":"Point","coordinates":[2.773922495000022,60.60782853300003]},"properties":{"id":"272225","name":"OSEBERG C","kind":"JACKET 8 LEGS","phase":"IN SERVICE","fixedOrMoveable":"FIXED","operator":"Equinor Energy AS","belongsTo":"OSEBERG","functions":"DRILLING - PROCESSING - QUARTER","status":null,"waterDepthM":108,"updated":"2026-02-19T23:00:00.000Z","factPageUrl":"https://factpages.sodir.no/facility/pageview/fixed/all/272225","surface":"Y","source":"sodir-factmaps"}},{"type":"Feature","geometry":{"type":"Point","coordinates":[1.9070197190000613,58.36670798300008]},"properties":{"id":"272365","name":"SLEIPNER A","kind":"CONDEEP 4 SHAFTS","phase":"IN SERVICE","fixedOrMoveable":"FIXED","operator":"Equinor Energy AS","belongsTo":"SLEIPNER ØST","functions":"DRILLING - PROCESSING - QUARTER","status":null,"waterDepthM":83,"updated":"2026-02-19T23:00:00.000Z","factPageUrl":"https://factpages.sodir.no/facility/pageview/fixed/all/272365","surface":"Y","source":"sodir-factmaps"}},{"type":"Feature","geometry":{"type":"Point","coordinates":[7.780889531000071,64.35287294700004]},"properties":{"id":"272393","name":"DRAUGEN","kind":"CONDEEP MONOSHAFT","phase":"IN SERVICE","fixedOrMoveable":"FIXED","operator":"OKEA ASA","belongsTo":"DRAUGEN","functions":"DRILLING - PROCESSING - QUARTER - STORAGE","status":null,"waterDepthM":252,"updated":"2026-02-19T23:00:00.000Z","factPageUrl":"https://factpages.sodir.no/facility/pageview/fixed/all/272393","surface":"Y","source":"sodir-factmaps"}},{"type":"Feature","geometry":{"type":"Point","coordinates":[7.315704836000066,65.32556999000008]},"properties":{"id":"272421","name":"HEIDRUN","kind":"TLP CONCRETE","phase":"IN SERVICE","fixedOrMoveable":"FIXED","operator":"Equinor Energy AS","belongsTo":"HEIDRUN","functions":"DRILLING - OIL PRODUCER - PROCESSING - QUARTER","status":null,"waterDepthM":345,"updated":"2026-02-19T23:00:00.000Z","factPageUrl":"https://factpages.sodir.no/facility/pageview/fixed/all/272421","surface":"Y","source":"sodir-factmaps"}},{"type":"Feature","geometry":{"type":"Point","coordinates":[2.064876573000049,59.87957508000005]},"properties":{"id":"272561","name":"FRIGG TCP2","kind":"CONDEEP 3 SHAFTS","phase":"ABANDONED IN PLACE","fixedOrMoveable":"FIXED","operator":"Aker BP ASA","belongsTo":"FRIGG","functions":"PROCESSING","status":null,"waterDepthM":102,"updated":"2026-02-19T23:00:00.000Z","factPageUrl":"https://factpages.sodir.no/facility/pageview/fixed/all/272561","surface":"Y","source":"sodir-factmaps"}},{"type":"Feature","geometry":{"type":"Point","coordinates":[2.27214815800005,61.21445158700004]},"properties":{"id":"272645","name":"GULLFAKS C","kind":"CONDEEP 4 SHAFTS","phase":"IN SERVICE","fixedOrMoveable":"FIXED","operator":"Equinor Energy AS","belongsTo":"GULLFAKS","functions":"DRILLING - OIL PRODUCER - PROCESSING - QUARTER - STORAGE","status":null,"waterDepthM":216,"updated":"2026-02-19T23:00:00.000Z","factPageUrl":"https://factpages.sodir.no/facility/pageview/fixed/all/272645","surface":"Y","source":"sodir-factmaps"}},{"type":"Feature","geometry":{"type":"Point","coordinates":[2.826585446000024,60.49282470700007]},"properties":{"id":"272897","name":"OSEBERG B","kind":"JACKET 8 LEGS","phase":"IN SERVICE","fixedOrMoveable":"FIXED","operator":"Equinor Energy AS","belongsTo":"OSEBERG","functions":"DRILLING","status":null,"waterDepthM":108,"updated":"2026-02-19T23:00:00.000Z","factPageUrl":"https://factpages.sodir.no/facility/pageview/fixed/all/272897","surface":"Y","source":"sodir-factmaps"}},{"type":"Feature","geometry":{"type":"Point","coordinates":[1.2803240320000668,58.69188178600007]},"properties":{"id":"273877","name":"BRAE A","kind":"JACKET 8 LEGS","phase":"IN SERVICE","fixedOrMoveable":"FIXED","operator":"Bridge Petroleum 3 Limited","belongsTo":"ENOCH","functions":"OIL PRODUCER - PROCESSING - QUARTER","status":null,"waterDepthM":111.862,"updated":"2026-02-19T23:00:00.000Z","factPageUrl":"https://factpages.sodir.no/facility/pageview/fixed/all/273877","surface":"Y","source":"sodir-factmaps"}},{"type":"Feature","geometry":{"type":"Point","coordinates":[2.8961784230000376,60.782203518000074]},"properties":{"id":"277321","name":"VESLEFRIKK A","kind":"JACKET 4 LEGS","phase":"PARTLY REMOVED","fixedOrMoveable":"FIXED","operator":"Equinor Energy AS","belongsTo":"VESLEFRIKK","functions":"DRILLING","status":null,"waterDepthM":174,"updated":"2026-02-19T23:00:00.000Z","factPageUrl":"https://factpages.sodir.no/facility/pageview/fixed/all/277321","surface":"Y","source":"sodir-factmaps"}},{"type":"Feature","geometry":{"type":"Point","coordinates":[3.2467885690000458,56.33256697100006]},"properties":{"id":"277377","name":"EMBLA","kind":"JACKET 4 LEGS","phase":"IN SERVICE","fixedOrMoveable":"FIXED","operator":"ConocoPhillips Skandinavia AS","belongsTo":"EMBLA","functions":"ACCOMMODATION - OIL PRODUCER - PROCESSING - WELLHEAD","status":null,"waterDepthM":70.2,"updated":"2026-02-19T23:00:00.000Z","factPageUrl":"https://factpages.sodir.no/facility/pageview/fixed/all/277377","surface":"Y","source":"sodir-factmaps"}},{"type":"Feature","geometry":{"type":"Point","coordinates":[3.0451339260000623,60.54204867300007]},"properties":{"id":"277405","name":"BRAGE","kind":"JACKET 8 LEGS","phase":"IN SERVICE","fixedOrMoveable":"FIXED","operator":"OKEA ASA","belongsTo":"BRAGE","functions":"DRILLING - PROCESSING - QUARTER","status":null,"waterDepthM":136,"updated":"2026-02-19T23:00:00.000Z","factPageUrl":"https://factpages.sodir.no/facility/pageview/fixed/all/277405","surface":"Y","source":"sodir-factmaps"}},{"type":"Feature","geometry":{"type":"Point","coordinates":[2.933544826000059,60.69999236600006]},"properties":{"id":"277489","name":"OSEBERG ØST","kind":"JACKET 4 LEGS","phase":"IN SERVICE","fixedOrMoveable":"FIXED","operator":"Equinor Energy AS","belongsTo":"OSEBERG ØST","functions":"DRILLING - PROCESSING - QUARTER","status":null,"waterDepthM":157,"updated":"2026-02-19T23:00:00.000Z","factPageUrl":"https://factpages.sodir.no/facility/pageview/fixed/all/277489","surface":"Y","source":"sodir-factmaps"}},{"type":"Feature","geometry":{"type":"Point","coordinates":[1.7162955320000606,58.41729643900004]},"properties":{"id":"277601","name":"SLEIPNER B","kind":"JACKET 4 LEGS","phase":"IN SERVICE","fixedOrMoveable":"FIXED","operator":"Equinor Energy AS","belongsTo":"SLEIPNER VEST","functions":"WELLHEAD","status":null,"waterDepthM":107.6,"updated":"2026-02-19T23:00:00.000Z","factPageUrl":"https://factpages.sodir.no/facility/pageview/fixed/all/277601","surface":"Y","source":"sodir-factmaps"}},{"type":"Feature","geometry":{"type":"Point","coordinates":[1.904886303000069,58.367999705000045]},"properties":{"id":"277629","name":"SLEIPNER T","kind":"JACKET 6 LEGS","phase":"IN SERVICE","fixedOrMoveable":"FIXED","operator":"Equinor Energy AS","belongsTo":"SLEIPNER VEST","functions":"PROCESSING","status":null,"waterDepthM":82.5,"updated":"2026-02-19T23:00:00.000Z","factPageUrl":"https://factpages.sodir.no/facility/pageview/fixed/all/277629","surface":"Y","source":"sodir-factmaps"}},{"type":"Feature","geometry":{"type":"Point","coordinates":[2.4571927850000748,61.36967118800004]},"properties":{"id":"277685","name":"VISUND","kind":"SEMISUB STEEL","phase":"IN SERVICE","fixedOrMoveable":"FIXED","operator":"Equinor Energy AS","belongsTo":"VISUND","functions":"DRILLING - PROCESSING - QUARTER","status":null,"waterDepthM":335,"updated":"2026-02-19T23:00:00.000Z","factPageUrl":"https://factpages.sodir.no/facility/pageview/fixed/all/277685","surface":"Y","source":"sodir-factmaps"}},{"type":"Feature","geometry":{"type":"Point","coordinates":[7.199789975000044,64.27067952000004]},"properties":{"id":"277713","name":"NJORD A","kind":"SEMISUB STEEL","phase":"IN SERVICE","fixedOrMoveable":"FIXED","operator":"Equinor Energy AS","belongsTo":"NJORD","functions":"DRILLING - OIL PRODUCER - PROCESSING - QUARTER","status":null,"waterDepthM":330,"updated":"2026-02-19T23:00:00.000Z","factPageUrl":"https://factpages.sodir.no/facility/pageview/fixed/all/277713","surface":"Y","source":"sodir-factmaps"}},{"type":"Feature","geometry":{"type":"Point","coordinates":[1.9089364170000636,58.36795805200006]},"properties":{"id":"277797","name":"SLEIPNER R","kind":"JACKET 4 LEGS","phase":"IN SERVICE","fixedOrMoveable":"FIXED","operator":"Equinor Energy AS","belongsTo":"SLEIPNER ØST","functions":"RISER","status":null,"waterDepthM":83,"updated":"2026-02-19T23:00:00.000Z","factPageUrl":"https://factpages.sodir.no/facility/pageview/fixed/all/277797","surface":"Y","source":"sodir-factmaps"}},{"type":"Feature","geometry":{"type":"Point","coordinates":[3.219799177000027,56.54654364600003]},"properties":{"id":"277937","name":"EKOFISK J","kind":"JACKET 8 LEGS","phase":"IN SERVICE","fixedOrMoveable":"FIXED","operator":"ConocoPhillips Skandinavia AS","belongsTo":"EKOFISK","functions":"OIL PRODUCER - PROCESSING","status":null,"waterDepthM":76.8,"updated":"2026-02-19T23:00:00.000Z","factPageUrl":"https://factpages.sodir.no/facility/pageview/fixed/all/277937","surface":"Y","source":"sodir-factmaps"}},{"type":"Feature","geometry":{"type":"Point","coordinates":[3.5015194870000528,60.77387992900003]},"properties":{"id":"278273","name":"TROLL B","kind":"SEMISUB CONCRETE","phase":"IN SERVICE","fixedOrMoveable":"FIXED","operator":"Equinor Energy AS","belongsTo":"TROLL","functions":"PROCESSING - QUARTER","status":null,"waterDepthM":320,"updated":"2026-02-19T23:00:00.000Z","factPageUrl":"https://factpages.sodir.no/facility/pageview/fixed/all/278273","surface":"Y","source":"sodir-factmaps"}},{"type":"Feature","geometry":{"type":"Point","coordinates":[3.7248465280000573,60.64514148300003]},"properties":{"id":"278329","name":"TROLL A","kind":"CONDEEP 4 SHAFTS","phase":"IN SERVICE","fixedOrMoveable":"FIXED","operator":"Equinor Energy AS","belongsTo":"TROLL","functions":"DRILLING - PROCESSING - QUARTER","status":null,"waterDepthM":302,"updated":"2026-02-19T23:00:00.000Z","factPageUrl":"https://factpages.sodir.no/facility/pageview/fixed/all/278329","surface":"Y","source":"sodir-factmaps"}},{"type":"Feature","geometry":{"type":"Point","coordinates":[2.4711013180000236,58.18938602700007]},"properties":{"id":"278357","name":"DRAUPNER E","kind":"JACKET 4 LEGS","phase":"IN SERVICE","fixedOrMoveable":"FIXED","operator":null,"belongsTo":null,"functions":"RISER","status":null,"waterDepthM":69.3,"updated":"2026-02-19T23:00:00.000Z","factPageUrl":"https://factpages.sodir.no/facility/pageview/fixed/all/278357","surface":"Y","source":"sodir-factmaps"}},{"type":"Feature","geometry":{"type":"Point","coordinates":[3.3949085430000423,56.27590547700004]},"properties":{"id":"278385","name":"VALHALL WP","kind":"JACKET 4 LEGS","phase":"IN SERVICE","fixedOrMoveable":"FIXED","operator":"Aker BP ASA","belongsTo":"VALHALL","functions":"WELLHEAD","status":null,"waterDepthM":74,"updated":"2026-02-19T23:00:00.000Z","factPageUrl":"https://factpages.sodir.no/facility/pageview/fixed/all/278385","surface":"Y","source":"sodir-factmaps"}},{"type":"Feature","geometry":{"type":"Point","coordinates":[3.217460198000026,56.54698253400005]},"properties":{"id":"278525","name":"EKOFISK X","kind":"JACKET 4 LEGS","phase":"IN SERVICE","fixedOrMoveable":"FIXED","operator":"ConocoPhillips Skandinavia AS","belongsTo":"EKOFISK","functions":"DRILLING","status":null,"waterDepthM":76.8,"updated":"2026-02-19T23:00:00.000Z","factPageUrl":"https://factpages.sodir.no/facility/pageview/fixed/all/278525","surface":"Y","source":"sodir-factmaps"}},{"type":"Feature","geometry":{"type":"Point","coordinates":[2.4003245120000543,59.24582179400005]},"properties":{"id":"279393","name":"JOTUN FPSO","kind":"FPSO","phase":"IN SERVICE","fixedOrMoveable":"FIXED","operator":"Vår Energi ASA","belongsTo":"BALDER","functions":"OFFLOADING - OIL PRODUCER - PROCESSING - QUARTER - STORAGE","status":null,"waterDepthM":126,"updated":"2026-08-20T22:00:00.000Z","factPageUrl":"https://factpages.sodir.no/facility/pageview/fixed/all/279393","surface":"Y","source":"sodir-factmaps"}},{"type":"Feature","geometry":{"type":"Point","coordinates":[3.609780934000071,60.88583281700005]},"properties":{"id":"279421","name":"TROLL C","kind":"SEMISUB STEEL","phase":"IN SERVICE","fixedOrMoveable":"FIXED","operator":"Equinor Energy AS","belongsTo":"TROLL","functions":"PROCESSING - QUARTER","status":null,"waterDepthM":339,"updated":"2026-02-19T23:00:00.000Z","factPageUrl":"https://factpages.sodir.no/facility/pageview/fixed/all/279421","surface":"Y","source":"sodir-factmaps"}},{"type":"Feature","geometry":{"type":"Point","coordinates":[7.251350177000063,64.27175235900006]},"properties":{"id":"279561","name":"NJORD BRAVO","kind":"FSU","phase":"IN SERVICE","fixedOrMoveable":"FIXED","operator":"Equinor Energy AS","belongsTo":"NJORD","functions":"OFFLOADING - STORAGE","status":null,"waterDepthM":330,"updated":"2026-02-19T23:00:00.000Z","factPageUrl":"https://factpages.sodir.no/facility/pageview/fixed/all/279561","surface":"Y","source":"sodir-factmaps"}},{"type":"Feature","geometry":{"type":"Point","coordinates":[8.086545126000033,66.02706746000007]},"properties":{"id":"279589","name":"NORNE FPSO","kind":"FPSO","phase":"IN SERVICE","fixedOrMoveable":"FIXED","operator":"Equinor Energy AS","belongsTo":"NORNE","functions":"OFFLOADING - PROCESSING - QUARTER - STORAGE","status":null,"waterDepthM":378,"updated":"2026-02-19T23:00:00.000Z","factPageUrl":"https://factpages.sodir.no/facility/pageview/fixed/all/279589","surface":"Y","source":"sodir-factmaps"}},{"type":"Feature","geometry":{"type":"Point","coordinates":[6.725644479000039,65.06413535500008]},"properties":{"id":"279785","name":"ÅSGARD A","kind":"FPSO","phase":"IN SERVICE","fixedOrMoveable":"FIXED","operator":"Equinor Energy AS","belongsTo":"ÅSGARD","functions":"OFFLOADING - PROCESSING - QUARTER - STORAGE","status":null,"waterDepthM":315,"updated":"2026-02-19T23:00:00.000Z","factPageUrl":"https://factpages.sodir.no/facility/pageview/fixed/all/279785","surface":"Y","source":"sodir-factmaps"}},{"type":"Feature","geometry":{"type":"Point","coordinates":[2.3857989230000385,59.19103625100007]},"properties":{"id":"279841","name":"BALDER FPU","kind":"FPSO","phase":"IN SERVICE","fixedOrMoveable":"FIXED","operator":"Vår Energi ASA","belongsTo":"BALDER","functions":"OFFLOADING - OIL PRODUCER - PROCESSING - QUARTER - STORAGE","status":null,"waterDepthM":127,"updated":"2026-02-19T23:00:00.000Z","factPageUrl":"https://factpages.sodir.no/facility/pageview/fixed/all/279841","surface":"Y","source":"sodir-factmaps"}},{"type":"Feature","geometry":{"type":"Point","coordinates":[3.2637291530000425,56.37442414800006]},"properties":{"id":"280093","name":"ELDFISK E","kind":"JACKET 4 LEGS","phase":"IN SERVICE","fixedOrMoveable":"FIXED","operator":"ConocoPhillips Skandinavia AS","belongsTo":"ELDFISK","functions":"WATER INJECTION","status":null,"waterDepthM":72,"updated":"2026-02-19T23:00:00.000Z","factPageUrl":"https://factpages.sodir.no/facility/pageview/fixed/all/280093","surface":"Y","source":"sodir-factmaps"}},{"type":"Feature","geometry":{"type":"Point","coordinates":[6.789385512000024,65.11009355700003]},"properties":{"id":"280121","name":"ÅSGARD B","kind":"SEMISUB STEEL","phase":"IN SERVICE","fixedOrMoveable":"FIXED","operator":"Equinor Energy AS","belongsTo":"ÅSGARD","functions":"GAS EXPORT - PROCESSING - QUARTER","status":null,"waterDepthM":300,"updated":"2026-02-19T23:00:00.000Z","factPageUrl":"https://factpages.sodir.no/facility/pageview/fixed/all/280121","surface":"Y","source":"sodir-factmaps"}},{"type":"Feature","geometry":{"type":"Point","coordinates":[6.863986898000064,65.13109252500004]},"properties":{"id":"280149","name":"ÅSGARD C","kind":"FSU","phase":"IN SERVICE","fixedOrMoveable":"FIXED","operator":"Equinor Energy AS","belongsTo":"ÅSGARD","functions":"OFFLOADING - STORAGE","status":null,"waterDepthM":290,"updated":"2026-02-19T23:00:00.000Z","factPageUrl":"https://factpages.sodir.no/facility/pageview/fixed/all/280149","surface":"Y","source":"sodir-factmaps"}},{"type":"Feature","geometry":{"type":"Point","coordinates":[2.7952979550000236,60.38965362700003]},"properties":{"id":"280205","name":"OSEBERG SØR","kind":"JACKET 6 LEGS","phase":"IN SERVICE","fixedOrMoveable":"FIXED","operator":"Equinor Energy AS","belongsTo":"OSEBERG SØR","functions":"DRILLING - PROCESSING - QUARTER","status":null,"waterDepthM":101,"updated":"2026-02-19T23:00:00.000Z","factPageUrl":"https://factpages.sodir.no/facility/pageview/fixed/all/280205","surface":"Y","source":"sodir-factmaps"}},{"type":"Feature","geometry":{"type":"Point","coordinates":[2.2097657390000336,61.52495755500007]},"properties":{"id":"280485","name":"SNORRE B","kind":"SEMISUB STEEL","phase":"IN SERVICE","fixedOrMoveable":"FIXED","operator":"Equinor Energy AS","belongsTo":"SNORRE","functions":"DRILLING - PROCESSING - QUARTER","status":null,"waterDepthM":350,"updated":"2026-02-19T23:00:00.000Z","factPageUrl":"https://factpages.sodir.no/facility/pageview/fixed/all/280485","surface":"Y","source":"sodir-factmaps"}},{"type":"Feature","geometry":{"type":"Point","coordinates":[2.827318901000069,60.49015241200004]},"properties":{"id":"280541","name":"OSEBERG D","kind":"JACKET 4 LEGS","phase":"IN SERVICE","fixedOrMoveable":"FIXED","operator":"Equinor Energy AS","belongsTo":"OSEBERG","functions":"PROCESSING","status":null,"waterDepthM":109,"updated":"2026-02-19T23:00:00.000Z","factPageUrl":"https://factpages.sodir.no/facility/pageview/fixed/all/280541","surface":"Y","source":"sodir-factmaps"}},{"type":"Feature","geometry":{"type":"Point","coordinates":[2.9572725830000763,56.98211174900007]},"properties":{"id":"280793","name":"TAMBAR","kind":"JACKET TRIPOD","phase":"IN SERVICE","fixedOrMoveable":"FIXED","operator":"Aker BP ASA","belongsTo":"TAMBAR","functions":"WELLHEAD","status":null,"waterDepthM":70,"updated":"2026-02-19T23:00:00.000Z","factPageUrl":"https://factpages.sodir.no/facility/pageview/fixed/all/280793","surface":"Y","source":"sodir-factmaps"}},{"type":"Feature","geometry":{"type":"Point","coordinates":[2.4482388730000366,59.26549251700004]},"properties":{"id":"280849","name":"RINGHORNE","kind":"JACKET 4 LEGS","phase":"IN SERVICE","fixedOrMoveable":"FIXED","operator":"Vår Energi ASA","belongsTo":"BALDER","functions":"DRILLING - PROCESSING - QUARTER","status":null,"waterDepthM":128.5,"updated":"2026-02-19T23:00:00.000Z","factPageUrl":"https://factpages.sodir.no/facility/pageview/fixed/all/280849","surface":"Y","source":"sodir-factmaps"}},{"type":"Feature","geometry":{"type":"Point","coordinates":[2.4980121050000434,61.07981028800003]},"properties":{"id":"280877","name":"KVITEBJØRN","kind":"JACKET 4 LEGS","phase":"IN SERVICE","fixedOrMoveable":"FIXED","operator":"Equinor Energy AS","belongsTo":"KVITEBJØRN","functions":"DRILLING - PROCESSING - QUARTER","status":null,"waterDepthM":190,"updated":"2026-02-19T23:00:00.000Z","factPageUrl":"https://factpages.sodir.no/facility/pageview/fixed/all/280877","surface":"Y","source":"sodir-factmaps"}},{"type":"Feature","geometry":{"type":"Point","coordinates":[3.4359280530000547,56.22704592300005]},"properties":{"id":"280961","name":"VALHALL FLANKE SØR","kind":"JACKET 4 LEGS","phase":"IN SERVICE","fixedOrMoveable":"FIXED","operator":"Aker BP ASA","belongsTo":"VALHALL","functions":"WELLHEAD","status":null,"waterDepthM":66.7,"updated":"2026-02-19T23:00:00.000Z","factPageUrl":"https://factpages.sodir.no/facility/pageview/fixed/all/280961","surface":"Y","source":"sodir-factmaps"}},{"type":"Feature","geometry":{"type":"Point","coordinates":[3.2130323520000275,56.547696408000036]},"properties":{"id":"281157","name":"EKOFISK BS3","kind":"JACKET TRIPOD","phase":"IN SERVICE","fixedOrMoveable":"FIXED","operator":"ConocoPhillips Skandinavia AS","belongsTo":"EKOFISK","functions":null,"status":null,"waterDepthM":72,"updated":"2026-02-19T23:00:00.000Z","factPageUrl":"https://factpages.sodir.no/facility/pageview/fixed/all/281157","surface":"Y","source":"sodir-factmaps"}},{"type":"Feature","geometry":{"type":"Point","coordinates":[3.2150851340000486,56.54699640700005]},"properties":{"id":"281353","name":"EKOFISK X-BS","kind":"JACKET TRIPOD","phase":"IN SERVICE","fixedOrMoveable":"FIXED","operator":"ConocoPhillips Skandinavia AS","belongsTo":"EKOFISK","functions":null,"status":null,"waterDepthM":76,"updated":"2026-02-19T23:00:00.000Z","factPageUrl":"https://factpages.sodir.no/facility/pageview/fixed/all/281353","surface":"Y","source":"sodir-factmaps"}},{"type":"Feature","geometry":{"type":"Point","coordinates":[1.9105808260000572,58.368797003000054]},"properties":{"id":"282305","name":"SLEIPNER FL","kind":"JACKET TRIPOD","phase":"IN SERVICE","fixedOrMoveable":"FIXED","operator":"Equinor Energy AS","belongsTo":"SLEIPNER ØST","functions":"FLARE STACK","status":null,"waterDepthM":83,"updated":"2026-02-19T23:00:00.000Z","factPageUrl":"https://factpages.sodir.no/facility/pageview/fixed/all/282305","surface":"Y","source":"sodir-factmaps"}},{"type":"Feature","geometry":{"type":"Point","coordinates":[3.394869644000039,56.27585277400004]},"properties":{"id":"282529","name":"VALHALL IP","kind":"JACKET 4 LEGS","phase":"IN SERVICE","fixedOrMoveable":"FIXED","operator":"Aker BP ASA","belongsTo":"VALHALL","functions":"DRILLING - WATER INJECTION","status":null,"waterDepthM":74,"updated":"2026-02-19T23:00:00.000Z","factPageUrl":"https://factpages.sodir.no/facility/pageview/fixed/all/282529","surface":"Y","source":"sodir-factmaps"}},{"type":"Feature","geometry":{"type":"Point","coordinates":[3.211096155000064,56.54888532800004]},"properties":{"id":"282669","name":"EKOFISK T WALL","kind":"CONCRETE STRUCTURE","phase":"ABANDONED IN PLACE","fixedOrMoveable":"FIXED","operator":"ConocoPhillips Skandinavia AS","belongsTo":"EKOFISK","functions":null,"status":null,"waterDepthM":76.8,"updated":"2026-02-19T23:00:00.000Z","factPageUrl":"https://factpages.sodir.no/facility/pageview/fixed/all/282669","surface":"Y","source":"sodir-factmaps"}},{"type":"Feature","geometry":{"type":"Point","coordinates":[2.4857751840000333,59.16466976700008]},"properties":{"id":"283285","name":"GRANE","kind":"JACKET 8 LEGS","phase":"IN SERVICE","fixedOrMoveable":"FIXED","operator":"Equinor Energy AS","belongsTo":"GRANE","functions":"DRILLING - OIL PRODUCER - PROCESSING - QUARTER","status":null,"waterDepthM":127,"updated":"2026-02-19T23:00:00.000Z","factPageUrl":"https://factpages.sodir.no/facility/pageview/fixed/all/283285","surface":"Y","source":"sodir-factmaps"}},{"type":"Feature","geometry":{"type":"Point","coordinates":[3.2179679060000694,56.41757794700004]},"properties":{"id":"286029","name":"ELDFISK B-FL","kind":"JACKET TRIPOD","phase":"IN SERVICE","fixedOrMoveable":"FIXED","operator":"ConocoPhillips Skandinavia AS","belongsTo":"ELDFISK","functions":"FLARE STACK","status":null,"waterDepthM":70,"updated":"2026-02-19T23:00:00.000Z","factPageUrl":"https://factpages.sodir.no/facility/pageview/fixed/all/286029","surface":"Y","source":"sodir-factmaps"}},{"type":"Feature","geometry":{"type":"Point","coordinates":[-1.2970821309999678,54.62505701400005]},"properties":{"id":"286113","name":"TEESSIDE","kind":"ONSHORE FACILITY","phase":"IN SERVICE","fixedOrMoveable":"FIXED","operator":"ConocoPhillips (U.K.) Limited.","belongsTo":"NORPIPE OLJE-ANLEGG","functions":"LANDFALL - PROCESSING","status":null,"waterDepthM":0,"updated":"2026-02-19T23:00:00.000Z","factPageUrl":"https://factpages.sodir.no/facility/pageview/fixed/all/286113","surface":"Y","source":"sodir-factmaps"}},{"type":"Feature","geometry":{"type":"Point","coordinates":[7.21761351400005,53.376220069000055]},"properties":{"id":"286141","name":"EMDEN","kind":"ONSHORE FACILITY","phase":"IN SERVICE","fixedOrMoveable":"FIXED","operator":"Gassco AS","belongsTo":"GASSLED","functions":"LANDFALL - PROCESSING","status":null,"waterDepthM":0,"updated":"2026-02-19T23:00:00.000Z","factPageUrl":"https://factpages.sodir.no/facility/pageview/fixed/all/286141","surface":"Y","source":"sodir-factmaps"}},{"type":"Feature","geometry":{"type":"Point","coordinates":[5.519828592000067,59.27283172400007]},"properties":{"id":"286169","name":"KÅRSTØ","kind":"ONSHORE FACILITY","phase":"IN SERVICE","fixedOrMoveable":"FIXED","operator":"Gassco AS","belongsTo":"GASSLED","functions":"LANDFALL - PROCESSING","status":null,"waterDepthM":0,"updated":"2026-02-19T23:00:00.000Z","factPageUrl":"https://factpages.sodir.no/facility/pageview/fixed/all/286169","surface":"Y","source":"sodir-factmaps"}},{"type":"Feature","geometry":{"type":"Point","coordinates":[5.193605082000033,59.33286637700007]},"properties":{"id":"286197","name":"KALSTØ","kind":"ONSHORE FACILITY","phase":"IN SERVICE","fixedOrMoveable":"FIXED","operator":"Gassco AS","belongsTo":"STATPIPE","functions":"LANDFALL","status":null,"waterDepthM":0,"updated":"2026-02-19T23:00:00.000Z","factPageUrl":"https://factpages.sodir.no/facility/pageview/fixed/all/286197","surface":"Y","source":"sodir-factmaps"}},{"type":"Feature","geometry":{"type":"Point","coordinates":[-1.8516575349999584,57.552648290000036]},"properties":{"id":"286225","name":"ST.FERGUS","kind":"ONSHORE FACILITY","phase":"IN SERVICE","fixedOrMoveable":"FIXED","operator":null,"belongsTo":null,"functions":"LANDFALL - PROCESSING","status":null,"waterDepthM":0,"updated":"2026-02-19T23:00:00.000Z","factPageUrl":"https://factpages.sodir.no/facility/pageview/fixed/all/286225","surface":"Y","source":"sodir-factmaps"}},{"type":"Feature","geometry":{"type":"Point","coordinates":[4.849498955000058,60.62062605700004]},"properties":{"id":"286253","name":"STURE","kind":"ONSHORE FACILITY","phase":"IN SERVICE","fixedOrMoveable":"FIXED","operator":"Equinor Energy AS","belongsTo":"OSEBERG TRANSPORTSYSTEM","functions":"LANDFALL - PROCESSING","status":null,"waterDepthM":0,"updated":"2026-02-19T23:00:00.000Z","factPageUrl":"https://factpages.sodir.no/facility/pageview/fixed/all/286253","surface":"Y","source":"sodir-factmaps"}},{"type":"Feature","geometry":{"type":"Point","coordinates":[3.176183864000052,51.33944826600003]},"properties":{"id":"286281","name":"ZEEBRUGGE","kind":"ONSHORE FACILITY","phase":"IN SERVICE","fixedOrMoveable":"FIXED","operator":"Gassco AS","belongsTo":"ZEEPIPE TERMINAL","functions":"LANDFALL - PROCESSING","status":null,"waterDepthM":0,"updated":"2026-02-19T23:00:00.000Z","factPageUrl":"https://factpages.sodir.no/facility/pageview/fixed/all/286281","surface":"Y","source":"sodir-factmaps"}},{"type":"Feature","geometry":{"type":"Point","coordinates":[8.653318224000031,63.39432322600004]},"properties":{"id":"286309","name":"TJELDBERGODDEN","kind":"ONSHORE FACILITY","phase":"IN SERVICE","fixedOrMoveable":"FIXED","operator":"Equinor Energy AS","belongsTo":"TJELDBERGODDEN","functions":"LANDFALL - PROCESSING","status":null,"waterDepthM":0,"updated":"2026-02-19T23:00:00.000Z","factPageUrl":"https://factpages.sodir.no/facility/pageview/fixed/all/286309","surface":"Y","source":"sodir-factmaps"}},{"type":"Feature","geometry":{"type":"Point","coordinates":[3.176461671000027,51.33944826900006]},"properties":{"id":"286337","name":"ZEEPIPE TERMINAL","kind":"ONSHORE FACILITY","phase":"IN SERVICE","fixedOrMoveable":"FIXED","operator":null,"belongsTo":null,"functions":"LANDFALL - PROCESSING","status":null,"waterDepthM":0,"updated":"2026-02-19T23:00:00.000Z","factPageUrl":"https://factpages.sodir.no/facility/pageview/fixed/all/286337","surface":"Y","source":"sodir-factmaps"}},{"type":"Feature","geometry":{"type":"Point","coordinates":[5.0351397750000615,60.814316430000076]},"properties":{"id":"286701","name":"MONGSTAD","kind":"ONSHORE FACILITY","phase":"IN SERVICE","fixedOrMoveable":"FIXED","operator":"Equinor Energy AS","belongsTo":"MONGSTAD TERMINAL","functions":"LANDFALL - PROCESSING","status":null,"waterDepthM":0,"updated":"2026-02-19T23:00:00.000Z","factPageUrl":"https://factpages.sodir.no/facility/pageview/fixed/all/286701","surface":"Y","source":"sodir-factmaps"}},{"type":"Feature","geometry":{"type":"Point","coordinates":[4.843794004000074,60.54784264400007]},"properties":{"id":"286729","name":"KOLLSNES","kind":"ONSHORE FACILITY","phase":"IN SERVICE","fixedOrMoveable":"FIXED","operator":"Gassco AS","belongsTo":"GASSLED","functions":"LANDFALL - PROCESSING","status":null,"waterDepthM":0,"updated":"2026-02-19T23:00:00.000Z","factPageUrl":"https://factpages.sodir.no/facility/pageview/fixed/all/286729","surface":"Y","source":"sodir-factmaps"}},{"type":"Feature","geometry":{"type":"Point","coordinates":[2.460616949000041,51.04359253400003]},"properties":{"id":"286757","name":"DUNKERQUE","kind":"ONSHORE FACILITY","phase":"IN SERVICE","fixedOrMoveable":"FIXED","operator":"Gassco AS","belongsTo":"GASSLED","functions":"LANDFALL - PROCESSING","status":null,"waterDepthM":0,"updated":"2026-02-19T23:00:00.000Z","factPageUrl":"https://factpages.sodir.no/facility/pageview/fixed/all/286757","surface":"Y","source":"sodir-factmaps"}},{"type":"Feature","geometry":{"type":"Point","coordinates":[7.251350177000063,64.27175235900006]},"properties":{"id":"287737","name":"NJORD STL","kind":"LOADING SYSTEM","phase":"IN SERVICE","fixedOrMoveable":"FIXED","operator":"Equinor Energy AS","belongsTo":"NJORD","functions":null,"status":null,"waterDepthM":100.5,"updated":"2026-02-19T23:00:00.000Z","factPageUrl":"https://factpages.sodir.no/facility/pageview/fixed/all/287737","surface":"Y","source":"sodir-factmaps"}},{"type":"Feature","geometry":{"type":"Point","coordinates":[3.3511694910000642,56.32369836200007]},"properties":{"id":"361248","name":"VALHALL FLANKE NORD","kind":"JACKET 4 LEGS","phase":"IN SERVICE","fixedOrMoveable":"FIXED","operator":"Aker BP ASA","belongsTo":"VALHALL","functions":"WELLHEAD","status":null,"waterDepthM":69,"updated":"2026-02-19T23:00:00.000Z","factPageUrl":"https://factpages.sodir.no/facility/pageview/fixed/all/361248","surface":"Y","source":"sodir-factmaps"}},{"type":"Feature","geometry":{"type":"Point","coordinates":[10.529610555000033,59.31798218800003]},"properties":{"id":"363404","name":"SLAGENTANGEN","kind":"ONSHORE FACILITY","phase":"SHUT DOWN","fixedOrMoveable":"FIXED","operator":null,"belongsTo":null,"functions":"PROCESSING","status":null,"waterDepthM":0,"updated":"2026-06-02T22:00:00.000Z","factPageUrl":"https://factpages.sodir.no/facility/pageview/fixed/all/363404","surface":"Y","source":"sodir-factmaps"}},{"type":"Feature","geometry":{"type":"Point","coordinates":[23.598049221000053,70.68758378500007]},"properties":{"id":"363441","name":"MELKØYA","kind":"ONSHORE FACILITY","phase":"IN SERVICE","fixedOrMoveable":"FIXED","operator":"Equinor Energy AS","belongsTo":"MELKØYA LANDANLEGG","functions":"LANDFALL - PROCESSING","status":null,"waterDepthM":0,"updated":"2026-02-19T23:00:00.000Z","factPageUrl":"https://factpages.sodir.no/facility/pageview/fixed/all/363441","surface":"Y","source":"sodir-factmaps"}},{"type":"Feature","geometry":{"type":"Point","coordinates":[3.2215603940000506,56.54472140200005]},"properties":{"id":"364198","name":"EKOFISK M","kind":"JACKET 4 LEGS","phase":"IN SERVICE","fixedOrMoveable":"FIXED","operator":"ConocoPhillips Skandinavia AS","belongsTo":"EKOFISK","functions":"OIL PRODUCER - PROCESSING - WELLHEAD","status":null,"waterDepthM":78.4,"updated":"2026-02-19T23:00:00.000Z","factPageUrl":"https://factpages.sodir.no/facility/pageview/fixed/all/364198","surface":"Y","source":"sodir-factmaps"}},{"type":"Feature","geometry":{"type":"Point","coordinates":[3.2215603940000506,56.54472140200005]},"properties":{"id":"364234","name":"EKOFISK M-BS","kind":"JACKET TRIPOD","phase":"IN SERVICE","fixedOrMoveable":"FIXED","operator":"ConocoPhillips Skandinavia AS","belongsTo":"EKOFISK","functions":null,"status":null,"waterDepthM":78.4,"updated":"2026-02-19T23:00:00.000Z","factPageUrl":"https://factpages.sodir.no/facility/pageview/fixed/all/364234","surface":"Y","source":"sodir-factmaps"}},{"type":"Feature","geometry":{"type":"Point","coordinates":[6.952041455000028,62.84742304100007]},"properties":{"id":"364693","name":"NYHAMNA","kind":"ONSHORE FACILITY","phase":"IN SERVICE","fixedOrMoveable":"FIXED","operator":"Gassco AS","belongsTo":"NYHAMNA LANDANLEGG","functions":"LANDFALL - PROCESSING","status":null,"waterDepthM":0,"updated":"2026-02-19T23:00:00.000Z","factPageUrl":"https://factpages.sodir.no/facility/pageview/fixed/all/364693","surface":"Y","source":"sodir-factmaps"}},{"type":"Feature","geometry":{"type":"Point","coordinates":[5.30322656900006,59.298633030000076]},"properties":{"id":"365267","name":"BYGNES","kind":"ONSHORE FACILITY","phase":"IN SERVICE","fixedOrMoveable":"FIXED","operator":null,"belongsTo":null,"functions":"LANDFALL","status":null,"waterDepthM":0,"updated":"2026-02-19T23:00:00.000Z","factPageUrl":"https://factpages.sodir.no/facility/pageview/fixed/all/365267","surface":"Y","source":"sodir-factmaps"}},{"type":"Feature","geometry":{"type":"Point","coordinates":[6.549539909000032,64.99366919000005]},"properties":{"id":"368635","name":"KRISTIN","kind":"SEMISUB STEEL","phase":"IN SERVICE","fixedOrMoveable":"FIXED","operator":"Equinor Energy AS","belongsTo":"KRISTIN","functions":"GAS PRODUCER - OIL PRODUCER - PROCESSING - QUARTER","status":null,"waterDepthM":360,"updated":"2026-02-19T23:00:00.000Z","factPageUrl":"https://factpages.sodir.no/facility/pageview/fixed/all/368635","surface":"Y","source":"sodir-factmaps"}},{"type":"Feature","geometry":{"type":"Point","coordinates":[4.532530331000032,57.814710270000035]},"properties":{"id":"369304","name":"INSPIRER","kind":"JACK-UP 3 LEGS","phase":"IN SERVICE","fixedOrMoveable":"FIXED","operator":"Repsol Norge AS","belongsTo":"YME","functions":"DRILLING - PROCESSING - QUARTER","status":"AOC OK","waterDepthM":90,"updated":"2026-02-19T23:00:00.000Z","factPageUrl":"https://factpages.sodir.no/facility/pageview/fixed/all/369304","surface":"Y","source":"sodir-factmaps"}},{"type":"Feature","geometry":{"type":"Point","coordinates":[0.15409772700002122,53.64087557800008]},"properties":{"id":"369424","name":"EASINGTON","kind":"ONSHORE FACILITY","phase":"IN SERVICE","fixedOrMoveable":"FIXED","operator":"Gassco AS","belongsTo":"LANGELED","functions":"TERMINAL","status":null,"waterDepthM":0,"updated":"2026-02-19T23:00:00.000Z","factPageUrl":"https://factpages.sodir.no/facility/pageview/fixed/all/369424","surface":"Y","source":"sodir-factmaps"}},{"type":"Feature","geometry":{"type":"Point","coordinates":[1.7391556750000632,61.396246605000044]},"properties":{"id":"372759","name":"MURCHISON A","kind":"JACKET 12 LEGS","phase":"SHUT DOWN","fixedOrMoveable":"FIXED","operator":null,"belongsTo":null,"functions":"DRILLING - OIL PRODUCER - QUARTER","status":null,"waterDepthM":156,"updated":"2026-06-02T22:00:00.000Z","factPageUrl":"https://factpages.sodir.no/facility/pageview/fixed/all/372759","surface":"Y","source":"sodir-factmaps"}},{"type":"Feature","geometry":{"type":"Point","coordinates":[1.7335256740000204,60.80960136400006]},"properties":{"id":"372850","name":"ALWYN NORTH B","kind":"JACKET 8 LEGS","phase":"IN SERVICE","fixedOrMoveable":"FIXED","operator":null,"belongsTo":null,"functions":"PROCESSING","status":null,"waterDepthM":126,"updated":"2026-02-19T23:00:00.000Z","factPageUrl":"https://factpages.sodir.no/facility/pageview/fixed/all/372850","surface":"Y","source":"sodir-factmaps"}},{"type":"Feature","geometry":{"type":"Point","coordinates":[1.9968035320000581,59.56695683700008]},"properties":{"id":"375206","name":"ALVHEIM FPSO","kind":"FPSO","phase":"IN SERVICE","fixedOrMoveable":"FIXED","operator":"Aker BP ASA","belongsTo":"ALVHEIM","functions":"OFFLOADING - OIL PRODUCER - PROCESSING - QUARTER - STORAGE","status":"AOC CANCELLED","waterDepthM":125,"updated":"2026-02-19T23:00:00.000Z","factPageUrl":"https://factpages.sodir.no/facility/pageview/fixed/all/375206","surface":"Y","source":"sodir-factmaps"}},{"type":"Feature","geometry":{"type":"Point","coordinates":[5.519828592000067,59.27283172400007]},"properties":{"id":"377181","name":"NATURKRAFT","kind":"ONSHORE FACILITY","phase":"IN SERVICE","fixedOrMoveable":"FIXED","operator":null,"belongsTo":null,"functions":"GAS POWER PLANT","status":null,"waterDepthM":0,"updated":"2026-02-19T23:00:00.000Z","factPageUrl":"https://factpages.sodir.no/facility/pageview/fixed/all/377181","surface":"Y","source":"sodir-factmaps"}},{"type":"Feature","geometry":{"type":"Point","coordinates":[1.8443329410000615,57.95681435100005]},"properties":{"id":"378185","name":"ARMADA","kind":"JACKET 4 LEGS","phase":"IN SERVICE","fixedOrMoveable":"FIXED","operator":null,"belongsTo":null,"functions":"PROCESSING - QUARTER","status":null,"waterDepthM":110,"updated":"2026-02-19T23:00:00.000Z","factPageUrl":"https://factpages.sodir.no/facility/pageview/fixed/all/378185","surface":"Y","source":"sodir-factmaps"}},{"type":"Feature","geometry":{"type":"Point","coordinates":[4.533938639000041,57.81549361500004]},"properties":{"id":"403167","name":"YME WHM","kind":"MOPUStor","phase":"IN SERVICE","fixedOrMoveable":"FIXED","operator":"Repsol Norge AS","belongsTo":"YME","functions":"OFFLOADING - STORAGE - WELLHEAD","status":null,"waterDepthM":93,"updated":"2026-02-19T23:00:00.000Z","factPageUrl":"https://factpages.sodir.no/facility/pageview/fixed/all/403167","surface":"Y","source":"sodir-factmaps"}},{"type":"Feature","geometry":{"type":"Point","coordinates":[-2.762017440999955,56.48793245500008]},"properties":{"id":"403588","name":"BRAEFOOT BAY","kind":"ONSHORE FACILITY","phase":"IN SERVICE","fixedOrMoveable":"FIXED","operator":null,"belongsTo":null,"functions":"LANDFALL - PROCESSING","status":null,"waterDepthM":0,"updated":"2026-02-19T23:00:00.000Z","factPageUrl":"https://factpages.sodir.no/facility/pageview/fixed/all/403588","surface":"Y","source":"sodir-factmaps"}},{"type":"Feature","geometry":{"type":"Point","coordinates":[3.3941113600000676,56.27485823000006]},"properties":{"id":"406276","name":"VALHALL PH","kind":"JACKET 4 LEGS","phase":"IN SERVICE","fixedOrMoveable":"FIXED","operator":"Aker BP ASA","belongsTo":"VALHALL","functions":"PROCESSING - QUARTER","status":null,"waterDepthM":74,"updated":"2026-02-19T23:00:00.000Z","factPageUrl":"https://factpages.sodir.no/facility/pageview/fixed/all/406276","surface":"Y","source":"sodir-factmaps"}},{"type":"Feature","geometry":{"type":"Point","coordinates":[3.895141830000057,61.33189552300007]},"properties":{"id":"406672","name":"GJØA","kind":"SEMISUB STEEL","phase":"IN SERVICE","fixedOrMoveable":"FIXED","operator":"Vår Energi ASA","belongsTo":"GJØA","functions":"PROCESSING - QUARTER","status":null,"waterDepthM":360,"updated":"2026-02-19T23:00:00.000Z","factPageUrl":"https://factpages.sodir.no/facility/pageview/fixed/all/406672","surface":"Y","source":"sodir-factmaps"}},{"type":"Feature","geometry":{"type":"Point","coordinates":[5.037078913000073,60.808655130000034]},"properties":{"id":"409313","name":"ENERGIVERK MONGSTAD","kind":"ONSHORE FACILITY","phase":"IN SERVICE","fixedOrMoveable":"FIXED","operator":null,"belongsTo":null,"functions":"GAS POWER PLANT","status":null,"waterDepthM":0,"updated":"2026-02-19T23:00:00.000Z","factPageUrl":"https://factpages.sodir.no/facility/pageview/fixed/all/409313","surface":"Y","source":"sodir-factmaps"}},{"type":"Feature","geometry":{"type":"Point","coordinates":[6.624618101000067,58.177036043000044]},"properties":{"id":"410491","name":"LISTA","kind":"LANDFALL","phase":"IN SERVICE","fixedOrMoveable":"FIXED","operator":null,"belongsTo":null,"functions":null,"status":null,"waterDepthM":0,"updated":"2026-02-19T23:00:00.000Z","factPageUrl":"https://factpages.sodir.no/facility/pageview/fixed/all/410491","surface":"Y","source":"sodir-factmaps"}},{"type":"Feature","geometry":{"type":"Point","coordinates":[1.7421021060000612,58.84463202900008]},"properties":{"id":"410651","name":"GUDRUN","kind":"JACKET 4 LEGS","phase":"IN SERVICE","fixedOrMoveable":"FIXED","operator":"Equinor Energy AS","belongsTo":"GUDRUN","functions":"GAS PRODUCER - OIL PRODUCER - QUARTER - SEPARATION - WELLHEAD","status":null,"waterDepthM":109,"updated":"2026-02-19T23:00:00.000Z","factPageUrl":"https://factpages.sodir.no/facility/pageview/fixed/all/410651","surface":"Y","source":"sodir-factmaps"}},{"type":"Feature","geometry":{"type":"Point","coordinates":[22.250985786000058,71.31119160500003]},"properties":{"id":"410887","name":"GOLIAT FPSO","kind":"FPSO","phase":"IN SERVICE","fixedOrMoveable":"FIXED","operator":"Vår Energi ASA","belongsTo":"GOLIAT","functions":"OFFLOADING - OIL PRODUCER - PROCESSING - QUARTER","status":null,"waterDepthM":371,"updated":"2026-02-19T23:00:00.000Z","factPageUrl":"https://factpages.sodir.no/facility/pageview/fixed/all/410887","surface":"Y","source":"sodir-factmaps"}},{"type":"Feature","geometry":{"type":"Point","coordinates":[7.649278610000067,65.69753430600008]},"properties":{"id":"414071","name":"SKARV FPSO","kind":"FPSO","phase":"IN SERVICE","fixedOrMoveable":"FIXED","operator":"Aker BP ASA","belongsTo":"SKARV","functions":"OFFLOADING - PROCESSING - QUARTER - STORAGE","status":null,"waterDepthM":368,"updated":"2026-02-19T23:00:00.000Z","factPageUrl":"https://factpages.sodir.no/facility/pageview/fixed/all/414071","surface":"Y","source":"sodir-factmaps"}},{"type":"Feature","geometry":{"type":"Point","coordinates":[3.89317148300006,50.35553727100006]},"properties":{"id":"416127","name":"BLAREGNIES","kind":"ONSHORE FACILITY","phase":"IN SERVICE","fixedOrMoveable":"FIXED","operator":null,"belongsTo":null,"functions":"LANDFALL - PROCESSING","status":null,"waterDepthM":0,"updated":"2026-02-19T23:00:00.000Z","factPageUrl":"https://factpages.sodir.no/facility/pageview/fixed/all/416127","surface":"Y","source":"sodir-factmaps"}},{"type":"Feature","geometry":{"type":"Point","coordinates":[-1.3530722509999578,54.625053628000046]},"properties":{"id":"416189","name":"CATS","kind":"ONSHORE FACILITY","phase":"IN SERVICE","fixedOrMoveable":"FIXED","operator":null,"belongsTo":null,"functions":"LANDFALL - PROCESSING","status":null,"waterDepthM":0,"updated":"2026-02-19T23:00:00.000Z","factPageUrl":"https://factpages.sodir.no/facility/pageview/fixed/all/416189","surface":"Y","source":"sodir-factmaps"}},{"type":"Feature","geometry":{"type":"Point","coordinates":[0.9321573810000245,43.015594932000056]},"properties":{"id":"416247","name":"COL DE LARRAU","kind":"ONSHORE FACILITY","phase":"IN SERVICE","fixedOrMoveable":"FIXED","operator":null,"belongsTo":null,"functions":"LANDFALL - PROCESSING","status":null,"waterDepthM":0,"updated":"2026-02-19T23:00:00.000Z","factPageUrl":"https://factpages.sodir.no/facility/pageview/fixed/all/416247","surface":"Y","source":"sodir-factmaps"}},{"type":"Feature","geometry":{"type":"Point","coordinates":[-1.8466505289999304,57.39625657500005]},"properties":{"id":"416305","name":"CRUDEN BAY","kind":"ONSHORE FACILITY","phase":"IN SERVICE","fixedOrMoveable":"FIXED","operator":null,"belongsTo":null,"functions":"LANDFALL - PROCESSING","status":null,"waterDepthM":0,"updated":"2026-02-19T23:00:00.000Z","factPageUrl":"https://factpages.sodir.no/facility/pageview/fixed/all/416305","surface":"Y","source":"sodir-factmaps"}},{"type":"Feature","geometry":{"type":"Point","coordinates":[-1.8472033199999487,57.39575385000006]},"properties":{"id":"416363","name":"DALMENY","kind":"ONSHORE FACILITY","phase":"IN SERVICE","fixedOrMoveable":"FIXED","operator":null,"belongsTo":null,"functions":"LANDFALL - PROCESSING","status":null,"waterDepthM":0,"updated":"2026-02-19T23:00:00.000Z","factPageUrl":"https://factpages.sodir.no/facility/pageview/fixed/all/416363","surface":"Y","source":"sodir-factmaps"}},{"type":"Feature","geometry":{"type":"Point","coordinates":[4.732003508000048,52.95256606100003]},"properties":{"id":"416421","name":"DEN HELDER","kind":"ONSHORE FACILITY","phase":"IN SERVICE","fixedOrMoveable":"FIXED","operator":null,"belongsTo":null,"functions":"LANDFALL - PROCESSING","status":null,"waterDepthM":0,"updated":"2026-02-19T23:00:00.000Z","factPageUrl":"https://factpages.sodir.no/facility/pageview/fixed/all/416421","surface":"Y","source":"sodir-factmaps"}},{"type":"Feature","geometry":{"type":"Point","coordinates":[7.325991827000053,53.647174619000054]},"properties":{"id":"416479","name":"DORNUM","kind":"ONSHORE FACILITY","phase":"IN SERVICE","fixedOrMoveable":"FIXED","operator":null,"belongsTo":null,"functions":"LANDFALL - PROCESSING","status":null,"waterDepthM":0,"updated":"2026-02-19T23:00:00.000Z","factPageUrl":"https://factpages.sodir.no/facility/pageview/fixed/all/416479","surface":"Y","source":"sodir-factmaps"}},{"type":"Feature","geometry":{"type":"Point","coordinates":[7.436502550000057,53.66834866600004]},"properties":{"id":"416537","name":"EUROPIPE","kind":"ONSHORE FACILITY","phase":"IN SERVICE","fixedOrMoveable":"FIXED","operator":null,"belongsTo":null,"functions":"LANDFALL - PROCESSING","status":null,"waterDepthM":0,"updated":"2026-02-19T23:00:00.000Z","factPageUrl":"https://factpages.sodir.no/facility/pageview/fixed/all/416537","surface":"Y","source":"sodir-factmaps"}},{"type":"Feature","geometry":{"type":"Point","coordinates":[9.77927111400004,55.57536885300004]},"properties":{"id":"416595","name":"FREDERICIA","kind":"ONSHORE FACILITY","phase":"IN SERVICE","fixedOrMoveable":"FIXED","operator":null,"belongsTo":null,"functions":"LANDFALL","status":null,"waterDepthM":0,"updated":"2026-02-19T23:00:00.000Z","factPageUrl":"https://factpages.sodir.no/facility/pageview/fixed/all/416595","surface":"Y","source":"sodir-factmaps"}},{"type":"Feature","geometry":{"type":"Point","coordinates":[-3.387807921999979,56.23558240600005]},"properties":{"id":"416651","name":"HOUND POINT","kind":"ONSHORE FACILITY","phase":"IN SERVICE","fixedOrMoveable":"FIXED","operator":null,"belongsTo":null,"functions":"LANDFALL","status":null,"waterDepthM":0,"updated":"2026-02-19T23:00:00.000Z","factPageUrl":"https://factpages.sodir.no/facility/pageview/fixed/all/416651","surface":"Y","source":"sodir-factmaps"}},{"type":"Feature","geometry":{"type":"Point","coordinates":[-3.659969634999925,56.02840790300007]},"properties":{"id":"416708","name":"KINNEIL","kind":"ONSHORE FACILITY","phase":"IN SERVICE","fixedOrMoveable":"FIXED","operator":null,"belongsTo":null,"functions":"LANDFALL","status":null,"waterDepthM":0,"updated":"2026-02-19T23:00:00.000Z","factPageUrl":"https://factpages.sodir.no/facility/pageview/fixed/all/416708","surface":"Y","source":"sodir-factmaps"}},{"type":"Feature","geometry":{"type":"Point","coordinates":[5.519828594000046,59.27280392300008]},"properties":{"id":"416765","name":"KLAB","kind":"ONSHORE FACILITY","phase":"IN SERVICE","fixedOrMoveable":"FIXED","operator":null,"belongsTo":null,"functions":"EXPORT POINT","status":null,"waterDepthM":0,"updated":"2026-02-19T23:00:00.000Z","factPageUrl":"https://factpages.sodir.no/facility/pageview/fixed/all/416765","surface":"Y","source":"sodir-factmaps"}},{"type":"Feature","geometry":{"type":"Point","coordinates":[4.843794004000074,60.54784534400005]},"properties":{"id":"416822","name":"NATURGASS VEST","kind":"ONSHORE FACILITY","phase":"IN SERVICE","fixedOrMoveable":"FIXED","operator":null,"belongsTo":null,"functions":"LANDFALL - PROCESSING","status":null,"waterDepthM":0,"updated":"2026-02-19T23:00:00.000Z","factPageUrl":"https://factpages.sodir.no/facility/pageview/fixed/all/416822","surface":"Y","source":"sodir-factmaps"}},{"type":"Feature","geometry":{"type":"Point","coordinates":[11.579691167000021,48.141035180000074]},"properties":{"id":"416880","name":"NCG","kind":"ONSHORE FACILITY","phase":"IN SERVICE","fixedOrMoveable":"FIXED","operator":null,"belongsTo":null,"functions":"VIRTUAL SALEPOINT","status":null,"waterDepthM":0,"updated":"2026-02-19T23:00:00.000Z","factPageUrl":"https://factpages.sodir.no/facility/pageview/fixed/all/416880","surface":"Y","source":"sodir-factmaps"}},{"type":"Feature","geometry":{"type":"Point","coordinates":[8.212122657000066,55.605287273000044]},"properties":{"id":"416937","name":"NYBRO","kind":"ONSHORE FACILITY","phase":"IN SERVICE","fixedOrMoveable":"FIXED","operator":null,"belongsTo":null,"functions":"LANDFALL","status":null,"waterDepthM":0,"updated":"2026-02-19T23:00:00.000Z","factPageUrl":"https://factpages.sodir.no/facility/pageview/fixed/all/416937","surface":"Y","source":"sodir-factmaps"}},{"type":"Feature","geometry":{"type":"Point","coordinates":[13.768721719000041,48.58229697500008]},"properties":{"id":"416994","name":"OBERKAPPEL","kind":"ONSHORE FACILITY","phase":"IN SERVICE","fixedOrMoveable":"FIXED","operator":null,"belongsTo":null,"functions":"LANDFALL","status":null,"waterDepthM":0,"updated":"2026-02-19T23:00:00.000Z","factPageUrl":"https://factpages.sodir.no/facility/pageview/fixed/all/416994","surface":"Y","source":"sodir-factmaps"}},{"type":"Feature","geometry":{"type":"Point","coordinates":[5.519828589000042,59.27291502700007]},"properties":{"id":"417051","name":"ROGASS","kind":"ONSHORE FACILITY","phase":"IN SERVICE","fixedOrMoveable":"FIXED","operator":null,"belongsTo":null,"functions":"EXPORT POINT","status":null,"waterDepthM":0,"updated":"2026-02-19T23:00:00.000Z","factPageUrl":"https://factpages.sodir.no/facility/pageview/fixed/all/417051","surface":"Y","source":"sodir-factmaps"}},{"type":"Feature","geometry":{"type":"Point","coordinates":[5.494349275000047,59.29236277800004]},"properties":{"id":"417108","name":"SNURREVARDEN","kind":"ONSHORE FACILITY","phase":"IN SERVICE","fixedOrMoveable":"FIXED","operator":null,"belongsTo":null,"functions":"LANDFALL","status":null,"waterDepthM":0,"updated":"2026-02-19T23:00:00.000Z","factPageUrl":"https://factpages.sodir.no/facility/pageview/fixed/all/417108","surface":"Y","source":"sodir-factmaps"}},{"type":"Feature","geometry":{"type":"Point","coordinates":[-1.2784462839999264,60.43228169300005]},"properties":{"id":"417165","name":"SULLOM VOE","kind":"ONSHORE FACILITY","phase":"IN SERVICE","fixedOrMoveable":"FIXED","operator":null,"belongsTo":null,"functions":"LANDFALL","status":null,"waterDepthM":0,"updated":"2026-02-19T23:00:00.000Z","factPageUrl":"https://factpages.sodir.no/facility/pageview/fixed/all/417165","surface":"Y","source":"sodir-factmaps"}},{"type":"Feature","geometry":{"type":"Point","coordinates":[2.337298236000038,61.04016225300006]},"properties":{"id":"424932","name":"VALEMON","kind":"JACKET 4 LEGS","phase":"IN SERVICE","fixedOrMoveable":"FIXED","operator":"Equinor Energy AS","belongsTo":"VALEMON","functions":"PROCESSING - QUARTER - WELLHEAD","status":null,"waterDepthM":133,"updated":"2026-02-19T23:00:00.000Z","factPageUrl":"https://factpages.sodir.no/facility/pageview/fixed/all/424932","surface":"Y","source":"sodir-factmaps"}},{"type":"Feature","geometry":{"type":"Point","coordinates":[3.2241744140000606,56.54339358500005]},"properties":{"id":"425058","name":"EKOFISK Z","kind":"JACKET 4 LEGS","phase":"IN SERVICE","fixedOrMoveable":"FIXED","operator":"ConocoPhillips Skandinavia AS","belongsTo":"EKOFISK","functions":"PROCESSING - WELLHEAD","status":null,"waterDepthM":79,"updated":"2026-02-19T23:00:00.000Z","factPageUrl":"https://factpages.sodir.no/facility/pageview/fixed/all/425058","surface":"Y","source":"sodir-factmaps"}},{"type":"Feature","geometry":{"type":"Point","coordinates":[3.222918906000075,56.54273524700005]},"properties":{"id":"425117","name":"EKOFISK L","kind":"JACKET 4 LEGS","phase":"IN SERVICE","fixedOrMoveable":"FIXED","operator":"ConocoPhillips Skandinavia AS","belongsTo":"EKOFISK","functions":"ACCOMMODATION","status":null,"waterDepthM":79,"updated":"2026-02-19T23:00:00.000Z","factPageUrl":"https://factpages.sodir.no/facility/pageview/fixed/all/425117","surface":"Y","source":"sodir-factmaps"}},{"type":"Feature","geometry":{"type":"Point","coordinates":[3.2222243510000226,56.54367687200005]},"properties":{"id":"425176","name":"EKOFISK L-BS","kind":"JACKET 4 LEGS","phase":"IN SERVICE","fixedOrMoveable":"FIXED","operator":"ConocoPhillips Skandinavia AS","belongsTo":"EKOFISK","functions":null,"status":null,"waterDepthM":79,"updated":"2026-02-19T23:00:00.000Z","factPageUrl":"https://factpages.sodir.no/facility/pageview/fixed/all/425176","surface":"Y","source":"sodir-factmaps"}},{"type":"Feature","geometry":{"type":"Point","coordinates":[3.2612207370000306,56.37307687100008]},"properties":{"id":"432160","name":"ELDFISK S","kind":"JACKET 8 LEGS","phase":"IN SERVICE","fixedOrMoveable":"FIXED","operator":"ConocoPhillips Skandinavia AS","belongsTo":"ELDFISK","functions":"PROCESSING - QUARTER","status":null,"waterDepthM":72,"updated":"2026-02-19T23:00:00.000Z","factPageUrl":"https://factpages.sodir.no/facility/pageview/fixed/all/432160","surface":"Y","source":"sodir-factmaps"}},{"type":"Feature","geometry":{"type":"Point","coordinates":[3.2629596530000526,56.373885220000034]},"properties":{"id":"432219","name":"ELDFISK S-BS","kind":"JACKET 4 LEGS","phase":"IN SERVICE","fixedOrMoveable":"FIXED","operator":"ConocoPhillips Skandinavia AS","belongsTo":"ELDFISK","functions":null,"status":null,"waterDepthM":72,"updated":"2026-02-19T23:00:00.000Z","factPageUrl":"https://factpages.sodir.no/facility/pageview/fixed/all/432219","surface":"Y","source":"sodir-factmaps"}},{"type":"Feature","geometry":{"type":"Point","coordinates":[2.29306417600003,57.16079914100004]},"properties":{"id":"433262","name":"HÆWENE BRIM","kind":"FPSO","phase":"IN SERVICE","fixedOrMoveable":"FIXED","operator":null,"belongsTo":null,"functions":null,"status":null,"waterDepthM":82,"updated":"2026-02-19T23:00:00.000Z","factPageUrl":"https://factpages.sodir.no/facility/pageview/fixed/all/433262","surface":"Y","source":"sodir-factmaps"}},{"type":"Feature","geometry":{"type":"Point","coordinates":[2.246733061000043,58.84214916800005]},"properties":{"id":"436163","name":"EDVARD GRIEG","kind":"JACKET 4 LEGS","phase":"IN SERVICE","fixedOrMoveable":"FIXED","operator":"Aker BP ASA","belongsTo":"EDVARD GRIEG","functions":"PROCESSING - QUARTER - WELLHEAD","status":null,"waterDepthM":109,"updated":"2026-02-19T23:00:00.000Z","factPageUrl":"https://factpages.sodir.no/facility/pageview/fixed/all/436163","surface":"Y","source":"sodir-factmaps"}},{"type":"Feature","geometry":{"type":"Point","coordinates":[2.013135676000047,60.50566523100008]},"properties":{"id":"436400","name":"MARTIN LINGE A","kind":"JACKET 8 LEGS","phase":"IN SERVICE","fixedOrMoveable":"FIXED","operator":"Equinor Energy AS","belongsTo":"MARTIN LINGE","functions":"PROCESSING - QUARTER - WELLHEAD","status":null,"waterDepthM":114,"updated":"2026-02-19T23:00:00.000Z","factPageUrl":"https://factpages.sodir.no/facility/pageview/fixed/all/436400","surface":"Y","source":"sodir-factmaps"}},{"type":"Feature","geometry":{"type":"Point","coordinates":[23.725376287000074,70.68062049900004]},"properties":{"id":"437919","name":"HYGGEVANNET","kind":"LANDFALL","phase":"IN SERVICE","fixedOrMoveable":"FIXED","operator":"Vår Energi ASA","belongsTo":"GOLIAT","functions":null,"status":null,"waterDepthM":0,"updated":"2026-02-19T23:00:00.000Z","factPageUrl":"https://factpages.sodir.no/facility/pageview/fixed/all/437919","surface":"Y","source":"sodir-factmaps"}},{"type":"Feature","geometry":{"type":"Point","coordinates":[4.843794004000074,60.54784264400007]},"properties":{"id":"440883","name":"KOLLSNES NÆRINGSPARK","kind":"ONSHORE FACILITY","phase":"IN SERVICE","fixedOrMoveable":"FIXED","operator":null,"belongsTo":null,"functions":"LANDFALL","status":null,"waterDepthM":0,"updated":"2026-02-19T23:00:00.000Z","factPageUrl":"https://factpages.sodir.no/facility/pageview/fixed/all/440883","surface":"Y","source":"sodir-factmaps"}},{"type":"Feature","geometry":{"type":"Point","coordinates":[6.952041455000028,62.84742304100007]},"properties":{"id":"441041","name":"NYHAMNA RESERVEKRAFTVERK","kind":"ONSHORE FACILITY","phase":"IN SERVICE","fixedOrMoveable":"FIXED","operator":null,"belongsTo":null,"functions":"LANDFALL","status":null,"waterDepthM":0,"updated":"2026-02-19T23:00:00.000Z","factPageUrl":"https://factpages.sodir.no/facility/pageview/fixed/all/441041","surface":"Y","source":"sodir-factmaps"}},{"type":"Feature","geometry":{"type":"Point","coordinates":[2.196514154000056,58.92168763700005]},"properties":{"id":"442024","name":"IVAR AASEN","kind":"JACKET 4 LEGS","phase":"IN SERVICE","fixedOrMoveable":"FIXED","operator":"Aker BP ASA","belongsTo":"IVAR AASEN","functions":"PROCESSING - QUARTER - WELLHEAD","status":null,"waterDepthM":113,"updated":"2026-02-19T23:00:00.000Z","factPageUrl":"https://factpages.sodir.no/facility/pageview/fixed/all/442024","surface":"Y","source":"sodir-factmaps"}},{"type":"Feature","geometry":{"type":"Point","coordinates":[7.364074879000043,65.34335741200005]},"properties":{"id":"443503","name":"HEIDRUN FSU","kind":"FSU","phase":"IN SERVICE","fixedOrMoveable":"FIXED","operator":"Equinor Energy AS","belongsTo":"HEIDRUN","functions":"OFFLOADING - STORAGE","status":null,"waterDepthM":0,"updated":"2026-02-19T23:00:00.000Z","factPageUrl":"https://factpages.sodir.no/facility/pageview/fixed/all/443503","surface":"Y","source":"sodir-factmaps"}},{"type":"Feature","geometry":{"type":"Point","coordinates":[1.6951798000000622,58.57157969500008]},"properties":{"id":"443856","name":"GINA KROG","kind":"JACKET 4 LEGS","phase":"IN SERVICE","fixedOrMoveable":"FIXED","operator":"Equinor Energy AS","belongsTo":"GINA KROG","functions":"PROCESSING - QUARTER - WELLHEAD","status":null,"waterDepthM":116,"updated":"2026-02-19T23:00:00.000Z","factPageUrl":"https://factpages.sodir.no/facility/pageview/fixed/all/443856","surface":"Y","source":"sodir-factmaps"}},{"type":"Feature","geometry":{"type":"Point","coordinates":[2.071940633000054,60.497310033000076]},"properties":{"id":"444051","name":"MARTIN LINGE B","kind":"FSU","phase":"IN SERVICE","fixedOrMoveable":"FIXED","operator":"Equinor Energy AS","belongsTo":"MARTIN LINGE","functions":"OFFLOADING - STORAGE","status":null,"waterDepthM":114,"updated":"2026-02-19T23:00:00.000Z","factPageUrl":"https://factpages.sodir.no/facility/pageview/fixed/all/444051","surface":"Y","source":"sodir-factmaps"}},{"type":"Feature","geometry":{"type":"Point","coordinates":[7.095548898000061,67.06680117900004]},"properties":{"id":"444187","name":"AASTA HANSTEEN SPAR","kind":"SPAR","phase":"IN SERVICE","fixedOrMoveable":"FIXED","operator":"Equinor Energy AS","belongsTo":"AASTA HANSTEEN","functions":"ACCOMMODATION - OFFLOADING - PROCESSING - STORAGE","status":null,"waterDepthM":1315,"updated":"2026-02-19T23:00:00.000Z","factPageUrl":"https://factpages.sodir.no/facility/pageview/fixed/all/444187","surface":"Y","source":"sodir-factmaps"}},{"type":"Feature","geometry":{"type":"Point","coordinates":[18.65736362800004,54.34858165400004]},"properties":{"id":"449005","name":"GDANSK","kind":"LANDFALL","phase":"IN SERVICE","fixedOrMoveable":"FIXED","operator":null,"belongsTo":null,"functions":null,"status":null,"waterDepthM":0,"updated":"2026-09-15T22:00:00.000Z","factPageUrl":"https://factpages.sodir.no/facility/pageview/fixed/all/449005","surface":"Y","source":"sodir-factmaps"}},{"type":"Feature","geometry":{"type":"Point","coordinates":[2.5553475290000733,58.83636377400006]},"properties":{"id":"449981","name":"JOHAN SVERDRUP RP","kind":"JACKET 8 LEGS","phase":"IN SERVICE","fixedOrMoveable":"FIXED","operator":"Equinor Energy AS","belongsTo":"JOHAN SVERDRUP","functions":"EXPORT POINT - GAS EXPORT - RISER - UMBILICAL SUPPORT","status":null,"waterDepthM":115,"updated":"2026-02-19T23:00:00.000Z","factPageUrl":"https://factpages.sodir.no/facility/pageview/fixed/all/449981","surface":"Y","source":"sodir-factmaps"}},{"type":"Feature","geometry":{"type":"Point","coordinates":[2.5456585020000375,58.83530251800005]},"properties":{"id":"451651","name":"JOHAN SVERDRUP LQ","kind":"JACKET 4 LEGS","phase":"IN SERVICE","fixedOrMoveable":"FIXED","operator":"Equinor Energy AS","belongsTo":"JOHAN SVERDRUP","functions":"ACCOMMODATION - QUARTER","status":null,"waterDepthM":113.4,"updated":"2026-02-19T23:00:00.000Z","factPageUrl":"https://factpages.sodir.no/facility/pageview/fixed/all/451651","surface":"Y","source":"sodir-factmaps"}},{"type":"Feature","geometry":{"type":"Point","coordinates":[2.5486807540000314,58.83604708200005]},"properties":{"id":"451762","name":"JOHAN SVERDRUP P1","kind":"JACKET 8 LEGS","phase":"IN SERVICE","fixedOrMoveable":"FIXED","operator":"Equinor Energy AS","belongsTo":"JOHAN SVERDRUP","functions":"DISTRIBUTION - PROCESSING - SEPARATION","status":null,"waterDepthM":113.4,"updated":"2026-02-19T23:00:00.000Z","factPageUrl":"https://factpages.sodir.no/facility/pageview/fixed/all/451762","surface":"Y","source":"sodir-factmaps"}},{"type":"Feature","geometry":{"type":"Point","coordinates":[2.552119780000055,58.83540540000007]},"properties":{"id":"451874","name":"JOHAN SVERDRUP DP","kind":"JACKET 8 LEGS","phase":"IN SERVICE","fixedOrMoveable":"FIXED","operator":"Equinor Energy AS","belongsTo":"JOHAN SVERDRUP","functions":"DRILLING","status":"AOC OK","waterDepthM":113.4,"updated":"2026-02-19T23:00:00.000Z","factPageUrl":"https://factpages.sodir.no/facility/pageview/fixed/all/451874","surface":"Y","source":"sodir-factmaps"}},{"type":"Feature","geometry":{"type":"Point","coordinates":[20.235356232000072,72.48419145600008]},"properties":{"id":"452894","name":"JOHAN CASTBERG FPSO","kind":"FPSO","phase":"IN SERVICE","fixedOrMoveable":"FIXED","operator":"Equinor Energy AS","belongsTo":"JOHAN CASTBERG","functions":"ACCOMMODATION - PROCESSING - QUARTER - STORAGE","status":null,"waterDepthM":372,"updated":"2026-02-19T23:00:00.000Z","factPageUrl":"https://factpages.sodir.no/facility/pageview/fixed/all/452894","surface":"Y","source":"sodir-factmaps"}},{"type":"Feature","geometry":{"type":"Point","coordinates":[3.3475804170000742,56.25065134000005]},"properties":{"id":"453766","name":"VALHALL FLANKE VEST","kind":"JACKET 4 LEGS","phase":"IN SERVICE","fixedOrMoveable":"FIXED","operator":"Aker BP ASA","belongsTo":"VALHALL","functions":"GAS INJECTION - GAS PRODUCER - OIL PRODUCER - WATER INJECTION","status":null,"waterDepthM":69.2,"updated":"2026-02-19T23:00:00.000Z","factPageUrl":"https://factpages.sodir.no/facility/pageview/fixed/all/453766","surface":"Y","source":"sodir-factmaps"}},{"type":"Feature","geometry":{"type":"Point","coordinates":[2.7316937470000653,60.547981192000066]},"properties":{"id":"454141","name":"OSEBERG H","kind":"JACKET 4 LEGS","phase":"IN SERVICE","fixedOrMoveable":"FIXED","operator":"Equinor Energy AS","belongsTo":"OSEBERG","functions":"GAS PRODUCER - OIL PRODUCER - WELLHEAD","status":null,"waterDepthM":107,"updated":"2026-02-19T23:00:00.000Z","factPageUrl":"https://factpages.sodir.no/facility/pageview/fixed/all/454141","surface":"Y","source":"sodir-factmaps"}},{"type":"Feature","geometry":{"type":"Point","coordinates":[5.0351400200000285,60.80931623300006]},"properties":{"id":"460838","name":"VESTPROSESS","kind":"ONSHORE FACILITY","phase":"IN SERVICE","fixedOrMoveable":"FIXED","operator":null,"belongsTo":null,"functions":null,"status":null,"waterDepthM":0,"updated":"2026-02-19T23:00:00.000Z","factPageUrl":"https://factpages.sodir.no/facility/pageview/fixed/all/460838","surface":"Y","source":"sodir-factmaps"}},{"type":"Feature","geometry":{"type":"Point","coordinates":[11.094106656000065,55.663404323000066]},"properties":{"id":"712365","name":"KALUNDBORG","kind":"LANDFALL","phase":"IN SERVICE","fixedOrMoveable":"FIXED","operator":null,"belongsTo":null,"functions":null,"status":null,"waterDepthM":0,"updated":"2026-02-19T23:00:00.000Z","factPageUrl":"https://factpages.sodir.no/facility/pageview/fixed/all/712365","surface":"Y","source":"sodir-factmaps"}},{"type":"Feature","geometry":{"type":"Point","coordinates":[2.55878649400006,58.83707224200003]},"properties":{"id":"720966","name":"JOHAN SVERDRUP P2","kind":"JACKET 8 LEGS","phase":"IN SERVICE","fixedOrMoveable":"FIXED","operator":"Equinor Energy AS","belongsTo":"JOHAN SVERDRUP","functions":"PROCESSING","status":null,"waterDepthM":114,"updated":"2026-02-19T23:00:00.000Z","factPageUrl":"https://factpages.sodir.no/facility/pageview/fixed/all/720966","surface":"Y","source":"sodir-factmaps"}},{"type":"Feature","geometry":{"type":"Point","coordinates":[2.25175060600003,61.36641571600006]},"properties":{"id":"723351","name":"34/7 HY01","kind":"OFFSHORE WIND TURBINE","phase":"IN SERVICE","fixedOrMoveable":"FIXED","operator":"Equinor Energy AS","belongsTo":"SNORRE","functions":"WIND TURBINE","status":null,"waterDepthM":340,"updated":"2026-02-19T23:00:00.000Z","factPageUrl":"https://factpages.sodir.no/facility/pageview/fixed/all/723351","surface":"Y","source":"sodir-factmaps"}},{"type":"Feature","geometry":{"type":"Point","coordinates":[2.2588487240000745,61.35335419000006]},"properties":{"id":"723647","name":"34/7 HY02","kind":"OFFSHORE WIND TURBINE","phase":"IN SERVICE","fixedOrMoveable":"FIXED","operator":"Equinor Energy AS","belongsTo":"SNORRE","functions":"WIND TURBINE","status":null,"waterDepthM":340,"updated":"2026-02-19T23:00:00.000Z","factPageUrl":"https://factpages.sodir.no/facility/pageview/fixed/all/723647","surface":"Y","source":"sodir-factmaps"}},{"type":"Feature","geometry":{"type":"Point","coordinates":[2.2659246410000264,61.34029536300005]},"properties":{"id":"723943","name":"34/7 HY03","kind":"OFFSHORE WIND TURBINE","phase":"IN SERVICE","fixedOrMoveable":"FIXED","operator":"Equinor Energy AS","belongsTo":"SNORRE","functions":"WIND TURBINE","status":null,"waterDepthM":340,"updated":"2026-02-19T23:00:00.000Z","factPageUrl":"https://factpages.sodir.no/facility/pageview/fixed/all/723943","surface":"Y","source":"sodir-factmaps"}},{"type":"Feature","geometry":{"type":"Point","coordinates":[2.27301165800003,61.32723383600006]},"properties":{"id":"724239","name":"34/7 HY04","kind":"OFFSHORE WIND TURBINE","phase":"IN SERVICE","fixedOrMoveable":"FIXED","operator":"Equinor Energy AS","belongsTo":"SNORRE","functions":"WIND TURBINE","status":null,"waterDepthM":340,"updated":"2026-02-19T23:00:00.000Z","factPageUrl":"https://factpages.sodir.no/facility/pageview/fixed/all/724239","surface":"Y","source":"sodir-factmaps"}},{"type":"Feature","geometry":{"type":"Point","coordinates":[2.280093073000046,61.31417230900007]},"properties":{"id":"724535","name":"34/7 HY05","kind":"OFFSHORE WIND TURBINE","phase":"IN SERVICE","fixedOrMoveable":"FIXED","operator":"Equinor Energy AS","belongsTo":"GULLFAKS","functions":"WIND TURBINE","status":null,"waterDepthM":340,"updated":"2026-02-19T23:00:00.000Z","factPageUrl":"https://factpages.sodir.no/facility/pageview/fixed/all/724535","surface":"Y","source":"sodir-factmaps"}},{"type":"Feature","geometry":{"type":"Point","coordinates":[2.2871689870000296,61.30111078200008]},"properties":{"id":"724831","name":"34/7 HY06","kind":"OFFSHORE WIND TURBINE","phase":"IN SERVICE","fixedOrMoveable":"FIXED","operator":"Equinor Energy AS","belongsTo":"GULLFAKS","functions":"WIND TURBINE","status":null,"waterDepthM":340,"updated":"2026-02-19T23:00:00.000Z","factPageUrl":"https://factpages.sodir.no/facility/pageview/fixed/all/724831","surface":"Y","source":"sodir-factmaps"}},{"type":"Feature","geometry":{"type":"Point","coordinates":[2.260109675000024,61.30469388800003]},"properties":{"id":"725127","name":"34/7 HY07","kind":"OFFSHORE WIND TURBINE","phase":"IN SERVICE","fixedOrMoveable":"FIXED","operator":"Equinor Energy AS","belongsTo":"GULLFAKS","functions":"WIND TURBINE","status":null,"waterDepthM":340,"updated":"2026-02-19T23:00:00.000Z","factPageUrl":"https://factpages.sodir.no/facility/pageview/fixed/all/725127","surface":"Y","source":"sodir-factmaps"}},{"type":"Feature","geometry":{"type":"Point","coordinates":[2.253022660000056,61.31775271500004]},"properties":{"id":"725423","name":"34/7 HY08","kind":"OFFSHORE WIND TURBINE","phase":"IN SERVICE","fixedOrMoveable":"FIXED","operator":"Equinor Energy AS","belongsTo":"GULLFAKS","functions":"WIND TURBINE","status":null,"waterDepthM":340,"updated":"2026-02-19T23:00:00.000Z","factPageUrl":"https://factpages.sodir.no/facility/pageview/fixed/all/725423","surface":"Y","source":"sodir-factmaps"}},{"type":"Feature","geometry":{"type":"Point","coordinates":[2.2459300440000334,61.33081144100004]},"properties":{"id":"725719","name":"34/7 HY09","kind":"OFFSHORE WIND TURBINE","phase":"IN SERVICE","fixedOrMoveable":"FIXED","operator":"Equinor Energy AS","belongsTo":"GULLFAKS","functions":"WIND TURBINE","status":null,"waterDepthM":340,"updated":"2026-02-19T23:00:00.000Z","factPageUrl":"https://factpages.sodir.no/facility/pageview/fixed/all/725719","surface":"Y","source":"sodir-factmaps"}},{"type":"Feature","geometry":{"type":"Point","coordinates":[2.2388291260000415,61.34387296800003]},"properties":{"id":"726015","name":"34/7 HY10","kind":"OFFSHORE WIND TURBINE","phase":"IN SERVICE","fixedOrMoveable":"FIXED","operator":"Equinor Energy AS","belongsTo":"SNORRE","functions":"WIND TURBINE","status":null,"waterDepthM":340,"updated":"2026-02-19T23:00:00.000Z","factPageUrl":"https://factpages.sodir.no/facility/pageview/fixed/all/726015","surface":"Y","source":"sodir-factmaps"}},{"type":"Feature","geometry":{"type":"Point","coordinates":[2.231742109000038,61.35693169400008]},"properties":{"id":"726311","name":"34/7 HY11","kind":"OFFSHORE WIND TURBINE","phase":"IN SERVICE","fixedOrMoveable":"FIXED","operator":"Equinor Energy AS","belongsTo":"SNORRE","functions":"WIND TURBINE","status":null,"waterDepthM":340,"updated":"2026-02-19T23:00:00.000Z","factPageUrl":"https://factpages.sodir.no/facility/pageview/fixed/all/726311","surface":"Y","source":"sodir-factmaps"}},{"type":"Feature","geometry":{"type":"Point","coordinates":[3.463877835000062,56.180144590000054]},"properties":{"id":"726653","name":"HOD B","kind":"JACKET 4 LEGS","phase":"IN SERVICE","fixedOrMoveable":"FIXED","operator":"Aker BP ASA","belongsTo":"HOD","functions":"WELLHEAD","status":null,"waterDepthM":72,"updated":"2026-02-19T23:00:00.000Z","factPageUrl":"https://factpages.sodir.no/facility/pageview/fixed/all/726653","surface":"Y","source":"sodir-factmaps"}},{"type":"Feature","geometry":{"type":"Point","coordinates":[3.117515590000039,56.69935070000008]},"properties":{"id":"776827","name":"FENRIS","kind":"JACKET 4 LEGS","phase":"INSTALLATION","fixedOrMoveable":"FIXED","operator":"Aker BP ASA","belongsTo":"FENRIS","functions":"WELLHEAD","status":null,"waterDepthM":68,"updated":"2026-02-19T23:00:00.000Z","factPageUrl":"https://factpages.sodir.no/facility/pageview/fixed/all/776827","surface":"Y","source":"sodir-factmaps"}},{"type":"Feature","geometry":{"type":"Point","coordinates":[3.3975058590000344,56.27464996200007]},"properties":{"id":"777168","name":"VALHALL PWP","kind":"JACKET 8 LEGS","phase":"INSTALLATION","fixedOrMoveable":"FIXED","operator":"Aker BP ASA","belongsTo":"VALHALL","functions":"DRILLING - PROCESSING","status":null,"waterDepthM":76,"updated":"2026-09-23T22:00:00.000Z","factPageUrl":"https://factpages.sodir.no/facility/pageview/fixed/all/777168","surface":"Y","source":"sodir-factmaps"}},{"type":"Feature","geometry":{"type":"Point","coordinates":[2.565347131000067,59.87085035600006]},"properties":{"id":"782103","name":"HUGIN A","kind":"JACKET 8 LEGS","phase":"INSTALLATION","fixedOrMoveable":"FIXED","operator":"Aker BP ASA","belongsTo":"HUGIN","functions":"DRILLING - PROCESSING - QUARTER","status":null,"waterDepthM":120,"updated":"2026-02-19T23:00:00.000Z","factPageUrl":"https://factpages.sodir.no/facility/pageview/fixed/all/782103","surface":"Y","source":"sodir-factmaps"}},{"type":"Feature","geometry":{"type":"Point","coordinates":[2.557962011000029,59.728803138000046]},"properties":{"id":"782537","name":"HUGIN B","kind":"JACKET 4 LEGS","phase":"INSTALLATION","fixedOrMoveable":"FIXED","operator":"Aker BP ASA","belongsTo":"HUGIN","functions":"WELLHEAD","status":null,"waterDepthM":120,"updated":"2026-04-17T22:00:00.000Z","factPageUrl":"https://factpages.sodir.no/facility/pageview/fixed/all/782537","surface":"Y","source":"sodir-factmaps"}},{"type":"Feature","geometry":{"type":"Point","coordinates":[2.5936221550000482,60.116412825000054]},"properties":{"id":"783056","name":"MUNIN","kind":"JACKET 4 LEGS","phase":"INSTALLATION","fixedOrMoveable":"FIXED","operator":"Aker BP ASA","belongsTo":"MUNIN","functions":"GAS PRODUCER - OIL PRODUCER","status":null,"waterDepthM":105,"updated":"2026-02-19T23:00:00.000Z","factPageUrl":"https://factpages.sodir.no/facility/pageview/fixed/all/783056","surface":"Y","source":"sodir-factmaps"}},{"type":"Feature","geometry":{"type":"Point","coordinates":[15.080594892000022,54.09993280800006]},"properties":{"id":"789353","name":"Niechorze-Pogorzelica, Polen","kind":"ONSHORE FACILITY","phase":"IN SERVICE","fixedOrMoveable":"FIXED","operator":null,"belongsTo":null,"functions":null,"status":null,"waterDepthM":0,"updated":"2026-08-18T22:00:00.000Z","factPageUrl":"https://factpages.sodir.no/facility/pageview/fixed/all/789353","surface":"Y","source":"sodir-factmaps"}}]}