{"type":"FeatureCollection","features":[{"type":"Feature","properties":{"name":"Svalbard FPZ","kind":"outer-boundary"},"geometry":{"type":"LineString","coordinates":[[6.37615,74.335136],[6.38619,74.332384],[6.393172,74.330485],[6.397318,74.322895],[6.407239,74.305178],[6.417491,74.287475],[6.428073,74.269787],[6.438982,74.252113],[6.450218,74.234456],[6.46178,74.216814],[6.473665,74.19919],[6.485873,74.181582],[6.498402,74.163991],[6.511251,74.146419],[6.524419,74.128865],[6.537904,74.111329],[6.551704,74.093813],[6.565819,74.076317],[6.580247,74.058841],[6.594987,74.041386],[6.610037,74.023951],[6.625397,74.006538],[6.641063,73.989147],[6.657036,73.971778],[6.673314,73.954432],[6.689896,73.93711],[6.706779,73.919811],[6.723964,73.902536],[6.741447,73.885285],[6.759229,73.86806],[6.777308,73.850859],[6.795682,73.833685],[6.81435,73.816537],[6.833311,73.799415],[6.852563,73.782321],[6.872105,73.765254],[6.891935,73.748215],[6.912053,73.731204],[6.932457,73.714221],[6.953145,73.697268],[6.974116,73.680344],[6.99537,73.663451],[7.016903,73.646587],[7.038716,73.629754],[7.060807,73.612952],[7.083174,73.596182],[7.105817,73.579444],[7.128733,73.562738],[7.151921,73.546064],[7.175381,73.529424],[7.19911,73.512817],[7.223108,73.496243],[7.247373,73.479704],[7.271904,73.4632],[7.2967,73.44673],[7.321758,73.430296],[7.347078,73.413898],[7.372659,73.397536],[7.398499,73.38121],[7.424597,73.364921],[7.450951,73.348669],[7.477561,73.332455],[7.504424,73.316278],[7.53154,73.30014],[7.558908,73.284041],[7.586525,73.26798],[7.614392,73.251959],[7.642505,73.235978],[7.670865,73.220037],[7.699469,73.204136],[7.728317,73.188276],[7.757408,73.172457],[7.786739,73.15668],[7.81631,73.140944],[7.846119,73.125251],[7.876165,73.1096],[7.906447,73.093992],[7.936964,73.078427],[7.967714,73.062906],[7.998695,73.047428],[8.029908,73.031995],[8.06135,73.016606],[8.09302,73.001263],[8.124918,72.985964],[8.15704,72.970711],[8.189388,72.955503],[8.221958,72.940342],[8.25475,72.925228],[8.287763,72.91016],[8.320996,72.895139],[8.354446,72.880166],[8.388114,72.86524],[8.421997,72.850363],[8.456094,72.835534],[8.490405,72.820754],[8.524928,72.806022],[8.615251,72.767556],[8.645886,72.754529],[8.680654,72.739875],[8.71563,72.72527],[8.750813,72.710716],[8.786202,72.696212],[8.821796,72.681759],[8.857594,72.667357],[8.893594,72.653006],[8.929795,72.638707],[8.966196,72.624459],[9.002796,72.610264],[9.039594,72.596121],[9.076588,72.582031],[9.113778,72.567995],[9.151161,72.554011],[9.188738,72.540081],[9.226506,72.526205],[9.264464,72.512383],[9.302612,72.498615],[9.340948,72.484903],[9.379471,72.471245],[9.41818,72.457642],[9.457073,72.444095],[9.49615,72.430604],[9.53541,72.417169],[9.57485,72.40379],[9.61447,72.390468],[9.654269,72.377203],[9.694246,72.363995],[9.7344,72.350844],[9.774729,72.337751],[9.815232,72.324716],[9.855908,72.311739],[10.109821,72.230554],[10.139157,72.221143],[10.179765,72.208213],[10.220544,72.195342],[10.261492,72.18253],[10.29196,72.17309],[10.299811,72.176966],[10.330956,72.192143],[10.362419,72.207262],[10.394201,72.222325],[10.4263,72.23733],[10.458716,72.252276],[10.491449,72.267163],[10.524498,72.281991],[10.557863,72.296758],[10.591543,72.311465],[10.625538,72.32611],[10.659847,72.340694],[10.694469,72.355215],[10.729404,72.369673],[10.764652,72.384068],[10.800211,72.398398],[10.836082,72.412664],[10.872263,72.426864],[10.908753,72.440999],[10.945552,72.455067],[10.98266,72.469068],[11.020075,72.483002],[11.057796,72.496867],[11.095823,72.510664],[11.134156,72.524391],[11.172792,72.538049],[11.211732,72.551636],[11.250974,72.565153],[11.290518,72.578598],[11.330362,72.591971],[11.370506,72.605271],[11.410949,72.618498],[11.451689,72.631652],[11.492726,72.644731],[11.534059,72.657736],[11.575686,72.670665],[11.617607,72.683519],[11.65982,72.696296],[11.702324,72.708996],[11.745119,72.721619],[11.788202,72.734164],[11.831574,72.74663],[11.875232,72.759017],[11.919175,72.771325],[11.963402,72.783553],[12.007912,72.7957],[12.052704,72.807766],[12.097776,72.81975],[12.143127,72.831652],[12.188755,72.843471],[12.23466,72.855208],[12.280839,72.86686],[12.327291,72.878429],[12.374016,72.889912],[12.42101,72.901311],[12.468274,72.912624],[12.515805,72.92385],[12.563602,72.93499],[12.611663,72.946043],[12.659986,72.957008],[12.708571,72.967885],[12.757416,72.978673],[12.806518,72.989372],[12.855876,72.999982],[12.905488,73.010502],[12.955354,73.020931],[13.00547,73.031269],[13.055836,73.041515],[13.106449,73.05167],[13.157307,73.061732],[13.201592,73.07038],[13.681993,73.162582],[13.733844,73.172353],[13.785935,73.18203],[13.838263,73.191612],[13.890827,73.201098],[13.943624,73.210489],[13.996653,73.219785],[14.049911,73.228983],[14.103397,73.238085],[14.157108,73.24709],[14.211042,73.255997],[14.265198,73.264805],[14.319573,73.273516],[14.374165,73.282127],[14.428972,73.290639],[14.483991,73.299051],[14.539221,73.307364],[14.594659,73.315575],[14.650303,73.323686],[14.688746,73.329214],[15.250181,73.40838],[15.634856,73.461358],[15.64352,73.462538],[16.213856,73.539029],[16.608293,73.590652],[17.108053,73.701523],[17.614361,73.811229],[17.74136,73.838341],[17.792624,73.849178],[17.844163,73.859925],[17.895977,73.870583],[17.948063,73.88115],[18.00042,73.891627],[18.053045,73.902011],[18.105938,73.912304],[18.159095,73.922505],[18.212516,73.932613],[18.266198,73.942627],[18.320139,73.952548],[18.374337,73.962374],[18.428791,73.972106],[18.483498,73.981742],[18.538456,73.991283],[18.561108,73.995175],[18.570389,73.996765],[18.625709,74.006168],[18.681275,74.015475],[18.737085,74.024684],[18.793136,74.033796],[18.849428,74.042809],[18.905957,74.051725],[18.962721,74.060541],[19.019718,74.069259],[19.076946,74.077877],[19.134403,74.086394],[19.192085,74.094812],[19.249991,74.103128],[19.308119,74.111343],[19.366466,74.119457],[19.42503,74.127468],[19.483807,74.135378],[19.542797,74.143184],[19.601995,74.150887],[19.661401,74.158487],[19.721011,74.165982],[19.780822,74.173374],[19.840833,74.180661],[19.90104,74.187843],[19.961442,74.194919],[20.022034,74.20189],[20.082816,74.208755],[20.143783,74.215513],[20.204934,74.222165],[20.266266,74.22871],[20.327776,74.235148],[20.389461,74.241478],[20.451318,74.2477],[20.513345,74.253813],[20.575539,74.259818],[20.637898,74.265715],[20.700417,74.271502],[20.763095,74.27718],[20.825929,74.282748],[20.888915,74.288206],[20.952051,74.293553],[21.015334,74.298791],[21.078761,74.303917],[21.142329,74.308932],[21.206036,74.313837],[21.269877,74.318629],[21.33385,74.32331],[21.397952,74.327879],[21.462181,74.332336],[21.526532,74.33668],[21.591004,74.340911],[21.655592,74.34503],[21.720294,74.349035],[21.785107,74.352927],[21.850028,74.356706],[21.915053,74.360371],[21.98018,74.363922],[21.983483,74.364099],[22.084361,74.369474],[22.149634,74.372876],[22.215001,74.376163],[22.280459,74.379336],[22.346005,74.382395],[22.411635,74.385339],[22.477347,74.388168],[22.543137,74.390882],[22.609002,74.393481],[22.674939,74.395964],[22.740945,74.398332],[22.807016,74.400584],[22.873149,74.402721],[22.917117,74.404077],[23.06623,74.414645],[23.130776,74.419135],[23.195446,74.423512],[23.260237,74.427777],[23.325148,74.431928],[23.390174,74.435967],[23.455312,74.439892],[23.52056,74.443704],[23.585914,74.447401],[23.651371,74.450985],[23.716928,74.454455],[23.782582,74.45781],[23.848329,74.461051],[23.914167,74.464178],[23.980091,74.46719],[24.0461,74.470086],[24.11219,74.472868],[24.178356,74.475534],[24.244597,74.478085],[24.31091,74.480521],[24.377289,74.482841],[24.443734,74.485045],[24.510239,74.487133],[24.576802,74.489106],[24.64342,74.490962],[24.71009,74.492702],[24.776807,74.494326],[24.843569,74.495834],[24.910373,74.497225],[24.977214,74.4985],[25.04409,74.499659],[25.110998,74.5007],[25.177934,74.501625],[25.244895,74.502434],[25.311877,74.503126],[25.378877,74.5037],[25.445892,74.504159],[25.512919,74.5045],[25.579953,74.504724],[25.646992,74.504832],[25.714033,74.504823],[25.781072,74.504697],[25.848105,74.504454],[25.91513,74.504094],[25.982143,74.503618],[26.049141,74.503024],[26.11612,74.502314],[26.183077,74.501487],[26.250008,74.500544],[26.316911,74.499484],[26.383783,74.498307],[26.450618,74.497014],[26.469682,74.496623],[27.137139,74.48179],[27.803281,74.464987],[28.46795,74.446221],[28.852322,74.434453],[28.918583,74.432308],[28.984781,74.430046],[29.050913,74.42767],[29.116976,74.425177],[29.182967,74.422569],[29.248883,74.419847],[29.314719,74.417009],[29.380474,74.414056],[29.446144,74.410988],[29.511725,74.407805],[29.577215,74.404509],[29.64261,74.401097],[29.707907,74.397572],[29.773103,74.393933],[29.838196,74.39018],[29.90318,74.386313],[29.938106,74.384186],[30.558418,74.345136],[30.622917,74.340917],[30.687297,74.336584],[30.751553,74.332139],[30.815684,74.327582],[30.879686,74.322913],[30.916003,74.32021],[30.937164,74.318622],[31.000946,74.313771],[31.06459,74.30881],[31.128095,74.303737],[31.191458,74.298553],[31.254675,74.293258],[31.317743,74.287853],[31.380661,74.282338],[31.443424,74.276713],[31.506029,74.270979],[31.568475,74.265135],[31.630758,74.259182],[31.692876,74.253121],[31.754825,74.246951],[31.816603,74.240673],[31.878206,74.234288],[31.939634,74.227794],[32.000881,74.221194],[32.061947,74.214487],[32.122828,74.207673],[32.183521,74.200753],[32.244024,74.193728],[32.304334,74.186596],[32.364449,74.17936],[32.424366,74.172019],[32.484082,74.164573],[32.543595,74.157024],[32.602903,74.14937],[32.662002,74.141614],[32.720891,74.133754],[32.779567,74.125792],[32.838027,74.117727],[32.896269,74.109561],[32.954291,74.101293],[33.012091,74.092924],[33.069665,74.084455],[33.127012,74.075885],[33.184129,74.067216],[33.241014,74.058447],[33.297665,74.049579],[33.354079,74.040612],[33.410255,74.031548],[33.46619,74.022385],[33.521882,74.013125],[33.577329,74.003769],[33.632528,73.994316],[33.687478,73.984767],[33.706594,73.981399],[33.734281,73.98734],[33.78537,73.998406],[33.836311,74.009535],[33.887103,74.020728],[33.937745,74.031984],[33.988234,74.043303],[34.038571,74.054686],[34.088754,74.066131],[34.138782,74.077639],[34.188654,74.08921],[34.238368,74.100842],[34.287924,74.112537],[34.33732,74.124294],[34.386555,74.136112],[34.435627,74.147991],[34.484537,74.159932],[34.533282,74.171934],[34.581861,74.183996],[34.630273,74.196119],[34.678517,74.208302],[34.726591,74.220546],[34.774495,74.232849],[34.822227,74.245212],[34.869786,74.257634],[34.917171,74.270116],[34.964381,74.282657],[35.011413,74.295256],[35.058268,74.307914],[35.104943,74.32063],[35.151439,74.333404],[35.197752,74.346236],[35.243882,74.359126],[35.289829,74.372073],[35.335589,74.385077],[35.381164,74.398138],[35.42655,74.411256],[35.471747,74.42443],[35.516753,74.43766],[35.561567,74.450946],[35.606189,74.464288],[35.650616,74.477685],[35.694847,74.491137],[35.738881,74.504644],[35.782718,74.518206],[35.826354,74.531822],[35.86979,74.545493],[35.913023,74.559217],[35.956053,74.572995],[35.998878,74.586826],[36.041497,74.60071],[36.083908,74.614647],[36.126111,74.628637],[36.168103,74.642679],[36.209884,74.656773],[36.251452,74.670918],[36.292806,74.685116],[36.333944,74.699364],[36.374866,74.713663],[36.415569,74.728013],[36.456052,74.742414],[36.496315,74.756864],[36.536355,74.771364],[36.763667,74.853497],[37,74.937706],[37,74.940699],[37,75.11988],[37,75.194722],[37.265404,75.360709],[37.536753,75.526385],[37.814242,75.691742],[38,75.800206],[38,75.979374],[38,76.158539],[38,76.337702],[38,76.516863],[38,76.696021],[38,76.825025],[38,76.875176],[38,77.054329],[38,77.233479],[38,77.322179],[38,77.412627],[38,77.591772],[38,77.770915],[38,77.950056],[38,78.129195],[38,78.308331],[38,78.487465],[38,78.624861],[37.414103,78.76229],[36.813953,78.898543],[36.199148,79.033579],[35.569279,79.167351],[34.998889,79.284658],[34.998922,79.463781],[34.998957,79.642901],[34.998992,79.822019],[34.999029,80.001135],[34.999067,80.180249],[34.999107,80.359362],[34.999148,80.538472],[34.99919,80.717581],[34.999235,80.896688],[34.999281,81.075793],[34.999329,81.254896],[34.999379,81.433998],[34.999431,81.613098],[34.999485,81.792197],[34.999542,81.971293],[34.999601,82.150389],[34.999663,82.329482],[34.999728,82.508574],[34.999796,82.687665],[34.999868,82.866754],[34.999943,83.045842],[35.000022,83.224929],[35.000081,83.351944],[34.686922,83.527418],[34.356399,83.702689],[34.278534,83.742582],[34.167017,83.7487],[34.019483,83.756632],[33.871188,83.764435],[33.722141,83.77211],[33.572352,83.779655],[33.421831,83.787071],[33.270588,83.794355],[33.118633,83.801508],[32.965978,83.808529],[32.812633,83.815416],[32.658608,83.822171],[32.503916,83.828791],[32.348567,83.835277],[32.192573,83.841627],[32.035945,83.847841],[31.878696,83.853919],[31.720837,83.85986],[31.56238,83.865663],[31.403339,83.871327],[31.243725,83.876853],[31.083552,83.88224],[30.922831,83.887487],[30.761577,83.892593],[30.599802,83.897559],[30.43752,83.902383],[30.274745,83.907065],[30.111489,83.911605],[29.947767,83.916003],[29.783592,83.920257],[29.618979,83.924367],[29.453942,83.928334],[29.345652,83.933839],[29.192341,83.941488],[29.038259,83.949006],[28.883417,83.956393],[28.727826,83.963647],[28.571495,83.970769],[28.414437,83.977757],[28.256663,83.984611],[28.098184,83.99133],[27.939012,83.997913],[27.77916,84.004361],[27.618638,84.010671],[27.457459,84.016844],[27.295637,84.022879],[27.133183,84.028776],[26.97011,84.034533],[26.806432,84.040151],[26.642161,84.045628],[26.477312,84.050965],[26.311898,84.05616],[26.145932,84.061213],[25.979428,84.066124],[25.812401,84.070891],[25.644865,84.075516],[25.476834,84.079997],[25.308322,84.084333],[25.139346,84.088524],[24.969918,84.092571],[24.800055,84.096471],[24.629772,84.100226],[24.459083,84.103834],[24.288005,84.107296],[24.116552,84.11061],[23.944741,84.113777],[23.772587,84.116796],[23.600107,84.119667],[23.427315,84.12239],[23.254229,84.124964],[23.080864,84.127389],[22.907237,84.129664],[22.733364,84.13179],[22.559261,84.133767],[22.384946,84.135594],[22.210435,84.13727],[22.035743,84.138796],[21.860889,84.140172],[21.685889,84.141397],[21.51076,84.142472],[21.335518,84.143396],[21.160181,84.144168],[20.984766,84.14479],[20.809289,84.145261],[20.633767,84.145581],[20.621202,84.145598],[20.447615,84.145762],[20.272056,84.145777],[20.096502,84.145641],[19.920973,84.145353],[19.745485,84.144915],[19.570054,84.144326],[19.394699,84.143585],[19.219435,84.142694],[19.04428,84.141651],[18.86925,84.140458],[18.694363,84.139115],[18.519635,84.137621],[18.345084,84.135976],[18.170725,84.134182],[17.996575,84.132238],[17.822651,84.130143],[17.648969,84.1279],[17.475547,84.125507],[17.302399,84.122965],[17.129543,84.120274],[16.956994,84.117435],[16.784768,84.114447],[16.612882,84.111312],[16.441351,84.108029],[16.270191,84.104599],[16.099417,84.101022],[15.929045,84.097299],[15.759091,84.09343],[15.589568,84.089414],[15.420493,84.085254],[15.251881,84.080949],[15.083745,84.076499],[14.916102,84.071905],[14.748964,84.067168],[14.582347,84.062288],[14.416264,84.057265],[14.25073,84.052101],[14.085758,84.046794],[13.921362,84.041347],[13.757556,84.03576],[13.594352,84.030032],[13.431764,84.024165],[13.269805,84.01816],[13.108487,84.012016],[12.947823,84.005735],[12.787826,83.999317],[12.628507,83.992763],[12.469878,83.986073],[12.311952,83.979248],[12.154739,83.972288],[11.998252,83.965195],[11.8425,83.957969],[11.687497,83.950611],[11.533251,83.943121],[11.379773,83.9355],[11.227075,83.927749],[11.075166,83.919868],[10.924056,83.911859],[10.773754,83.903721],[10.624271,83.895456],[10.475615,83.887065],[10.327795,83.878548],[10.180822,83.869906],[10.034702,83.86114],[9.889445,83.85225],[9.745059,83.843238],[9.601551,83.834104],[9.458931,83.824849],[9.317204,83.815473],[9.176379,83.805978],[9.036463,83.796365],[8.897464,83.786634],[8.759386,83.776786],[8.622238,83.766821],[8.486025,83.756742],[8.350754,83.746548],[8.216431,83.736241],[8.083061,83.725821],[7.988417,83.718314],[7.629767,83.556594],[7.330816,83.380768],[7.047275,83.204772],[6.777991,83.028617],[6.521919,82.852316],[6.278117,82.675879],[6.045727,82.499316],[5.855942,82.348625],[5.223593,82.191021],[4.616178,82.032513],[4.568058,82.019644],[4.010555,81.858514],[3.474593,81.696651],[2.959026,81.534098],[2.462781,81.370893],[2.205986,81.283706],[1.695946,81.122484],[1.203991,80.960594],[0.729236,80.79807],[0.270847,80.634944],[-0.17196,80.471248],[-0.599924,80.30701],[-1.013742,80.142258],[-1.41407,79.977016],[-1.637397,79.882217],[-1.840322,79.706746],[-2.036515,79.531151],[-2.226306,79.355439],[-2.355314,79.232567],[-2.537814,79.089997],[-2.734286,78.914838],[-2.924721,78.739552],[-3.109392,78.564148],[-3.288556,78.388629],[-3.343875,78.333333],[-3.310437,78.154327],[-3.27798,77.975315],[-3.246461,77.796297],[-3.21584,77.617273],[-3.214656,77.610244],[-3.08818,77.433197],[-2.965163,77.25609],[-2.915644,77.183389],[-2.831779,77.00522],[-2.789717,76.914006],[-2.785869,76.912723],[-2.741328,76.897922],[-2.696534,76.883169],[-2.651489,76.868462],[-2.606195,76.853803],[-2.560654,76.839192],[-2.514866,76.824629],[-2.468834,76.810114],[-2.42256,76.795648],[-2.376043,76.78123],[-2.329288,76.766861],[-2.282294,76.752542],[-2.235064,76.738273],[-2.187599,76.724053],[-2.1399,76.709883],[-2.09197,76.695764],[-2.043809,76.681695],[-1.995419,76.667677],[-1.946803,76.653711],[-1.89796,76.639795],[-1.848894,76.625932],[-1.799604,76.61212],[-1.750094,76.59836],[-1.700364,76.584652],[-1.650416,76.570998],[-1.600251,76.557396],[-1.54987,76.543847],[-1.499276,76.530351],[-1.44847,76.516909],[-1.397453,76.503521],[-1.346227,76.490186],[-1.294792,76.476906],[-1.243152,76.46368],[-1.191306,76.45051],[-1.139256,76.437394],[-1.087005,76.424333],[-1.034552,76.411327],[-0.981901,76.398377],[-0.929051,76.385483],[-0.876005,76.372645],[-0.822763,76.359863],[-0.769328,76.347138],[-0.715701,76.334469],[-0.661882,76.321858],[-0.607874,76.309303],[-0.553677,76.296806],[-0.499294,76.284366],[-0.444725,76.271984],[-0.389972,76.25966],[-0.335036,76.247394],[-0.279918,76.235186],[0.016583,76.16929],[0.558702,76.046221],[0.574539,76.042581],[0.628421,76.030259],[0.682486,76.017996],[0.73673,76.005792],[0.791153,75.993646],[0.803594,75.988755],[0.842561,75.973528],[0.881783,75.958347],[0.921259,75.943211],[0.960986,75.92812],[1.000965,75.913075],[1.041192,75.898076],[1.134182,75.863461],[1.531551,75.713202],[1.543246,75.70873],[1.582764,75.693707],[1.622529,75.67873],[1.662538,75.663801],[1.70279,75.648917],[1.743283,75.634082],[1.784016,75.619293],[1.824988,75.604552],[1.866197,75.589859],[1.907641,75.575215],[1.949319,75.560619],[1.991229,75.546072],[2.033371,75.531574],[2.075742,75.517126],[2.118342,75.502727],[2.161168,75.488378],[2.204219,75.474079],[2.247495,75.459831],[2.290992,75.445634],[2.334711,75.431487],[2.378649,75.417392],[2.422805,75.403349],[2.467178,75.389357],[2.511767,75.375417],[2.556569,75.36153],[2.601584,75.347696],[2.64681,75.333914],[2.692246,75.320185],[2.73789,75.30651],[2.783741,75.292889],[2.829798,75.279321],[2.876059,75.265807],[2.922523,75.252348],[2.969189,75.238944],[3.016055,75.225594],[3.063119,75.212299],[3.110382,75.19906],[3.15784,75.185876],[3.205493,75.172749],[3.25334,75.159677],[3.301379,75.146661],[3.349609,75.133703],[3.398028,75.1208],[3.446636,75.107955],[3.495431,75.095167],[3.544411,75.082437],[3.593576,75.069764],[3.642924,75.05715],[3.692453,75.044593],[3.742163,75.032095],[3.792053,75.019655],[3.84212,75.007274],[3.892364,74.994952],[3.942783,74.98269],[3.993377,74.970486],[4.044143,74.958343],[4.095081,74.946259],[4.14619,74.934236],[4.197468,74.922273],[4.248913,74.91037],[4.300526,74.898528],[4.352304,74.886747],[4.404246,74.875027],[4.456351,74.863368],[4.508617,74.851771],[4.561045,74.840236],[4.791756,74.7894],[4.82985,74.779096],[4.87755,74.766291],[4.925434,74.753544],[4.973501,74.740854],[5.021749,74.728223],[5.070177,74.715649],[5.118784,74.703135],[5.167569,74.690679],[5.21653,74.678282],[5.249431,74.667694],[5.29263,74.653896],[5.336034,74.640152],[5.379642,74.626462],[5.423451,74.612826],[5.467461,74.599244],[5.511671,74.585716],[5.556079,74.572244],[5.600683,74.558826],[5.645484,74.545464],[5.690478,74.532157],[5.735665,74.518905],[5.944178,74.457679],[5.973099,74.449163],[6.01825,74.43596],[6.063591,74.422814],[6.10912,74.409724],[6.154837,74.396691],[6.20074,74.383714],[6.246828,74.370795],[6.2931,74.357934],[6.339554,74.34513],[6.37615,74.335136]]}}]}