{
"type": "FeatureCollection",
"name": "Petroleumsinnretning clipped",
"features": [
{ "type": "Feature", "properties": { "gml_id": "idc0cabae1-052d-4f43-8f29-7fc689e3003a", "lokalId": "d0309890-18c7-41a1-a436-dd4ed680a3f0", "navnerom": "https://data.geonorge.no/sosi/kyst/sjokart_maritim_infrastruktur", "oppdateringsdato": "2010-01-22T00:00:00", "datauttaksdato": "2025-05-01T00:00:47", "målemetode": "ukjentMålemetode", "petroleuminnretningtype": "produksjonsskip" }, "geometry": { "type": "Point", "coordinates": [ 8.086489433430506, 66.027058907525671 ] } },
{ "type": "Feature", "properties": { "gml_id": "id7cee8f0e-8c0e-4ca9-aefc-15a86ff52b83", "lokalId": "e95f3d2b-b3cc-4737-9c04-e85650114e16", "navnerom": "https://data.geonorge.no/sosi/kyst/sjokart_maritim_infrastruktur", "oppdateringsdato": "2010-02-24T00:00:00", "datauttaksdato": "2025-05-01T00:00:47", "målemetode": "ukjentMålemetode", "petroleuminnretningtype": "produksjonsplattform" }, "geometry": { "type": "Point", "coordinates": [ 2.844439294881485, 57.11043318720241 ] } },
{ "type": "Feature", "properties": { "gml_id": "id0814dfb8-8477-4f89-bddb-bed690e28743", "lokalId": "e0ff7b91-ce62-44ed-88c2-b2514f608464", "navnerom": "https://data.geonorge.no/sosi/kyst/sjokart_maritim_infrastruktur", "oppdateringsdato": "2010-02-24T00:00:00", "datauttaksdato": "2025-05-01T00:00:47", "målemetode": "ukjentMålemetode", "petroleuminnretningtype": "produksjonsplattform" }, "geometry": { "type": "Point", "coordinates": [ 2.845786535376406, 57.110783219000922 ] } },
{ "type": "Feature", "properties": { "gml_id": "id315373fa-192b-4dd7-ab7c-f2c36062cd48", "lokalId": "650ec187-ac1f-445c-9947-471674a2251b", "navnerom": "https://data.geonorge.no/sosi/kyst/sjokart_maritim_infrastruktur", "oppdateringsdato": "2010-01-22T00:00:00", "datauttaksdato": "2025-05-01T00:00:47", "målemetode": "ukjentMålemetode", "petroleuminnretningtype": "produksjonsplattform" }, "geometry": { "type": "Point", "coordinates": [ 1.904862368204219, 58.367988525755059 ] } },
{ "type": "Feature", "properties": { "gml_id": "id92ae5eba-917c-4275-b376-174f47b32d37", "lokalId": "188eb4ba-9858-46b2-b404-492b62be71da", "navnerom": "https://data.geonorge.no/sosi/kyst/sjokart_maritim_infrastruktur", "oppdateringsdato": "2010-01-22T00:00:00", "datauttaksdato": "2025-05-01T00:00:47", "målemetode": "ukjentMålemetode", "petroleuminnretningtype": "produksjonsplattform" }, "geometry": { "type": "Point", "coordinates": [ 1.716297121828208, 58.417300720781718 ] } },
{ "type": "Feature", "properties": { "gml_id": "ida9904dbf-9266-4dd7-860e-27963ed37bcb", "lokalId": "f783657c-a975-48ac-956c-251eae8388cf", "navnerom": "https://data.geonorge.no/sosi/kyst/sjokart_maritim_infrastruktur", "oppdateringsdato": "2010-01-22T00:00:00", "datauttaksdato": "2025-05-01T00:00:47", "målemetode": "ukjentMålemetode", "petroleuminnretningtype": "produksjonsplattform" }, "geometry": { "type": "Point", "coordinates": [ 1.908952410804116, 58.367927077518075 ] } },
{ "type": "Feature", "properties": { "gml_id": "id609a849c-3ae3-4f64-ad46-5043fbead342", "lokalId": "668689ac-124b-4cfd-9a9d-0f77e6692b6a", "navnerom": "https://data.geonorge.no/sosi/kyst/sjokart_maritim_infrastruktur", "oppdateringsdato": "2010-01-22T00:00:00", "datauttaksdato": "2025-05-01T00:00:47", "målemetode": "ukjentMålemetode", "petroleuminnretningtype": "produksjonsplattform" }, "geometry": { "type": "Point", "coordinates": [ 1.906991095634136, 58.366699557315236 ] } },
{ "type": "Feature", "properties": { "gml_id": "id9c438dee-dd12-4a35-8339-7e03c878ea87", "lokalId": "796f07a3-b62c-421e-b871-066b1b705f83", "navnerom": "https://data.geonorge.no/sosi/kyst/sjokart_maritim_infrastruktur", "oppdateringsdato": "2008-06-26T00:00:00", "datauttaksdato": "2025-05-01T00:00:47", "målemetode": "ukjentMålemetode", "petroleuminnretningtype": "produksjonsskip" }, "geometry": { "type": "Point", "coordinates": [ 1.996793583232189, 59.566947267633637 ] } },
{ "type": "Feature", "properties": { "gml_id": "idc4f0a01e-4070-4577-ab1e-95fe5d59a554", "lokalId": "0a121091-cb13-4037-a62d-7b35e0e69e3e", "navnerom": "https://data.geonorge.no/sosi/kyst/sjokart_maritim_infrastruktur", "oppdateringsdato": "2009-09-16T00:00:00", "datauttaksdato": "2025-05-01T00:00:47", "målemetode": "ukjentMålemetode", "petroleuminnretningtype": "produksjonsplattform" }, "geometry": { "type": "Point", "coordinates": [ 3.39356528478326, 56.277662647062272 ] } },
{ "type": "Feature", "properties": { "gml_id": "id9f10c0d8-e191-4093-8494-060a4bec6e80", "lokalId": "493e2cc3-21e3-40a3-850d-b436221c869c", "navnerom": "https://data.geonorge.no/sosi/kyst/sjokart_maritim_infrastruktur", "oppdateringsdato": "2009-09-16T00:00:00", "datauttaksdato": "2025-05-01T00:00:47", "målemetode": "ukjentMålemetode", "petroleuminnretningtype": "produksjonsplattform" }, "geometry": { "type": "Point", "coordinates": [ 3.394945403224498, 56.276896422206384 ] } },
{ "type": "Feature", "properties": { "gml_id": "id03791d9b-17d8-4b32-b09e-b3651af1e4e2", "lokalId": "907f331c-1d46-4e6e-9b6e-c8836e8ce3a5", "navnerom": "https://data.geonorge.no/sosi/kyst/sjokart_maritim_infrastruktur", "oppdateringsdato": "2009-09-16T00:00:00", "datauttaksdato": "2025-05-01T00:00:47", "målemetode": "ukjentMålemetode", "petroleuminnretningtype": "produksjonsplattform" }, "geometry": { "type": "Point", "coordinates": [ 3.394908787621595, 56.276061314947682 ] } },
{ "type": "Feature", "properties": { "gml_id": "id309eeab2-ea2f-4c68-a2dc-c54493b9802d", "lokalId": "c2507709-7d3e-42c8-af7a-e12e74bf8431", "navnerom": "https://data.geonorge.no/sosi/kyst/sjokart_maritim_infrastruktur", "oppdateringsdato": "2009-09-16T00:00:00", "datauttaksdato": "2025-05-01T00:00:47", "målemetode": "ukjentMålemetode", "petroleuminnretningtype": "produksjonsplattform" }, "geometry": { "type": "Point", "coordinates": [ 3.394837687452089, 56.275765197208862 ] } },
{ "type": "Feature", "properties": { "gml_id": "idfe597e17-9c70-4033-958f-b17f66e781ff", "lokalId": "ee59e0bd-90f4-4daf-b7cf-530fb9bd3bab", "navnerom": "https://data.geonorge.no/sosi/kyst/sjokart_maritim_infrastruktur", "oppdateringsdato": "2009-09-16T00:00:00", "datauttaksdato": "2025-05-01T00:00:47", "målemetode": "ukjentMålemetode", "petroleuminnretningtype": "produksjonsplattform" }, "geometry": { "type": "Point", "coordinates": [ 3.394084714199967, 56.274852886111454 ] } },
{ "type": "Feature", "properties": { "gml_id": "id1d3b0c99-ab22-4bf4-aca1-6df3e171cb6b", "lokalId": "990cb4b7-e205-490e-837e-b26e763729bd", "navnerom": "https://data.geonorge.no/sosi/kyst/sjokart_maritim_infrastruktur", "oppdateringsdato": "2012-01-05T00:00:00", "datauttaksdato": "2025-05-01T00:00:47", "målemetode": "ukjentMålemetode", "petroleuminnretningtype": "produksjonsplattform" }, "geometry": { "type": "Point", "coordinates": [ 2.385747674775647, 59.191036589521097 ] } },
{ "type": "Feature", "properties": { "gml_id": "id2096089c-76a6-4578-9953-3198348de129", "lokalId": "cd89ccda-d6a6-436a-8349-05450258dcba", "navnerom": "https://data.geonorge.no/sosi/kyst/sjokart_maritim_infrastruktur", "oppdateringsdato": "2011-08-29T00:00:00", "datauttaksdato": "2025-05-01T00:00:47", "målemetode": "ukjentMålemetode", "petroleuminnretningtype": "produksjonsplattform" }, "geometry": { "type": "Point", "coordinates": [ 1.742166666668146, 58.844666665886493 ] } },
{ "type": "Feature", "properties": { "gml_id": "id90a49f93-b80d-422c-b706-084f43c1ef5b", "lokalId": "f7126768-9f53-4c9f-8988-a6087da02dc3", "navnerom": "https://data.geonorge.no/sosi/kyst/sjokart_maritim_infrastruktur", "oppdateringsdato": "2006-12-11T00:00:00", "datauttaksdato": "2025-05-01T00:00:47", "målemetode": "ukjentMålemetode", "petroleuminnretningtype": "produksjonsplattform" }, "geometry": { "type": "Point", "coordinates": [ 3.045098473028089, 60.542040434018134 ] } },
{ "type": "Feature", "properties": { "gml_id": "idcefec913-08de-4abb-8b6e-09149007351e", "lokalId": "8e179e2b-92c6-424e-ba87-98a3edc6f085", "navnerom": "https://data.geonorge.no/sosi/kyst/sjokart_maritim_infrastruktur", "oppdateringsdato": "2006-12-07T00:00:00", "datauttaksdato": "2025-05-01T00:00:47", "målemetode": "ukjentMålemetode", "petroleuminnretningtype": "produksjonsplattform" }, "geometry": { "type": "Point", "coordinates": [ 2.957244728729389, 56.982105023871789 ] } },
{ "type": "Feature", "properties": { "gml_id": "idf84a91f5-198b-45f6-8f83-3cc4788cc387", "lokalId": "74811b00-8ae3-4aab-bbbc-56e175097973", "navnerom": "https://data.geonorge.no/sosi/kyst/sjokart_maritim_infrastruktur", "oppdateringsdato": "2014-03-31T00:00:00", "datauttaksdato": "2025-05-01T00:00:48", "målemetode": "ukjentMålemetode", "petroleuminnretningtype": "produksjonsplattform" }, "geometry": { "type": "Point", "coordinates": [ 2.471069911537128, 58.189376764551369 ] } },
{ "type": "Feature", "properties": { "gml_id": "id17c22fc0-4215-4883-bad1-2f9691592ed9", "lokalId": "ea16b8d2-bc04-4618-a66f-dee30b15b52e", "navnerom": "https://data.geonorge.no/sosi/kyst/sjokart_maritim_infrastruktur", "oppdateringsdato": "2014-03-31T00:00:00", "datauttaksdato": "2025-05-01T00:00:48", "målemetode": "ukjentMålemetode", "petroleuminnretningtype": "produksjonsplattform" }, "geometry": { "type": "Point", "coordinates": [ 2.471191116609607, 58.188258659682333 ] } },
{ "type": "Feature", "properties": { "gml_id": "id991a1801-44c1-4d9d-af18-a5f1b634259c", "lokalId": "27d5fb97-5317-4726-ba3b-6c130ac487ac", "navnerom": "https://data.geonorge.no/sosi/kyst/sjokart_maritim_infrastruktur", "oppdateringsdato": "2014-09-22T00:00:00", "datauttaksdato": "2025-05-01T00:00:48", "målemetode": "ukjentMålemetode", "petroleuminnretningtype": "produksjonsskip" }, "geometry": { "type": "Point", "coordinates": [ 6.863722608015762, 65.131082782270099 ] } },
{ "type": "Feature", "properties": { "gml_id": "id41d50e65-0487-403b-ae0e-b6c40920a3c7", "lokalId": "10dcb8e6-c090-4f2f-9662-d91c4192482e", "navnerom": "https://data.geonorge.no/sosi/kyst/sjokart_maritim_infrastruktur", "oppdateringsdato": "2014-09-22T00:00:00", "datauttaksdato": "2025-05-01T00:00:48", "målemetode": "ukjentMålemetode", "petroleuminnretningtype": "produksjonsplattform" }, "geometry": { "type": "Point", "coordinates": [ 6.789334130230559, 65.110084233364759 ] } },
{ "type": "Feature", "properties": { "gml_id": "idf9af5a86-15a8-453d-984b-202e7b01b077", "lokalId": "036afff9-15a7-4a88-8e58-c5d6b24efe16", "navnerom": "https://data.geonorge.no/sosi/kyst/sjokart_maritim_infrastruktur", "oppdateringsdato": "2014-09-22T00:00:00", "datauttaksdato": "2025-05-01T00:00:48", "målemetode": "ukjentMålemetode", "petroleuminnretningtype": "produksjonsskip" }, "geometry": { "type": "Point", "coordinates": [ 6.725580159806429, 65.064127315274177 ] } },
{ "type": "Feature", "properties": { "gml_id": "id8e1aabbd-3a94-401d-a30f-4a9a80d6fb1c", "lokalId": "82988d9d-aeeb-41d0-a9cc-414a6f366e6c", "navnerom": "https://data.geonorge.no/sosi/kyst/sjokart_maritim_infrastruktur", "oppdateringsdato": "2014-10-17T00:00:00", "datauttaksdato": "2025-05-01T00:00:48", "målemetode": "ukjentMålemetode", "petroleuminnretningtype": "produksjonsplattform" }, "geometry": { "type": "Point", "coordinates": [ 2.209728407432172, 61.524948297123728 ] } },
{ "type": "Feature", "properties": { "gml_id": "id7dfcaa26-d0df-4b76-a5cf-5b3b951a8d3d", "lokalId": "54db0c55-2845-4032-8897-a019d8ce2fd2", "navnerom": "https://data.geonorge.no/sosi/kyst/sjokart_maritim_infrastruktur", "oppdateringsdato": "2010-02-24T00:00:00", "datauttaksdato": "2025-05-01T00:00:48", "målemetode": "ukjentMålemetode", "petroleuminnretningtype": "produksjonsplattform" }, "geometry": { "type": "Point", "coordinates": [ 2.448206837746371, 59.265484500543593 ] } },
{ "type": "Feature", "properties": { "gml_id": "id76451654-3eba-4b64-9cb0-7e46c102bdd5", "lokalId": "5c759518-c593-444c-9d58-8da5834dfdfa", "navnerom": "https://data.geonorge.no/sosi/kyst/sjokart_maritim_infrastruktur", "oppdateringsdato": "2010-02-24T00:00:00", "datauttaksdato": "2025-05-01T00:00:48", "målemetode": "ukjentMålemetode", "petroleuminnretningtype": "produksjonsplattform" }, "geometry": { "type": "Point", "coordinates": [ 2.847025443493616, 57.111108243021668 ] } },
{ "type": "Feature", "properties": { "gml_id": "idc48b715f-dc11-49fa-92a8-eb452ef7328b", "lokalId": "9ec37e09-e6e2-4448-a2fd-0bc9a8de14e4", "navnerom": "https://data.geonorge.no/sosi/kyst/sjokart_maritim_infrastruktur", "oppdateringsdato": "2010-02-24T00:00:00", "datauttaksdato": "2025-05-01T00:00:48", "målemetode": "ukjentMålemetode", "petroleuminnretningtype": "produksjonsplattform" }, "geometry": { "type": "Point", "coordinates": [ 2.485743311132981, 59.164661770930799 ] } },
{ "type": "Feature", "properties": { "gml_id": "id44bbcc7a-f792-45c5-954b-62be9d532f2b", "lokalId": "f53f9bfa-ae3f-4e85-b508-9bd3720806d4", "navnerom": "https://data.geonorge.no/sosi/kyst/sjokart_maritim_infrastruktur", "oppdateringsdato": "2006-12-12T00:00:00", "datauttaksdato": "2025-05-01T00:00:48", "målemetode": "ukjentMålemetode", "petroleuminnretningtype": "produksjonsplattform" }, "geometry": { "type": "Point", "coordinates": [ 2.497978601925328, 61.079773565505086 ] } },
{ "type": "Feature", "properties": { "gml_id": "ida619b499-13dd-4967-9eba-180585381c4c", "lokalId": "59a25638-7c4f-43ed-9409-a807fc49e24f", "navnerom": "https://data.geonorge.no/sosi/kyst/sjokart_maritim_infrastruktur", "oppdateringsdato": "2014-10-17T00:00:00", "datauttaksdato": "2025-05-01T00:00:48", "målemetode": "ukjentMålemetode", "petroleuminnretningtype": "produksjonsplattform" }, "geometry": { "type": "Point", "coordinates": [ 2.795264346035684, 60.389646189077901 ] } },
{ "type": "Feature", "properties": { "gml_id": "id34b49f8e-ce00-414f-97e1-7011a791d0e3", "lokalId": "09642b61-ab08-48ea-bb49-f6d94fee60ab", "navnerom": "https://data.geonorge.no/sosi/kyst/sjokart_maritim_infrastruktur", "oppdateringsdato": "2014-10-17T00:00:00", "datauttaksdato": "2025-05-01T00:00:48", "målemetode": "ukjentMålemetode", "petroleuminnretningtype": "produksjonsplattform" }, "geometry": { "type": "Point", "coordinates": [ 2.827288145153729, 60.490143555836937 ] } },
{ "type": "Feature", "properties": { "gml_id": "id439c6230-21f3-497b-afe5-f2c4f8997297", "lokalId": "ae646119-4d1b-440e-97e8-49d392195303", "navnerom": "https://data.geonorge.no/sosi/kyst/sjokart_maritim_infrastruktur", "oppdateringsdato": "2014-10-17T00:00:00", "datauttaksdato": "2025-05-01T00:00:48", "målemetode": "ukjentMålemetode", "petroleuminnretningtype": "produksjonsplattform" }, "geometry": { "type": "Point", "coordinates": [ 2.82561915151047, 60.491343012427961 ] } },
{ "type": "Feature", "properties": { "gml_id": "id3204606e-02db-4075-8f3c-bf1ceba34f4e", "lokalId": "e282ae31-e2f1-4489-8493-3d6478779144", "navnerom": "https://data.geonorge.no/sosi/kyst/sjokart_maritim_infrastruktur", "oppdateringsdato": "2014-10-17T00:00:00", "datauttaksdato": "2025-05-01T00:00:48", "målemetode": "ukjentMålemetode", "petroleuminnretningtype": "produksjonsplattform" }, "geometry": { "type": "Point", "coordinates": [ 2.826553964722258, 60.49281583698636 ] } },
{ "type": "Feature", "properties": { "gml_id": "id785f73c4-5cda-44b3-8e0f-5006f31f74b1", "lokalId": "d6c3d23a-702c-41c4-996a-87273617c937", "navnerom": "https://data.geonorge.no/sosi/kyst/sjokart_maritim_infrastruktur", "oppdateringsdato": "2014-10-17T00:00:00", "datauttaksdato": "2025-05-01T00:00:48", "målemetode": "ukjentMålemetode", "petroleuminnretningtype": "produksjonsplattform" }, "geometry": { "type": "Point", "coordinates": [ 3.501483078081591, 60.773871834385751 ] } },
{ "type": "Feature", "properties": { "gml_id": "idb25c2049-8f84-4551-b85e-77476e6b87a5", "lokalId": "b07b6aa1-c2dd-41b1-8212-16f1ed8ccafe", "navnerom": "https://data.geonorge.no/sosi/kyst/sjokart_maritim_infrastruktur", "oppdateringsdato": "2015-05-22T00:00:00", "datauttaksdato": "2025-05-01T00:00:48", "målemetode": "ukjentMålemetode", "petroleuminnretningtype": "ukjent" }, "geometry": { "type": "Point", "coordinates": [ 1.695148544370706, 58.571570806862127 ] } },
{ "type": "Feature", "properties": { "gml_id": "id932136ed-ac7f-4f1c-804a-753909e243cd", "lokalId": "fae91f86-caeb-4f49-b738-9649f6c88014", "navnerom": "https://data.geonorge.no/sosi/kyst/sjokart_maritim_infrastruktur", "oppdateringsdato": "2015-08-13T00:00:00", "datauttaksdato": "2025-05-01T00:00:48", "målemetode": "ukjentMålemetode", "petroleuminnretningtype": "produksjonsplattform" }, "geometry": { "type": "Point", "coordinates": [ 2.246502032768474, 58.842269015269558 ] } },
{ "type": "Feature", "properties": { "gml_id": "iddf4b287b-45be-4053-b103-2e128f83a54d", "lokalId": "cce7cace-153e-47f2-8de2-c40f36ea35bc", "navnerom": "https://data.geonorge.no/sosi/kyst/sjokart_maritim_infrastruktur", "oppdateringsdato": "2017-12-11T00:00:00", "datauttaksdato": "2025-05-01T00:00:48", "målemetode": "ukjentMålemetode", "petroleuminnretningtype": "produksjonsplattform" }, "geometry": { "type": "Point", "coordinates": [ 2.731657531253409, 60.547970567534207 ] } },
{ "type": "Feature", "properties": { "gml_id": "id921720cd-7562-4106-921e-bf9bb29b0572", "lokalId": "2989aba4-340a-4fd3-b0cd-4286328585df", "navnerom": "https://data.geonorge.no/sosi/kyst/sjokart_maritim_infrastruktur", "oppdateringsdato": "2016-02-02T00:00:00", "datauttaksdato": "2025-05-01T00:00:48", "målemetode": "ukjentMålemetode", "petroleuminnretningtype": "produksjonsskip" }, "geometry": { "type": "Point", "coordinates": [ 7.64928669476105, 65.697541140894998 ] } },
{ "type": "Feature", "properties": { "gml_id": "idc42dae07-8cb8-488a-99aa-71a67494927e", "lokalId": "6ec41881-3417-495a-a1a0-1a897087e06c", "navnerom": "https://data.geonorge.no/sosi/kyst/sjokart_maritim_infrastruktur", "oppdateringsdato": "2018-09-11T00:00:00", "datauttaksdato": "2025-05-01T00:00:48", "målemetode": "ukjentMålemetode", "petroleuminnretningtype": "produksjonsskip" }, "geometry": { "type": "Point", "coordinates": [ 2.073599510657862, 60.497835125468001 ] } },
{ "type": "Feature", "properties": { "gml_id": "id0b5c4cd5-6aa3-47c5-9c34-c647fb2e732b", "lokalId": "e6e79988-38ad-4c0a-a893-be773bbe47a0", "navnerom": "https://data.geonorge.no/sosi/kyst/sjokart_maritim_infrastruktur", "oppdateringsdato": "2018-09-11T00:00:00", "datauttaksdato": "2025-05-01T00:00:48", "målemetode": "ukjentMålemetode", "petroleuminnretningtype": "produksjonsplattform" }, "geometry": { "type": "Point", "coordinates": [ 2.013101046799405, 60.505656333418123 ] } },
{ "type": "Feature", "properties": { "gml_id": "id9d75cc54-686e-4075-8d13-cfa1a1e49b0e", "lokalId": "50a286c7-a727-420e-8aee-80102b623ed0", "navnerom": "https://data.geonorge.no/sosi/kyst/sjokart_maritim_infrastruktur", "oppdateringsdato": "2019-09-25T00:00:00", "datauttaksdato": "2025-05-01T00:00:48", "målemetode": "ukjentMålemetode", "petroleuminnretningtype": "boligplattform" }, "geometry": { "type": "Point", "coordinates": [ 2.545592806495415, 58.835356279676532 ] } },
{ "type": "Feature", "properties": { "gml_id": "id99bcc89d-91ac-4cf3-a4f8-3783d1601c4f", "lokalId": "f9d6f9fe-2939-44cb-8672-d96f40ba9c56", "navnerom": "https://data.geonorge.no/sosi/kyst/sjokart_maritim_infrastruktur", "oppdateringsdato": "2019-09-25T00:00:00", "datauttaksdato": "2025-05-01T00:00:48", "målemetode": "ukjentMålemetode", "petroleuminnretningtype": "produksjonsplattform" }, "geometry": { "type": "Point", "coordinates": [ 2.54861871486658, 58.836095952345879 ] } },
{ "type": "Feature", "properties": { "gml_id": "id40303244-1714-443c-b1c9-3b17e69faa26", "lokalId": "360f8e22-b9a8-4b9d-bf19-556b27b4b5eb", "navnerom": "https://data.geonorge.no/sosi/kyst/sjokart_maritim_infrastruktur", "oppdateringsdato": "2019-09-25T00:00:00", "datauttaksdato": "2025-05-01T00:00:48", "målemetode": "ukjentMålemetode", "petroleuminnretningtype": "produksjonsplattform" }, "geometry": { "type": "Point", "coordinates": [ 2.552088501272963, 58.835396929376479 ] } },
{ "type": "Feature", "properties": { "gml_id": "idca0204e5-89f2-4522-b21b-521c2a51f3c3", "lokalId": "1de38598-b800-4da9-9454-ae10f6f23dde", "navnerom": "https://data.geonorge.no/sosi/kyst/sjokart_maritim_infrastruktur", "oppdateringsdato": "2019-09-25T00:00:00", "datauttaksdato": "2025-05-01T00:00:48", "målemetode": "ukjentMålemetode", "petroleuminnretningtype": "produksjonsplattform" }, "geometry": { "type": "Point", "coordinates": [ 2.55526552445696, 58.836414214911208 ] } },
{ "type": "Feature", "properties": { "gml_id": "id465897a9-298b-4019-956d-f997db63d468", "lokalId": "1a3c78d3-8a11-4953-8aa0-2aa3dc99c4ee", "navnerom": "https://data.geonorge.no/sosi/kyst/sjokart_maritim_infrastruktur", "oppdateringsdato": "2014-10-17T00:00:00", "datauttaksdato": "2025-05-01T00:00:48", "målemetode": "ukjentMålemetode", "petroleuminnretningtype": "produksjonsplattform" }, "geometry": { "type": "Point", "coordinates": [ 1.852114690690854, 61.255178423658876 ] } },
{ "type": "Feature", "properties": { "gml_id": "idfa7ff9ce-e324-4b51-af98-4413faa7327f", "lokalId": "673493cb-86da-45a3-940a-60bde6b8371e", "navnerom": "https://data.geonorge.no/sosi/kyst/sjokart_maritim_infrastruktur", "oppdateringsdato": "2014-10-17T00:00:00", "datauttaksdato": "2025-05-01T00:00:48", "målemetode": "ukjentMålemetode", "petroleuminnretningtype": "produksjonsplattform" }, "geometry": { "type": "Point", "coordinates": [ 1.82887611290172, 61.206406189906652 ] } },
{ "type": "Feature", "properties": { "gml_id": "id706f09fa-08e1-45ff-b2c2-1e3213cc10d7", "lokalId": "dfad43da-b2e9-4cbe-9c7a-02cf912fd8ce", "navnerom": "https://data.geonorge.no/sosi/kyst/sjokart_maritim_infrastruktur", "oppdateringsdato": "2014-10-17T00:00:00", "datauttaksdato": "2025-05-01T00:00:48", "målemetode": "ukjentMålemetode", "petroleuminnretningtype": "produksjonsplattform" }, "geometry": { "type": "Point", "coordinates": [ 1.900782382769621, 61.296078923225465 ] } },
{ "type": "Feature", "properties": { "gml_id": "id34d0b008-cbf9-498f-a509-fb18efdaef5c", "lokalId": "f865780f-4864-4f87-adfd-3b3ee3a19340", "navnerom": "https://data.geonorge.no/sosi/kyst/sjokart_maritim_infrastruktur", "oppdateringsdato": "2014-10-17T00:00:00", "datauttaksdato": "2025-05-01T00:00:48", "målemetode": "ukjentMålemetode", "petroleuminnretningtype": "produksjonsplattform" }, "geometry": { "type": "Point", "coordinates": [ 2.272111709028816, 61.214442579674035 ] } },
{ "type": "Feature", "properties": { "gml_id": "idfeabf545-2619-497b-ae0d-98121750cbd4", "lokalId": "8dc8faea-57e2-4393-912d-0b43ba883d1b", "navnerom": "https://data.geonorge.no/sosi/kyst/sjokart_maritim_infrastruktur", "oppdateringsdato": "2014-10-17T00:00:00", "datauttaksdato": "2025-05-01T00:00:48", "målemetode": "ukjentMålemetode", "petroleuminnretningtype": "produksjonsplattform" }, "geometry": { "type": "Point", "coordinates": [ 2.187398198550256, 61.175601932845645 ] } },
{ "type": "Feature", "properties": { "gml_id": "idba687ebc-7983-4d57-87a7-285f3ce69a74", "lokalId": "4f9d0e83-7306-4b5f-896d-8e162eaf7fe6", "navnerom": "https://data.geonorge.no/sosi/kyst/sjokart_maritim_infrastruktur", "oppdateringsdato": "2014-10-17T00:00:00", "datauttaksdato": "2025-05-01T00:00:48", "målemetode": "ukjentMålemetode", "petroleuminnretningtype": "produksjonsplattform" }, "geometry": { "type": "Point", "coordinates": [ 2.199547036720475, 61.202413880303475 ] } },
{ "type": "Feature", "properties": { "gml_id": "idb4b34513-ac40-4d25-a9fa-03f8316971ca", "lokalId": "c182e45d-461b-4438-b905-dbe91a77fead", "navnerom": "https://data.geonorge.no/sosi/kyst/sjokart_maritim_infrastruktur", "oppdateringsdato": "2014-10-17T00:00:00", "datauttaksdato": "2025-05-01T00:00:48", "målemetode": "ukjentMålemetode", "petroleuminnretningtype": "produksjonsplattform" }, "geometry": { "type": "Point", "coordinates": [ 2.89764334828079, 60.781674576510788 ] } },
{ "type": "Feature", "properties": { "gml_id": "ida354f960-0f5e-4413-b056-774ef6cac22a", "lokalId": "124a215c-c095-4f6f-a206-ab13471be535", "navnerom": "https://data.geonorge.no/sosi/kyst/sjokart_maritim_infrastruktur", "oppdateringsdato": "2014-10-17T00:00:00", "datauttaksdato": "2025-05-01T00:00:48", "målemetode": "ukjentMålemetode", "petroleuminnretningtype": "produksjonsplattform" }, "geometry": { "type": "Point", "coordinates": [ 2.896227586647546, 60.782248121728408 ] } },
{ "type": "Feature", "properties": { "gml_id": "idc551618d-9957-4f58-8363-b281e1fbe317", "lokalId": "e3081893-bb93-471a-b315-48631882fd9a", "navnerom": "https://data.geonorge.no/sosi/kyst/sjokart_maritim_infrastruktur", "oppdateringsdato": "2014-10-17T00:00:00", "datauttaksdato": "2025-05-01T00:00:48", "målemetode": "ukjentMålemetode", "petroleuminnretningtype": "produksjonsplattform" }, "geometry": { "type": "Point", "coordinates": [ 3.609744181200277, 60.885824731584883 ] } },
{ "type": "Feature", "properties": { "gml_id": "id0c600d80-d6f5-47d9-b481-6e6bee522ea3", "lokalId": "7efb1047-d189-44ae-8f6c-700f6a776764", "navnerom": "https://data.geonorge.no/sosi/kyst/sjokart_maritim_infrastruktur", "oppdateringsdato": "2014-10-17T00:00:00", "datauttaksdato": "2025-05-01T00:00:48", "målemetode": "ukjentMålemetode", "petroleuminnretningtype": "produksjonsplattform" }, "geometry": { "type": "Point", "coordinates": [ 3.724811176397417, 60.645132133711826 ] } },
{ "type": "Feature", "properties": { "gml_id": "ida8f94d5a-09ab-4dbb-b681-c6dc4f8267b4", "lokalId": "bf85cc50-f343-482c-b875-c99101cc4a46", "navnerom": "https://data.geonorge.no/sosi/kyst/sjokart_maritim_infrastruktur", "oppdateringsdato": "2014-10-17T00:00:00", "datauttaksdato": "2025-05-01T00:00:48", "målemetode": "ukjentMålemetode", "petroleuminnretningtype": "produksjonsplattform" }, "geometry": { "type": "Point", "coordinates": [ 2.932896937574881, 60.699916075745165 ] } },
{ "type": "Feature", "properties": { "gml_id": "id4019727e-adfc-4563-9cc6-2586443eb3af", "lokalId": "824f2108-b007-4998-8d4c-1337ca7c9f6b", "navnerom": "https://data.geonorge.no/sosi/kyst/sjokart_maritim_infrastruktur", "oppdateringsdato": "2014-10-17T00:00:00", "datauttaksdato": "2025-05-01T00:00:48", "målemetode": "ukjentMålemetode", "petroleuminnretningtype": "produksjonsplattform" }, "geometry": { "type": "Point", "coordinates": [ 2.773887111823947, 60.607819989284245 ] } },
{ "type": "Feature", "properties": { "gml_id": "idc10e696f-002c-4c99-9db4-b4b8e29cc484", "lokalId": "9eb18853-d9e9-4435-8cb3-0695458ac4c8", "navnerom": "https://data.geonorge.no/sosi/kyst/sjokart_maritim_infrastruktur", "oppdateringsdato": "2018-04-25T00:00:00", "datauttaksdato": "2025-05-01T00:00:48", "målemetode": "ukjentMålemetode", "petroleuminnretningtype": "produksjonsplattform" }, "geometry": { "type": "Point", "coordinates": [ 7.095488105044281, 67.066791294151045 ] } },
{ "type": "Feature", "properties": { "gml_id": "id26f10b63-109a-43f4-834b-a1ce69e342f3", "lokalId": "ba8b25f8-0d01-40ff-ad16-24834b5ea649", "navnerom": "https://data.geonorge.no/sosi/kyst/sjokart_maritim_infrastruktur", "oppdateringsdato": "2017-10-09T00:00:00", "datauttaksdato": "2025-05-01T00:00:48", "målemetode": "ukjentMålemetode", "petroleuminnretningtype": "produksjonsskip" }, "geometry": { "type": "Point", "coordinates": [ 1.732688015148037, 58.583413228507325 ] } },
{ "type": "Feature", "properties": { "gml_id": "id28f90b1e-5483-4a5a-8af8-486c26a9d244", "lokalId": "4bb90b52-9e0e-4f9c-9a3a-ad0cc43e932b", "navnerom": "https://data.geonorge.no/sosi/kyst/sjokart_maritim_infrastruktur", "oppdateringsdato": "2015-11-23T00:00:00", "datauttaksdato": "2025-05-01T00:00:48", "målemetode": "ukjentMålemetode", "petroleuminnretningtype": "produksjonsplattform" }, "geometry": { "type": "Point", "coordinates": [ 7.780931337202583, 64.352881281058217 ] } },
{ "type": "Feature", "properties": { "gml_id": "idd537e0b0-3cea-4668-bbe4-0e75239e5500", "lokalId": "23e75a1d-583e-43f1-8b0e-f85d0a249676", "navnerom": "https://data.geonorge.no/sosi/kyst/sjokart_maritim_infrastruktur", "oppdateringsdato": "2014-10-17T00:00:00", "datauttaksdato": "2025-05-01T00:00:48", "målemetode": "ukjentMålemetode", "petroleuminnretningtype": "produksjonsplattform" }, "geometry": { "type": "Point", "coordinates": [ 2.141633213556629, 61.448836752459705 ] } },
{ "type": "Feature", "properties": { "gml_id": "id083b4010-b59b-4fc5-b203-013143859fdd", "lokalId": "a21a5526-7735-4d29-a346-daf4ebe1b4f5", "navnerom": "https://data.geonorge.no/sosi/kyst/sjokart_maritim_infrastruktur", "oppdateringsdato": "2014-10-17T00:00:00", "datauttaksdato": "2025-05-01T00:00:48", "målemetode": "ukjentMålemetode", "petroleuminnretningtype": "produksjonsplattform" }, "geometry": { "type": "Point", "coordinates": [ 7.315779174113937, 65.32549315502223 ] } },
{ "type": "Feature", "properties": { "gml_id": "id616c42a8-a55d-41aa-96e5-2db6912825c4", "lokalId": "e6083017-bb55-43fb-bb19-2655f1267c56", "navnerom": "https://data.geonorge.no/sosi/kyst/sjokart_maritim_infrastruktur", "oppdateringsdato": "2014-10-17T00:00:00", "datauttaksdato": "2025-05-01T00:00:48", "målemetode": "ukjentMålemetode", "petroleuminnretningtype": "produksjonsplattform" }, "geometry": { "type": "Point", "coordinates": [ 6.550418807126779, 64.994050666589928 ] } },
{ "type": "Feature", "properties": { "gml_id": "id8cb3c3ea-9127-4786-82ea-2156125c44fe", "lokalId": "d9d288c1-cb9a-4e15-a633-f06d6451fedc", "navnerom": "https://data.geonorge.no/sosi/kyst/sjokart_maritim_infrastruktur", "oppdateringsdato": "2014-10-17T00:00:00", "datauttaksdato": "2025-05-01T00:00:48", "målemetode": "ukjentMålemetode", "petroleuminnretningtype": "produksjonsplattform" }, "geometry": { "type": "Point", "coordinates": [ 2.457162176216855, 61.369661430117411 ] } },
{ "type": "Feature", "properties": { "gml_id": "id418d9642-7772-480d-8db8-7d04ee9f9994", "lokalId": "62ba93d5-4a3b-4a57-b286-2aca8daeec57", "navnerom": "https://data.geonorge.no/sosi/kyst/sjokart_maritim_infrastruktur", "oppdateringsdato": "2014-10-17T00:00:00", "datauttaksdato": "2025-05-01T00:00:48", "målemetode": "ukjentMålemetode", "petroleuminnretningtype": "produksjonsplattform" }, "geometry": { "type": "Point", "coordinates": [ 3.895111072086327, 61.33188384562964 ] } },
{ "type": "Feature", "properties": { "gml_id": "id1332201f-aed9-497d-ba37-05f11c17cc86", "lokalId": "695b42de-7cac-4af4-b69a-86e7f85bdd46", "navnerom": "https://data.geonorge.no/sosi/kyst/sjokart_maritim_infrastruktur", "oppdateringsdato": "2015-06-04T00:00:00", "datauttaksdato": "2025-05-01T00:00:48", "målemetode": "ukjentMålemetode", "petroleuminnretningtype": "produksjonsskip" }, "geometry": { "type": "Point", "coordinates": [ 22.251055277777802, 71.311180833019677 ] } },
{ "type": "Feature", "properties": { "gml_id": "id02775bd9-625e-43eb-9dcd-ebc0e53a6bac", "lokalId": "9a247b34-6b2e-425b-89c5-20c873350b7b", "navnerom": "https://data.geonorge.no/sosi/kyst/sjokart_maritim_infrastruktur", "oppdateringsdato": "2020-09-03T00:00:00", "datauttaksdato": "2025-05-01T00:00:48", "målemetode": "ukjentMålemetode", "petroleuminnretningtype": "ukjent" }, "geometry": { "type": "Point", "coordinates": [ 2.196482215770918, 58.921680636513784 ] } },
{ "type": "Feature", "properties": { "gml_id": "id654326a4-1a3a-42f1-8b91-d721736bae55", "lokalId": "36f8a06f-b903-4b7e-b705-86787448409a", "navnerom": "https://data.geonorge.no/sosi/kyst/sjokart_maritim_infrastruktur", "oppdateringsdato": "2023-12-14T00:00:00", "datauttaksdato": "2025-05-01T00:00:48", "målemetode": "ukjentMålemetode", "petroleuminnretningtype": "produksjonsplattform" }, "geometry": { "type": "Point", "coordinates": [ 2.226640693367911, 59.574735385639165 ] } },
{ "type": "Feature", "properties": { "gml_id": "id707f4372-ef78-4413-b358-f4d656fbad53", "lokalId": "24a8ea2a-cce3-4618-a9d9-fe4e809e5999", "navnerom": "https://data.geonorge.no/sosi/kyst/sjokart_maritim_infrastruktur", "oppdateringsdato": "2023-12-14T00:00:00", "datauttaksdato": "2025-05-01T00:00:48", "målemetode": "ukjentMålemetode", "petroleuminnretningtype": "produksjonsplattform" }, "geometry": { "type": "Point", "coordinates": [ 2.227104737036724, 59.573656124279829 ] } },
{ "type": "Feature", "properties": { "gml_id": "id3fcd855e-ec1a-4108-9e5a-d4eb512cb500", "lokalId": "b9a5cb9a-d096-4f26-9860-11bd271e2611", "navnerom": "https://data.geonorge.no/sosi/kyst/sjokart_maritim_infrastruktur", "oppdateringsdato": "2024-07-04T00:00:00", "datauttaksdato": "2025-05-01T00:00:48", "målemetode": "ukjentMålemetode", "petroleuminnretningtype": "produksjonsplattform" }, "geometry": { "type": "Point", "coordinates": [ 3.117545642000044, 56.69933827501179 ] } },
{ "type": "Feature", "properties": { "gml_id": "idd5898307-b630-4229-a977-39ac9e4500c8", "lokalId": "7e8dba52-1fbb-40cf-97b9-a01b5da3bc40", "navnerom": "https://data.geonorge.no/sosi/kyst/sjokart_maritim_infrastruktur", "oppdateringsdato": "2022-08-22T00:00:00", "datauttaksdato": "2025-05-01T00:00:48", "målemetode": "ukjentMålemetode", "petroleuminnretningtype": "produksjonsskip" }, "geometry": { "type": "Point", "coordinates": [ 7.199741892787482, 64.27067141763095 ] } },
{ "type": "Feature", "properties": { "gml_id": "id9f0b49d2-4eb8-41d0-821e-2517a0fff469", "lokalId": "4e3ce93f-fee8-4316-89e5-fb56304d15bb", "navnerom": "https://data.geonorge.no/sosi/kyst/sjokart_maritim_infrastruktur", "oppdateringsdato": "2022-08-22T00:00:00", "datauttaksdato": "2025-05-01T00:00:48", "målemetode": "ukjentMålemetode", "petroleuminnretningtype": "produksjonsskip" }, "geometry": { "type": "Point", "coordinates": [ 7.251294797957996, 64.271779075225751 ] } },
{ "type": "Feature", "properties": { "gml_id": "idd87e16ee-b86d-4f33-bd3a-803c7cb8fa23", "lokalId": "53696d5b-351a-48cf-9e3f-2e5cda40cee8", "navnerom": "https://data.geonorge.no/sosi/kyst/sjokart_maritim_infrastruktur", "oppdateringsdato": "2024-09-24T00:00:00", "datauttaksdato": "2025-05-01T00:00:48", "målemetode": "ukjentMålemetode", "petroleuminnretningtype": "produksjonsskip" }, "geometry": { "type": "Point", "coordinates": [ 20.235433333333301, 72.48418333303961 ] } },
{ "type": "Feature", "properties": { "gml_id": "id7e59584c-a761-4368-b6c9-f5b6b2492438", "lokalId": "b2487a82-70c1-47fb-a3f0-60374b5903e0", "navnerom": "https://data.geonorge.no/sosi/kyst/sjokart_maritim_infrastruktur", "oppdateringsdato": "2022-04-12T00:00:00", "datauttaksdato": "2025-05-01T00:00:48", "målemetode": "ukjentMålemetode", "petroleuminnretningtype": "produksjonsplattform" }, "geometry": { "type": "Point", "coordinates": [ 2.558754115593906, 58.837063391345261 ] } }
]
}
