{
"type": "FeatureCollection",
"name": "Jan Mayen",
"features": [
{ "type": "Feature", "properties": { "mrgid": 8437, "geoname": "Norwegian Exclusive Economic Zone (Jan Mayen)", "mrgid_ter1": 5343, "pol_type": "200NM", "mrgid_sov1": 2252, "territory1": "Jan Mayen", "iso_ter1": "SJM", "sovereign1": "Norway", "mrgid_ter2": null, "mrgid_sov2": null, "territory2": null, "iso_ter2": null, "sovereign2": null, "mrgid_ter3": null, "mrgid_sov3": null, "territory3": null, "iso_ter3": null, "sovereign3": null, "x_1": -5.25129, "y_1": 71.11421, "mrgid_eez": 8437, "area_km2": 292907, "iso_sov1": "NOR", "iso_sov2": null, "iso_sov3": null, "un_sov1": 578.0, "un_sov2": null, "un_sov3": null, "un_ter1": 744.0, "un_ter2": null, "un_ter3": null }, "geometry": { "type": "MultiPolygon", "coordinates": [ [ [ [ 2.356224500061046, 71.174244222293282 ], [ 2.351840638734728, 71.156375277797025 ], [ 2.34716694389985, 71.138514110637857 ], [ 2.342204305884565, 71.120661166879501 ], [ 2.336953667178364, 71.102816971726185 ], [ 2.331415944191065, 71.084982027898548 ], [ 2.32559208300853, 71.067156805742343 ], [ 2.319483027919887, 71.04934183315919 ], [ 2.313089694434325, 71.031537556213436 ], [ 2.306413055618464, 71.013744472229831 ], [ 2.299454027881723, 70.995963083030006 ], [ 2.292213583390463, 70.978193860758296 ], [ 2.284692667333246, 70.960437306336814 ], [ 2.276892250077566, 70.94269388921208 ], [ 2.268813249831879, 70.924964083326074 ], [ 2.260456666642199, 70.907248360823388 ], [ 2.251823471776078, 70.889547221727213 ], [ 2.242914611320515, 70.871861139080636 ], [ 2.233731055643972, 70.854190583229354 ], [ 2.224273805691922, 70.836536028115546 ], [ 2.214543805752299, 70.818897917105403 ], [ 2.20454205587157, 70.801276750221888 ], [ 2.194269528216552, 70.783672999609649 ], [ 2.183727194055081, 70.766087111331245 ], [ 2.177469444159755, 70.755922221733471 ], [ 2.172916083111204, 70.748519527854171 ], [ 2.161837138773336, 70.730970777979309 ], [ 2.150491361087887, 70.713441250213776 ], [ 2.138879750100784, 70.695931443681445 ], [ 2.127003332837972, 70.678441806244564 ], [ 2.114863028406376, 70.660972805551012 ], [ 2.102459916891888, 70.643524860683954 ], [ 2.089794944381509, 70.626098471667348 ], [ 2.076869138800163, 70.608694055786231 ], [ 2.063683500193861, 70.591312056406764 ], [ 2.050239027709324, 70.57395294387365 ], [ 2.036536722292425, 70.556617166949081 ], [ 2.022577610968511, 70.539305167199956 ], [ 2.008362693783681, 70.522017361012473 ], [ 1.993892999562803, 70.504754193551605 ], [ 1.979169499573288, 70.487516138759304 ], [ 1.964193249619086, 70.470303611223045 ], [ 1.948965277626002, 70.453117028228604 ], [ 1.933486555760169, 70.4359568610206 ], [ 1.917758111048528, 70.418823499904676 ], [ 1.901780972314384, 70.401717417025424 ], [ 1.901538889208808, 70.401463889147436 ], [ 1.885556166584252, 70.384638999990102 ], [ 1.869084721782798, 70.367588721842083 ], [ 1.85236763885581, 70.350566971988343 ], [ 1.835405943929516, 70.333574193794362 ], [ 1.827665083377127, 70.325908806146714 ], [ 1.812269666612139, 70.308749666863918 ], [ 1.796625972211473, 70.291617417310249 ], [ 1.780734943563033, 70.274512417214538 ], [ 1.764597667048946, 70.257435166599663 ], [ 1.748215083359668, 70.240386055772035 ], [ 1.731588277977124, 70.223365528096849 ], [ 1.714718194289702, 70.206373972081565 ], [ 1.697605889001096, 70.18941186076907 ], [ 1.680252361257857, 70.172479555687289 ], [ 1.662658638985306, 70.155577528080642 ], [ 1.644825722229569, 70.138706167355963 ], [ 1.626754638915997, 70.121865916879017 ], [ 1.608446416968803, 70.105057166954992 ], [ 1.589902083414898, 70.088280306091434 ], [ 1.571122611319907, 70.071535806432422 ], [ 1.552109055588716, 70.054824027706957 ], [ 1.532862444146787, 70.038145388998771 ], [ 1.513383777939339, 70.021500305794746 ], [ 1.493674083092714, 70.004889166602055 ], [ 1.473734389330986, 69.988312388706106 ], [ 1.453565721881063, 69.971770360613903 ], [ 1.433169082587369, 69.955263471732337 ], [ 1.412545500274945, 69.938792167224989 ], [ 1.391696028049807, 69.92235677804311 ], [ 1.370621666856863, 69.905957722371227 ], [ 1.349323416742834, 69.889595416595427 ], [ 1.327802332611867, 69.873270222243434 ], [ 1.306059417208644, 69.856982555700654 ], [ 1.284095721840316, 69.840732749716722 ], [ 1.261912250150687, 69.824521250355673 ], [ 1.239510028265585, 69.808348388567566 ], [ 1.216890083211041, 69.79221458343676 ], [ 1.194053416831963, 69.776120221671306 ], [ 1.171001111012714, 69.760065638718658 ], [ 1.147734110940775, 69.744051250065354 ], [ 1.124253500299346, 69.728077389360493 ], [ 1.10056025035567, 69.712144472090159 ], [ 1.076655443894055, 69.696252832802458 ], [ 1.05254005577919, 69.680402888782794 ], [ 1.028215139117833, 69.664594971880916 ], [ 1.003681693955485, 69.64882944362418 ], [ 0.978940722137025, 69.633106694318997 ], [ 0.953993306446165, 69.617427055814289 ], [ 0.928840417251848, 69.601790916617801 ], [ 0.903483083377949, 69.586198611276956 ], [ 0.87792233274979, 69.570650528299609 ], [ 0.852159167212307, 69.555147000434005 ], [ 0.826194638971714, 69.539688389208067 ], [ 0.800029749873346, 69.524275056149293 ], [ 0.773665499963386, 69.508907333107288 ], [ 0.747102917166245, 69.493585583408418 ], [ 0.720343027609033, 69.478310138902316 ], [ 0.693386861015142, 69.463081361116139 ], [ 0.66623538865278, 69.447899582799778 ], [ 0.638889639345962, 69.432765139400004 ], [ 0.61135066710014, 69.417678416725948 ], [ 0.583619444082586, 69.402639693567153 ], [ 0.555696972137838, 69.38764933325038 ], [ 0.527584306171235, 69.372707693705365 ], [ 0.499282417449933, 69.357815056420037 ], [ 0.470792360879301, 69.342971806304092 ], [ 0.442115111323659, 69.328178250026667 ], [ 0.413251667031233, 69.313434722135071 ], [ 0.384203055926719, 69.298741528399148 ], [ 0.354970305935097, 69.28409902764821 ], [ 0.325554389224123, 69.26950749957166 ], [ 0.295956305839098, 69.254967332676358 ], [ 0.266177110685391, 69.240478777873506 ], [ 0.236217749849857, 69.226042193992271 ], [ 0.206079250357448, 69.211657888600854 ], [ 0.175762639234932, 69.197326166569667 ], [ 0.145268860769875, 69.183047360647492 ], [ 0.114598971665572, 69.168821778402531 ], [ 0.106623611091123, 69.165144555776919 ], [ 0.102234471643783, 69.163123083063965 ], [ 0.071350027682058, 69.148964110905155 ], [ 0.040291694406619, 69.134859055800973 ], [ 0.009060471863819, 69.120808249601197 ], [ 0.000011459156326, 69.116775111746676 ], [ -0.000000001248935, 69.116770003852196 ], [ -0.000011459155559, 69.11676489707142 ], [ -0.022342611122355, 69.10681191713644 ], [ -0.053916611162265, 69.09287044421626 ], [ -0.085660500331358, 69.078984082649583 ], [ -0.117573305563269, 69.065153166985084 ], [ -0.149654027710767, 69.051377972415878 ], [ -0.181901666727981, 69.037658777730883 ], [ -0.214315221669779, 69.023995916578741 ], [ -0.246893750046127, 69.010389666849875 ], [ -0.279636222133718, 68.996840306435075 ], [ -0.312541666664288, 68.98334813930569 ], [ -0.345609110571445, 68.969913444250494 ], [ -0.378837527729161, 68.956536527938596 ], [ -0.412225972050578, 68.943217638583462 ], [ -0.445773472267661, 68.929957110732204 ], [ -0.479478999555795, 68.916755167417307 ], [ -0.513341611425801, 68.903612110810514 ], [ -0.547360333012534, 68.890528250278976 ], [ -0.581534139088973, 68.877503833135449 ], [ -0.615862111447086, 68.864539111191249 ], [ -0.650343222161666, 68.85163441719493 ], [ -0.684976527844015, 68.838789972379516 ], [ -0.719761056327229, 68.826006056434835 ], [ -0.754695832746108, 68.813282943653206 ], [ -0.789779889429951, 68.800620917321936 ], [ -0.825012221836175, 68.788020194176852 ], [ -0.860391889273842, 68.775481110565067 ], [ -0.895917943857739, 68.76300386073973 ], [ -0.931589389138736, 68.750588721692253 ], [ -0.967405250251716, 68.738235972212777 ], [ -1.003364582908944, 68.725945832634295 ], [ -1.039466416741391, 68.713718582646749 ], [ -1.075709805662541, 68.701554500140617 ], [ -1.112093778404756, 68.689453777570236 ], [ -1.148617361001982, 68.677416721604573 ], [ -1.185279610964926, 68.665443556175433 ], [ -1.222079583106051, 68.653534499817567 ], [ -1.259016278278182, 68.641689833119614 ], [ -1.296088778274168, 68.629909806093053 ], [ -1.333296110926312, 68.618194639071532 ], [ -1.37063736072534, 68.606544555986716 ], [ -1.408111527624527, 68.594959832930385 ], [ -1.445717667336112, 68.583440693833154 ], [ -1.483454860752857, 68.571987388707242 ], [ -1.521322139304857, 68.560600110906989 ], [ -1.559318528127164, 68.549279111342344 ], [ -1.597443138689471, 68.538024611246811 ], [ -1.635694999724137, 68.526836860633068 ], [ -1.63741508263962, 68.526336222439227 ], [ -1.645722917178432, 68.523918193669942 ], [ -1.684098389129019, 68.512798472271953 ], [ -1.722599222076099, 68.501745916740703 ], [ -1.761224471731794, 68.490760832846377 ], [ -1.799973138948872, 68.479843360882825 ], [ -1.838844361277893, 68.468993749961868 ], [ -1.877837138672646, 68.458212222216787 ], [ -1.916950582602851, 68.44749899977927 ], [ -1.956183749680008, 68.436854277802865 ], [ -1.995535666837213, 68.426278278419943 ], [ -2.00806466725021, 68.422932139406782 ], [ -2.018470111106353, 68.420156666996661 ], [ -2.057967361404394, 68.409669027803659 ], [ -2.097581222295162, 68.399250611226904 ], [ -2.137310806148434, 68.38890161062119 ], [ -2.177155193856663, 68.378622249917129 ], [ -2.217113388971256, 68.368412693691255 ], [ -2.257184528142943, 68.358273193753291 ], [ -2.297367667083847, 68.34820391737702 ], [ -2.337661889384322, 68.338205110977299 ], [ -2.37806624985717, 68.328276916646644 ], [ -2.418579860871489, 68.31841955561822 ], [ -2.459201750260291, 68.308633222145914 ], [ -2.499931027694458, 68.298918111382051 ], [ -2.540766777664203, 68.289274416681224 ], [ -2.581708055881791, 68.279702333196525 ], [ -2.622753999896645, 68.270202028201396 ], [ -2.663903639341015, 68.260773722029967 ], [ -2.705156082986605, 68.251417582855339 ], [ -2.746510389242701, 68.24213380583069 ], [ -2.787965693861111, 68.232922556431191 ], [ -2.829521056151464, 68.223784028010812 ], [ -2.871175556106721, 68.214718388742909 ], [ -2.912928306096035, 68.205725832881342 ], [ -2.954778388811235, 68.196806527699266 ], [ -2.996724888742165, 68.187960666552044 ], [ -3.033966527832604, 68.180185278328281 ], [ -3.068555278402982, 68.172991833306696 ], [ -3.110654500304634, 68.16427588912137 ], [ -3.152847639306856, 68.155633861114012 ], [ -3.195133750221999, 68.147065888680089 ], [ -3.237511972399034, 68.138572139093213 ], [ -3.279981389429281, 68.130152832687202 ], [ -3.32254108310417, 68.121808082777108 ], [ -3.36519019367222, 68.113538055736967 ], [ -3.407927777744362, 68.105342944021942 ], [ -3.450752944092869, 68.097222860946772 ], [ -3.493664832965294, 68.089177999865115 ], [ -3.536662527952899, 68.081208528051349 ], [ -3.579745110847796, 68.073314556122227 ], [ -3.622911721898049, 68.065496249552609 ], [ -3.666161443795318, 68.057753778314606 ], [ -3.709493388908385, 68.050087306084578 ], [ -3.752906693888349, 68.042496944378655 ], [ -3.796400417145094, 68.034982832591822 ], [ -3.839973722309026, 68.027545166776321 ], [ -3.883625666890623, 68.020184055750008 ], [ -3.927355417218394, 68.01289963890747 ], [ -3.971162055983655, 68.00569205564409 ], [ -3.997370832897275, 68.00142258268616 ], [ -4.034704221722109, 67.993654083269632 ], [ -4.076548416575633, 67.984985832830148 ], [ -4.118485499705798, 67.976391721600976 ], [ -4.160514555601821, 67.967871888976703 ], [ -4.202634721814547, 67.959426500432812 ], [ -4.244845055854256, 67.951055722343995 ], [ -4.287144694371705, 67.942759694104694 ], [ -4.329532749736188, 67.934538638747512 ], [ -4.372008306437863, 67.926392666888319 ], [ -4.414570472349112, 67.91832194400277 ], [ -4.457218360738466, 67.910326639163429 ], [ -4.499951083075757, 67.90240691694629 ], [ -4.542767749931329, 67.894562888866488 ], [ -4.585667471875922, 67.886794750077911 ], [ -4.628649333399665, 67.879102639075711 ], [ -4.671712499931459, 67.871486694355696 ], [ -4.71485602808275, 67.86394708319159 ], [ -4.758079056303075, 67.856483944079088 ], [ -4.801380722142198, 67.849097417312151 ], [ -4.844760110989967, 67.841787638689027 ], [ -4.888216333416608, 67.834554750301606 ], [ -4.931748527871946, 67.82739891672685 ], [ -4.975355805825245, 67.820320250379723 ], [ -5.019037277847787, 67.813318888856116 ], [ -5.062792083287661, 67.806394971551015 ], [ -5.106619332715525, 67.799548638758949 ], [ -5.150518139400219, 67.792780028076095 ], [ -5.194487639092813, 67.786089250118891 ], [ -5.2385269441628, 67.77947644428275 ], [ -5.282635166978935, 67.772941749962229 ], [ -5.32681147207137, 67.766485277773711 ], [ -5.371054943930062, 67.760107139233639 ], [ -5.415364721903927, 67.753807471937449 ], [ -5.459739944442504, 67.747586389200677 ], [ -5.504179722116078, 67.741444027719723 ], [ -5.548683194273679, 67.735380472031409 ], [ -5.593249472384855, 67.729395889409062 ], [ -5.637877721878908, 67.723490360791999 ], [ -5.672985360585471, 67.718905860717143 ], [ -5.717679583445602, 67.713096000180656 ], [ -5.762393971804045, 67.70731936060011 ], [ -5.807168028381284, 67.701622055613399 ], [ -5.852000861050556, 67.696004221917576 ], [ -5.896891610958619, 67.69046594404864 ], [ -5.94183941655541, 67.685007361400778 ], [ -5.986843444169267, 67.679628555813366 ], [ -6.031902750411405, 67.674329638801879 ], [ -6.077016555569116, 67.669110694003422 ], [ -6.122183944133468, 67.663971805954276 ], [ -6.167404056351756, 67.658913139230009 ], [ -6.212676055855013, 67.653934721710357 ], [ -6.257999055911398, 67.649036693688629 ], [ -6.303372221950156, 67.644219110923643 ], [ -6.348794639089988, 67.639482083033073 ], [ -6.394265528430992, 67.634825721829884 ], [ -6.439783943973566, 67.630250082775291 ], [ -6.485349082893663, 67.625755249605618 ], [ -6.530960082741331, 67.621341332936652 ], [ -6.576616055971272, 67.61700841707642 ], [ -6.622316193836809, 67.612756555770886 ], [ -6.631999948838143, 67.611868531008014 ], [ -6.63234611313564, 67.612273821230815 ], [ -6.633823451091075, 67.613994867369939 ], [ -6.636791864052839, 67.617436303942355 ], [ -6.63828173936156, 67.619155305805606 ], [ -6.650268705880848, 67.632913298106757 ], [ -6.651359194970553, 67.634159946524761 ], [ -6.651772812065246, 67.634630620207474 ], [ -6.654795580950747, 67.638065503420535 ], [ -6.656313028622975, 67.639781677882439 ], [ -6.662412825191268, 67.646646736358093 ], [ -6.663943649416439, 67.648361257771569 ], [ -6.667019055612542, 67.651789583980616 ], [ -6.668562395488806, 67.653502005670845 ], [ -6.680977617540208, 67.667207063831256 ], [ -6.682535225083228, 67.66891774440063 ], [ -6.685665044905477, 67.672339280833853 ], [ -6.687235999638716, 67.674048756133033 ], [ -6.693549951668729, 67.680886885422069 ], [ -6.695134289097268, 67.682594649316798 ], [ -6.698316741620204, 67.686009400344346 ], [ -6.699913570779131, 67.687715010428633 ], [ -6.712757243851343, 67.701365273988472 ], [ -6.714368374871839, 67.703069080906232 ], [ -6.71760529030459, 67.706476806356051 ], [ -6.719229773435018, 67.708179348998129 ], [ -6.725757961160525, 67.714989619875496 ], [ -6.727395830745621, 67.716690393426916 ], [ -6.730685365536942, 67.720091104221467 ], [ -6.732335701531042, 67.721789669957531 ], [ -6.745607951123276, 67.735383279649483 ], [ -6.747272620534659, 67.737079979358015 ], [ -6.750616657832211, 67.740473428106611 ], [ -6.75229468215349, 67.74216880664531 ], [ -6.75903715044376, 67.748950288425362 ], [ -6.760728562155435, 67.75064383953395 ], [ -6.764125197928706, 67.754030045932154 ], [ -6.765829049070817, 67.755721334472042 ], [ -6.779529929961882, 67.769256427142892 ], [ -6.78124814301728, 67.770945788961143 ], [ -6.784699312223154, 67.774324495379517 ], [ -6.786430880380465, 67.776012476994538 ], [ -6.793387639355302, 67.782764238793789 ], [ -6.795132595258906, 67.784450334474911 ], [ -6.798636331700948, 67.787821570109827 ], [ -6.800393696911271, 67.789505350092014 ], [ -6.814523193127599, 67.80298006484864 ], [ -6.816294947242767, 67.804661854526472 ], [ -6.819000307027494, 67.807219114012952 ], [ -6.819853239217679, 67.808025353986494 ], [ -6.821638346519393, 67.809705705830368 ], [ -6.828809369913529, 67.816426816312486 ], [ -6.830607861763099, 67.818105223777593 ], [ -6.833808136618359, 67.821079474194931 ], [ -6.834218682152198, 67.821461024475639 ], [ -6.836029552421564, 67.823137062825509 ], [ -6.850587574456625, 67.836549536532402 ], [ -6.852412856644065, 67.838223521995275 ], [ -6.856078244657795, 67.84157134872649 ], [ -6.857916876462298, 67.84324383803326 ], [ -6.865302101396821, 67.849933366827173 ], [ -6.867154112671756, 67.851603853935018 ], [ -6.870871981056723, 67.854943753451522 ], [ -6.872736336133187, 67.85661181832657 ], [ -6.887722723024808, 67.869960188712213 ], [ -6.889601511419357, 67.871626137622229 ], [ -6.89337394974828, 67.874957826153945 ], [ -6.895266081663976, 67.876622220739051 ], [ -6.90286540871125, 67.883279236348386 ], [ -6.903505632458234, 67.883837758360045 ], [ -6.904770913030376, 67.884941571021756 ], [ -6.908595774935009, 67.888265104433628 ], [ -6.910513587536798, 67.889924962445008 ], [ -6.925928099901626, 67.903207368425598 ], [ -6.926996552048934, 67.904125535765189 ], [ -6.929139466706459, 67.90596302575841 ], [ -6.930212602974507, 67.906881208618643 ], [ -6.934516593065922, 67.910555415000999 ], [ -6.935594065049486, 67.91147315049642 ], [ -6.937753523805725, 67.913308479903094 ], [ -6.938834637763648, 67.914225333886122 ], [ -6.947510366212271, 67.921565105974196 ], [ -6.949473209515105, 67.923218921494822 ], [ -6.953412877202197, 67.926525448191171 ], [ -6.955388587013431, 67.92817722220164 ], [ -6.963321433037322, 67.934782750723741 ], [ -6.965310562893706, 67.936432421190659 ], [ -6.969302691765449, 67.939730531039515 ], [ -6.971304676169666, 67.941378131296176 ], [ -6.978471384258427, 67.94725291907892 ], [ -6.979367671214192, 67.947986230025634 ], [ -6.981163749507118, 67.949453216792818 ], [ -6.982062817045033, 67.950186300957398 ], [ -6.985666324135195, 67.953119341772492 ], [ -6.98656774084597, 67.95385174513703 ], [ -6.988373596264864, 67.955316519407972 ], [ -6.989276699526641, 67.956047809323366 ], [ -7.00554644759535, 67.969192704933135 ], [ -7.007585531746543, 67.970833147832082 ], [ -7.011678659342351, 67.974113630939996 ], [ -7.013731055243568, 67.975752346793485 ], [ -7.021971708491805, 67.982306242289667 ], [ -7.024037439990025, 67.983942723383223 ], [ -7.028182764822304, 67.987214369048189 ], [ -7.030260684382711, 67.988848214174055 ], [ -7.044503247490638, 68.000000000001734 ], [ -7.046957385918404, 68.001921566219067 ], [ -7.047400336605108, 68.002267912594732 ], [ -7.048289060398247, 68.002962262823786 ], [ -7.048733590561596, 68.003309294349521 ], [ -7.050515647634597, 68.004699345842909 ], [ -7.052615169260037, 68.006331090743885 ], [ -7.056827195833876, 68.00959253485297 ], [ -7.058939133959143, 68.011221795591382 ], [ -7.065611054824103, 68.016349406394966 ], [ -7.067282145925333, 68.017629817148389 ], [ -7.070633107259425, 68.020189930484491 ], [ -7.072311379002883, 68.021468414170783 ], [ -7.078381021181173, 68.026076518000764 ], [ -7.089434485755476, 68.03446836564973 ], [ -7.091580149879803, 68.036090644170656 ], [ -7.095886490690418, 68.039334668217208 ], [ -7.098045434440053, 68.040955103827173 ], [ -7.106712431741755, 68.04743560784263 ], [ -7.108884674059595, 68.049053692958125 ], [ -7.113243015031287, 68.05228842641236 ], [ -7.115427353080293, 68.053903769801366 ], [ -7.12100855069076, 68.058014303975938 ], [ -7.132976236573427, 68.066828466319379 ], [ -7.134482138703618, 68.067934243659664 ], [ -7.137502263948704, 68.070146439826345 ], [ -7.139710975630067, 68.071758557004415 ], [ -7.141103564823823, 68.072771459809417 ], [ -7.141799888688865, 68.073277362177947 ], [ -7.150679576612674, 68.079719780049658 ], [ -7.151267982573529, 68.08014509001967 ], [ -7.15290495204033, 68.081328319764253 ], [ -7.157369552875423, 68.08454390222056 ], [ -7.159606974780502, 68.086149647749266 ], [ -7.159633222130395, 68.086168409077231 ], [ -7.17758092465607, 68.09899723692908 ], [ -7.179832848356568, 68.100600424454655 ], [ -7.184351752669443, 68.103806135767428 ], [ -7.18661691450211, 68.105407365069993 ], [ -7.19570891742643, 68.111810771450962 ], [ -7.197987330858325, 68.113409534624282 ], [ -7.202557998920838, 68.116605503785848 ], [ -7.20484840723077, 68.118201420486514 ], [ -7.223246631039842, 68.130970053060366 ], [ -7.225551538871116, 68.132563348453061 ], [ -7.230176429933067, 68.13574920995157 ], [ -7.232400635776571, 68.137276217590227 ], [ -7.241798452392231, 68.143703960618268 ], [ -7.24412979834932, 68.145292716495703 ], [ -7.248806320189317, 68.148468610824381 ], [ -7.251149607034051, 68.150054468110511 ], [ -7.269971228249858, 68.162742297600204 ], [ -7.272329009164991, 68.164325470264828 ], [ -7.277059662461284, 68.167491020709889 ], [ -7.279430630529987, 68.169072120174576 ], [ -7.288945970073144, 68.175394733709169 ], [ -7.291330132423354, 68.176973251865718 ], [ -7.296112273476183, 68.180128610644402 ], [ -7.298508320504709, 68.181704178399173 ], [ -7.317752378460852, 68.194309362145106 ], [ -7.320162910819988, 68.195882181930472 ], [ -7.324999080601344, 68.199026960970116 ], [ -7.326605675764483, 68.200068126024036 ], [ -7.327422771088777, 68.200597650273011 ], [ -7.337149047617118, 68.206878485923511 ], [ -7.339585899692793, 68.208446536477283 ], [ -7.344473404108214, 68.211580899953589 ], [ -7.346922082243225, 68.213145948495196 ], [ -7.366587530158199, 68.225666647369621 ], [ -7.369050681655722, 68.227228884647559 ], [ -7.373992100717317, 68.230352432926964 ], [ -7.376468378835682, 68.231912482529339 ], [ -7.386405047545679, 68.238150621946204 ], [ -7.388894451822182, 68.239707975470282 ], [ -7.393887042132576, 68.242820884897043 ], [ -7.396388211535566, 68.244375185084266 ], [ -7.41647391650406, 68.256809564501935 ], [ -7.4189895439456, 68.258360990150521 ], [ -7.424035923338181, 68.26146284937758 ], [ -7.426564643456459, 68.263012030300786 ], [ -7.436711116031233, 68.269206557361059 ], [ -7.439252924139566, 68.270752985020749 ], [ -7.44435030112345, 68.273843982814839 ], [ -7.446903811058348, 68.275387306082052 ], [ -7.467408552053428, 68.28773353572123 ], [ -7.469456813927479, 68.288962186510872 ], [ -7.469976501307372, 68.289273921215226 ], [ -7.475127530128361, 68.292353634275457 ], [ -7.47770853557364, 68.293891718099133 ], [ -7.487349939369523, 68.299617546660386 ], [ -7.488064179601281, 68.300041719032549 ], [ -7.490658232195074, 68.301576992618124 ], [ -7.495860074504947, 68.304645622371993 ], [ -7.497984315217423, 68.305894654258253 ], [ -7.498465763121828, 68.306177740718482 ], [ -7.519388231128119, 68.318433995570928 ], [ -7.522008336968497, 68.319963113006281 ], [ -7.527263682147975, 68.323020224071371 ], [ -7.529896805224439, 68.324546983063499 ], [ -7.540460943858875, 68.330651546720361 ], [ -7.543107070385588, 68.332175438630088 ], [ -7.548413034408497, 68.335221245266155 ], [ -7.551070728775301, 68.336741931394386 ], [ -7.572409524763543, 68.348906391484007 ], [ -7.575081610758502, 68.350424013628924 ], [ -7.580440916766179, 68.35345806821357 ], [ -7.583125978515397, 68.354973275303507 ], [ -7.593897889926438, 68.361031493293524 ], [ -7.596595908604058, 68.362543776635817 ], [ -7.602005628224219, 68.365566306495623 ], [ -7.604715144157353, 68.367075333822555 ], [ -7.626468779276308, 68.379146185238199 ], [ -7.629192657690851, 68.380652085589475 ], [ -7.634655546375996, 68.383662630686956 ], [ -7.637392356529517, 68.385166059552432 ], [ -7.647432327330137, 68.390662952590873 ], [ -7.648371273505688, 68.391177026465982 ], [ -7.651120991247467, 68.3926774751273 ], [ -7.656634077613035, 68.395676276061465 ], [ -7.659395219499629, 68.397173418731029 ], [ -7.681562113148345, 68.409148853416184 ], [ -7.682755312830182, 68.409792216869874 ], [ -7.685146949213959, 68.411080011174505 ], [ -7.686343572678368, 68.411723463927984 ], [ -7.691139122037384, 68.414298451994227 ], [ -7.692338560232201, 68.414941572726718 ], [ -7.694740335555537, 68.416227615382269 ], [ -7.695941702936409, 68.416870018439596 ], [ -7.705574016183959, 68.4220125893996 ], [ -7.708373310774675, 68.423502211022026 ], [ -7.713985320497557, 68.426479189747141 ], [ -7.716796631043678, 68.427965801250906 ], [ -7.728071845275565, 68.433908388275512 ], [ -7.730895889808892, 68.435391882342117 ], [ -7.736557586597087, 68.438356687730163 ], [ -7.739393611465118, 68.439837146353227 ], [ -7.751123122399008, 68.445939731666755 ], [ -7.752339846200471, 68.446572764096089 ], [ -7.753958758499436, 68.447413312291218 ], [ -7.757202228772144, 68.449094342638489 ], [ -7.758825479102654, 68.449934146127106 ], [ -7.765330250501165, 68.453293153090101 ], [ -7.766957308548911, 68.454131780738578 ], [ -7.770216196130832, 68.45580851173014 ], [ -7.771846043877304, 68.456645597236474 ], [ -7.794834344626679, 68.468424801424163 ], [ -7.79697349025372, 68.469517779932204 ], [ -7.801261524308131, 68.471703642208297 ], [ -7.803408288415767, 68.47279544051267 ], [ -7.812014859596559, 68.477161902300111 ], [ -7.814913044836089, 68.478627582851175 ], [ -7.820722569808652, 68.481556473427446 ], [ -7.823633130745009, 68.483019288863886 ], [ -7.826621433432535, 68.484516639176434 ], [ -7.827367940576437, 68.484890379336832 ], [ -7.828862140784452, 68.485637859759208 ], [ -7.829608060958094, 68.486010714169311 ], [ -7.853004323698599, 68.49768911889177 ], [ -7.855933264601902, 68.499145883326179 ], [ -7.861806241977433, 68.502057893080575 ], [ -7.864747912625319, 68.503511962215555 ], [ -7.87654625701532, 68.509324937156691 ], [ -7.879500608876072, 68.510775802426821 ], [ -7.885422811568674, 68.513675199805363 ], [ -7.888388270518703, 68.515122562477757 ], [ -7.912190541479049, 68.526698388281801 ], [ -7.915170162790616, 68.528142311028859 ], [ -7.921144484950787, 68.531028571657401 ], [ -7.923550230945921, 68.53217088232816 ], [ -7.938949742938803, 68.539482970516246 ], [ -7.941363600811485, 68.540609376591505 ], [ -7.942383441803599, 68.54110564113742 ], [ -7.961413176661097, 68.550227386430208 ], [ -7.967393847235599, 68.553076214502596 ], [ -7.972523100211106, 68.555505121634553 ], [ -7.978600774257472, 68.558366112890809 ], [ -7.984683714766902, 68.56121259016939 ], [ -7.987431834271661, 68.562495006799537 ], [ -7.999648228134731, 68.568179150039526 ], [ -8.001058052471649, 68.568834038017258 ], [ -8.006654314960088, 68.571429758355919 ], [ -8.007834593403516, 68.571972676482545 ], [ -8.030430685966621, 68.582470973107831 ], [ -8.036671455622241, 68.585351649698794 ], [ -8.04284688841841, 68.588185087945647 ], [ -8.045939636172818, 68.589599804450586 ], [ -8.058342209974853, 68.595254954200925 ], [ -8.061447437867628, 68.596666301652022 ], [ -8.06767125040966, 68.599486487677439 ], [ -8.069984285730186, 68.600531413305248 ], [ -8.070787321387627, 68.600894188802442 ], [ -8.095794941461747, 68.612151686183921 ], [ -8.09892500965384, 68.613555761776524 ], [ -8.105200160022775, 68.616362131180665 ], [ -8.10834271388552, 68.617763291395192 ], [ -8.120944472641384, 68.623364078029226 ], [ -8.124099433592733, 68.624761814708961 ], [ -8.130422659385658, 68.627554721048739 ], [ -8.133588370430061, 68.628948764282484 ], [ -8.15899322621101, 68.640096651516075 ], [ -8.162172871589462, 68.641487007771104 ], [ -8.168547148697201, 68.644265873070736 ], [ -8.170265279376167, 68.645012634992923 ], [ -8.171739212023056, 68.645653259591427 ], [ -8.184538962382931, 68.651198813631055 ], [ -8.187743356799672, 68.652582722490024 ], [ -8.194165393635956, 68.655347915162736 ], [ -8.19738044237954, 68.656728083751574 ], [ -8.22318009822618, 68.667764626796185 ], [ -8.226409014617332, 68.669141047274763 ], [ -8.23288180312943, 68.671891975690841 ], [ -8.236123067063318, 68.673265372377529 ], [ -8.24911956664846, 68.678754829379926 ], [ -8.252373082446923, 68.680124694531912 ], [ -8.258893303605987, 68.682861742108742 ], [ -8.26215737563092, 68.684227820668895 ], [ -8.288349297001446, 68.69515129552704 ], [ -8.29162716598222, 68.696513565102407 ], [ -8.298197826016974, 68.699236126484976 ], [ -8.301487969306606, 68.700595318466696 ], [ -8.314679926514202, 68.706027819270219 ], [ -8.317982239475953, 68.707383426229796 ], [ -8.324599993589175, 68.71009189993822 ], [ -8.327912762051312, 68.711443674373271 ], [ -8.354494316241357, 68.722252368058605 ], [ -8.357820806923996, 68.723600272908897 ], [ -8.364488673776862, 68.726294039782658 ], [ -8.367827362891546, 68.727638813586793 ], [ -8.381213436564281, 68.733013504492618 ], [ -8.384564210017743, 68.734354640119193 ], [ -8.391278820972445, 68.737034113962352 ], [ -8.394639946685857, 68.738371371580939 ], [ -8.421584118149951, 68.749053954544763 ], [ -8.42160840108545, 68.749063582024888 ], [ -8.424983170261555, 68.75039690977124 ], [ -8.43174755450417, 68.753061457532795 ], [ -8.435134443507195, 68.754391601109148 ], [ -8.448713242820418, 68.759707634145485 ], [ -8.452112127678447, 68.76103408673751 ], [ -8.458922894450779, 68.7636841375801 ], [ -8.46233202574075, 68.765006667111322 ], [ -8.489684548748471, 68.77558070414716 ], [ -8.493107240733138, 68.776899243864392 ], [ -8.499967427901709, 68.779534150808331 ], [ -8.503402158309086, 68.780849453549081 ], [ -8.517172242426568, 68.78610598663559 ], [ -8.519732292657579, 68.787080171049354 ], [ -8.5206188770822, 68.787417545963933 ], [ -8.527525073670517, 68.790037753657231 ], [ -8.530981846462169, 68.791345345360867 ], [ -8.552568854538094, 68.799482554355649 ], [ -8.558715505751707, 68.801799530629864 ], [ -8.562185752321795, 68.803103072898836 ], [ -8.569141002991444, 68.80570792039353 ], [ -8.572623203845581, 68.807008173236795 ], [ -8.58658308193634, 68.812204370482505 ], [ -8.590077092405011, 68.813500827916357 ], [ -8.597077967816858, 68.816090775434674 ], [ -8.600582005414537, 68.817383221088392 ], [ -8.628693768967253, 68.827715889013291 ], [ -8.632211189411237, 68.829004226008607 ], [ -8.639260738987048, 68.831578598559133 ], [ -8.6427900267729, 68.832863594025412 ], [ -8.656938157633022, 68.83799862586676 ], [ -8.660479157124769, 68.839279774283284 ], [ -8.667573935129496, 68.841839047773817 ], [ -8.671124848379975, 68.843116140803033 ], [ -8.690844760815139, 68.850183655029866 ], [ -8.699611582845591, 68.853325638526343 ], [ -8.700598403502681, 68.853678790260858 ], [ -8.702576711737606, 68.854386178680272 ], [ -8.703566017025423, 68.854739634079692 ], [ -8.707529936193794, 68.856154608159642 ], [ -8.708520832450859, 68.856508011818335 ], [ -8.710503993314546, 68.857214721141219 ], [ -8.711495457382284, 68.857567741672426 ], [ -8.719441506121825, 68.860394258703877 ], [ -8.723021191427677, 68.861663780104237 ], [ -8.730192434027686, 68.864199449430657 ], [ -8.733782490167187, 68.86546506699591 ], [ -8.748170783323928, 68.870521427272877 ], [ -8.751771997700928, 68.871782979311718 ], [ -8.758987109477857, 68.87430298742305 ], [ -8.762598634119342, 68.875560615202374 ], [ -8.783511063650053, 68.882818760886494 ], [ -8.786125978599443, 68.883724030852335 ], [ -8.791364199643283, 68.885533567641289 ], [ -8.793985393622222, 68.886437103655027 ], [ -8.804487783077832, 68.890049058319619 ], [ -8.807114697423174, 68.890950438310199 ], [ -8.812375495629567, 68.89275169687258 ], [ -8.815006709557565, 68.89365066291677 ], [ -8.844452220793528, 68.903683333801325 ], [ -8.845769129889788, 68.90413140880554 ], [ -8.847750608076296, 68.904805131632031 ], [ -8.851412625092223, 68.906046645846857 ], [ -8.858747507851433, 68.908525918274904 ], [ -8.862419385317423, 68.909763343496763 ], [ -8.875360682867552, 68.914110949427766 ], [ -8.878598563932144, 68.915195681226635 ], [ -8.88508423077235, 68.917362746497247 ], [ -8.888329158052045, 68.9184441264795 ], [ -8.917920998096974, 68.928274333920086 ], [ -8.921623054524161, 68.929499804851218 ], [ -8.929041649999078, 68.931948189992625 ], [ -8.932755198486632, 68.933170114906034 ], [ -8.947639920114682, 68.938052325136084 ], [ -8.949258617934561, 68.938582421484767 ], [ -8.952499995083826, 68.939642533340134 ], [ -8.956230380970226, 68.940859041538857 ], [ -8.960451126009843, 68.94223143679568 ], [ -8.962561151017724, 68.942916358832008 ], [ -8.992514419435395, 68.952616923891924 ], [ -8.996261556820571, 68.95382617592378 ], [ -9.003770249840898, 68.956242060051551 ], [ -9.007528778505389, 68.957447715961223 ], [ -9.022593289766121, 68.962264716587867 ], [ -9.026362993493876, 68.963466273913866 ], [ -9.033914758811306, 68.965866090133915 ], [ -9.035624735094984, 68.966407856008232 ], [ -9.037693770624742, 68.967063381382303 ], [ -9.068004828991036, 68.976632723097595 ], [ -9.071796590815552, 68.97782555901901 ], [ -9.079394465222606, 68.980208547992618 ], [ -9.080058011603739, 68.980416521681207 ], [ -9.083197514756478, 68.981397738117295 ], [ -9.098439971181051, 68.986148742598346 ], [ -9.102254079009128, 68.987333785261967 ], [ -9.109894559591737, 68.989700518245002 ], [ -9.1137178467784, 68.990881254287899 ], [ -9.144382954613889, 69.000317807149315 ], [ -9.148218871704614, 69.001494031718096 ], [ -9.155904985959012, 69.003843735330037 ], [ -9.159752084367653, 69.005016264860217 ], [ -9.175170590758569, 69.009700494583797 ], [ -9.179028627542664, 69.010868828282554 ], [ -9.186756870236024, 69.013202089835147 ], [ -9.190623955174601, 69.014366076939609 ], [ -9.196451002715804, 69.016113744052348 ], [ -9.221639271555887, 69.023668291834525 ], [ -9.225518862071851, 69.024827711828124 ], [ -9.233292249437739, 69.027143743968423 ], [ -9.237182912242645, 69.028299420180758 ], [ -9.252775522983427, 69.032916104771999 ], [ -9.256677000964487, 69.034067537264093 ], [ -9.264492027395988, 69.036366943328943 ], [ -9.26840241982211, 69.037513989819985 ], [ -9.299764002002632, 69.046680334022597 ], [ -9.303686771491357, 69.047822758306836 ], [ -9.311546439890492, 69.050104737020376 ], [ -9.315480169853686, 69.051243369246038 ], [ -9.331244888705783, 69.055791746710213 ], [ -9.335189307660016, 69.056926087908067 ], [ -9.340313194725411, 69.058395112496612 ], [ -9.343090114257336, 69.059191258668534 ], [ -9.347043311268749, 69.060321174983358 ], [ -9.378747116354589, 69.069350133057185 ], [ -9.382712557732532, 69.07047537263 ], [ -9.390657489890202, 69.072722920261555 ], [ -9.394633777243257, 69.073844320001911 ], [ -9.410568557662259, 69.078323637015387 ], [ -9.414555404453552, 69.079440698904079 ], [ -9.422540962439086, 69.081671258881784 ], [ -9.426536448785384, 69.082783857700093 ], [ -9.458578332507329, 69.091673931524213 ], [ -9.462585926207964, 69.092781799606826 ], [ -9.47061507976349, 69.094994542925008 ], [ -9.474633402111692, 69.096098523874332 ], [ -9.490736147309576, 69.100508035988526 ], [ -9.494764896606057, 69.101607632879563 ], [ -9.502834152124763, 69.103803211062115 ], [ -9.506871399699492, 69.104898307208686 ], [ -9.53924711821378, 69.113648016858832 ], [ -9.54329633215616, 69.114738328929604 ], [ -9.551408639685519, 69.1169158992262 ], [ -9.555468462158842, 69.118002277358187 ], [ -9.571737025243522, 69.12234124922017 ], [ -9.575807138947368, 69.123423197633343 ], [ -9.583959013124286, 69.125583427582683 ], [ -9.588037481595052, 69.126660838248341 ], [ -9.594649395250144, 69.128401068215226 ], [ -9.620742690355542, 69.13526872203613 ], [ -9.624832979869836, 69.136341295856113 ], [ -9.633027348994062, 69.138483329062211 ], [ -9.637128124267633, 69.139551922679004 ], [ -9.6535603085552, 69.143819628289776 ], [ -9.657671236324973, 69.144883747142387 ], [ -9.665904625446103, 69.147008267125955 ], [ -9.670023761904076, 69.14806781181332 ], [ -9.703054017615159, 69.156532427153167 ], [ -9.707184825728689, 69.157587082884817 ], [ -9.710414579975151, 69.158409082471252 ], [ -9.715460139185495, 69.159693219674239 ], [ -9.719601307466121, 69.16074384944389 ], [ -9.736194866544565, 69.164939572341183 ], [ -9.740346045363481, 69.16598568287236 ], [ -9.74865982085322, 69.168074135942589 ], [ -9.752819060179149, 69.169115636603408 ], [ -9.786169819716633, 69.17743556005351 ], [ -9.790854707294955, 69.178599467671972 ], [ -9.800240460423879, 69.180922909828496 ], [ -9.80493781712687, 69.182081573735019 ], [ -9.823761592132257, 69.186707043931563 ], [ -9.828471241858381, 69.187859915439788 ], [ -9.837904465706401, 69.190160761784597 ], [ -9.842624229952662, 69.191307809214265 ], [ -9.880473740958507, 69.200467255318785 ], [ -9.885562937303916, 69.201693261362834 ], [ -9.895759462267392, 69.204140094274408 ], [ -9.900862869609171, 69.205359977651312 ], [ -9.921315230805362, 69.210228562276171 ], [ -9.926433935777879, 69.211441999958964 ], [ -9.936687018326552, 69.213863083073392 ], [ -9.941819827244785, 69.215070355603331 ], [ -9.944857047381618, 69.215782035929038 ], [ -9.945926543759015, 69.21603249556091 ], [ -9.947709127729581, 69.216449714765702 ], [ -9.948772916283019, 69.216698558399742 ], [ -9.959712836039159, 69.219253478419915 ], [ -9.997169063717195, 69.228001044042628 ], [ -10.001611992184564, 69.229034185277584 ], [ -10.010513851130895, 69.231097153214876 ], [ -10.014968337951188, 69.232125946752859 ], [ -10.032818149474451, 69.236233577871303 ], [ -10.03888190894952, 69.237622331032412 ], [ -10.047346258400637, 69.239551879523702 ], [ -10.051029188691871, 69.240391447009358 ], [ -10.057111075379567, 69.24177143530224 ], [ -10.063521228063223, 69.243219321679987 ], [ -10.065122347223507, 69.243580501685358 ], [ -10.068326637734401, 69.244302436220266 ], [ -10.06992609767417, 69.244662356079147 ], [ -10.118752453682816, 69.255624477443916 ], [ -10.124861114834403, 69.256988373512002 ], [ -10.137102088210838, 69.259708632265557 ], [ -10.143229463436285, 69.26106389397782 ], [ -10.167788981336173, 69.266468885929783 ], [ -10.168886285256519, 69.266710048505558 ], [ -10.171084738726734, 69.267192810649959 ], [ -10.177235283543553, 69.26853735388849 ], [ -10.18734873845932, 69.270737858531163 ], [ -10.192407824948702, 69.271834338701467 ], [ -10.241826193943893, 69.282493506962567 ], [ -10.248008543387641, 69.283819500464517 ], [ -10.260396544058608, 69.28646380843611 ], [ -10.266039564497362, 69.287663076592537 ], [ -10.266597198651766, 69.287781052571233 ], [ -10.291449081135056, 69.293033665118799 ], [ -10.295652886967559, 69.293917642077901 ], [ -10.297667772795876, 69.294341332590363 ], [ -10.310124937844705, 69.296948212172765 ], [ -10.316358378099778, 69.298246373855022 ], [ -10.36635421727118, 69.30859893638322 ], [ -10.37260843065161, 69.309886572657376 ], [ -10.377378032003435, 69.310863777497161 ], [ -10.385139798334876, 69.312454022690929 ], [ -10.391411897802413, 69.313732797112664 ], [ -10.416548779946822, 69.318831226463715 ], [ -10.422838450682605, 69.32010031297915 ], [ -10.435437169147349, 69.322629908980701 ], [ -10.441741126536783, 69.323889399266619 ], [ -10.492299517258687, 69.333931793386995 ], [ -10.498623723736046, 69.335180629131315 ], [ -10.499999999737639, 69.335451052148272 ], [ -10.511294705295768, 69.337670336863312 ], [ -10.51763636862313, 69.338910200845532 ], [ -10.543050700667834, 69.343852689100657 ], [ -10.549409458036394, 69.345082756822279 ], [ -10.557026805849432, 69.3465488974241 ], [ -10.562145935032561, 69.347534196156118 ], [ -10.56851850864058, 69.348754580146533 ], [ -10.619624167820746, 69.358483336336946 ], [ -10.62601645072607, 69.359692940238432 ], [ -10.638823201529192, 69.362104044666296 ], [ -10.645232503135446, 69.36330456934428 ], [ -10.67091655285617, 69.368089405201943 ], [ -10.677342458887097, 69.369280028450646 ], [ -10.690212808673721, 69.371652461591964 ], [ -10.696652052571267, 69.372833316375335 ], [ -10.701383826511403, 69.373695760054574 ], [ -10.748289333752098, 69.382245060807662 ], [ -10.751513756987549, 69.382830602675028 ], [ -10.757973270549542, 69.384000578664256 ], [ -10.761204017551108, 69.38458422428269 ], [ -10.774145532931072, 69.386915698426208 ], [ -10.777381205078086, 69.387497006981619 ], [ -10.783857983958313, 69.388657559599011 ], [ -10.787096476103898, 69.389236336033889 ], [ -10.813050955137157, 69.393860515350667 ], [ -10.816294939954901, 69.394436689151178 ], [ -10.822790065340428, 69.39558727204448 ], [ -10.826038586443644, 69.396161216646362 ], [ -10.839047633241307, 69.398453207349746 ], [ -10.842300830018871, 69.399024763382187 ], [ -10.848812612311633, 69.40016579171845 ], [ -10.852069933380335, 69.400735041888822 ], [ -10.85784866682917, 69.401742269801105 ], [ -10.860547374661223, 69.402211610877345 ], [ -10.865948042888419, 69.403148787662587 ], [ -10.868648887635743, 69.403616429255038 ], [ -10.879461334072857, 69.405484177253186 ], [ -10.88216434450851, 69.405950000892119 ], [ -10.887574275631948, 69.406880255120086 ], [ -10.890279012803433, 69.40734431065809 ], [ -10.911947607030982, 69.411052270946414 ], [ -10.914654855336948, 69.411514322228442 ], [ -10.920074704938429, 69.412437277425965 ], [ -10.922785119090463, 69.412897807659903 ], [ -10.93363791955403, 69.414737451972002 ], [ -10.936350263369718, 69.415196127474729 ], [ -10.941778830263218, 69.416112076091224 ], [ -10.944491399358071, 69.416568734259755 ], [ -10.988006153260926, 69.423871043114588 ], [ -10.99344671382886, 69.424779186536227 ], [ -11.004343270824847, 69.42658983305472 ], [ -11.00979487156502, 69.427491603910823 ], [ -11.015310995577522, 69.428399653226307 ], [ -11.031633752085725, 69.431086660985528 ], [ -11.037095771252552, 69.431981460276631 ], [ -11.048032193730307, 69.433764897732146 ], [ -11.053502179781447, 69.434652817273928 ], [ -11.097350498526339, 69.441731936879734 ], [ -11.102832547183851, 69.442612175312007 ], [ -11.113811848437706, 69.444366933387585 ], [ -11.119304670973463, 69.44524074256654 ], [ -11.141307928417859, 69.448723788972245 ], [ -11.1468108700588, 69.449590574322485 ], [ -11.157828880897796, 69.451317919386639 ], [ -11.163339499530309, 69.452177784390898 ], [ -11.207511796032122, 69.459032010719085 ], [ -11.212287349880825, 69.459769345079422 ], [ -11.221851156005755, 69.461239911093259 ], [ -11.226635148193111, 69.461972485342187 ], [ -11.245796874425878, 69.464893883546154 ], [ -11.25058842631438, 69.465621196760878 ], [ -11.260180773323782, 69.46707117729332 ], [ -11.264977696114158, 69.467793260773703 ], [ -11.300321579895268, 69.473087394193186 ], [ -11.303423511114687, 69.473552030107015 ], [ -11.308576174050756, 69.474319811010474 ], [ -11.318894224488531, 69.475850336624006 ], [ -11.32405563515897, 69.47661248957516 ], [ -11.344728378910986, 69.479650424627579 ], [ -11.349899215376126, 69.480406631261417 ], [ -11.360251112074479, 69.481913622510888 ], [ -11.365430594346094, 69.482664175111779 ], [ -11.368388383946183, 69.483090890538676 ], [ -11.369430234717242, 69.483241098298492 ], [ -11.371166748027292, 69.483491299281098 ], [ -11.37220404338143, 69.483640659888721 ], [ -11.410633822475404, 69.489023571740262 ], [ -11.413872769730801, 69.489508716026961 ], [ -11.420362252415714, 69.490451298588738 ], [ -11.423606874835968, 69.490927725129552 ], [ -11.433478305978497, 69.492375031183116 ], [ -11.436601413124379, 69.492819821477752 ], [ -11.441391865357673, 69.493500581151295 ], [ -11.450980259223684, 69.494860241615868 ], [ -11.455776910671887, 69.495538959446947 ], [ -11.461943913725179, 69.496409743947822 ], [ -11.463484282690274, 69.496627085815874 ], [ -11.466566434633194, 69.497061668627026 ], [ -11.468105577210224, 69.497275847102884 ], [ -11.497701710276999, 69.501330840727661 ], [ -11.506570493932827, 69.502509851948219 ], [ -11.511379770703002, 69.503147479873263 ], [ -11.520987488781259, 69.504591554057043 ], [ -11.525800892396944, 69.505249411731171 ], [ -11.54507794049411, 69.507871721502994 ], [ -11.549897909166305, 69.508524318814636 ], [ -11.559546375906905, 69.509824860752957 ], [ -11.564370977638077, 69.51047228207031 ], [ -11.603033968529587, 69.515633199011319 ], [ -11.607866192992901, 69.516274815800699 ], [ -11.617541683101763, 69.51755372462506 ], [ -11.619539539287928, 69.517817267123462 ], [ -11.622381045648353, 69.518190499492022 ], [ -11.633494964898432, 69.519645865280182 ], [ -11.641761580713933, 69.520728377103211 ], [ -11.6466073084801, 69.521359862368172 ], [ -11.656307120323618, 69.522618145074034 ], [ -11.661157288777304, 69.523244434883281 ], [ -11.700024072952033, 69.528236010383779 ], [ -11.704881631481669, 69.528856462555893 ], [ -11.714607632136222, 69.530092993497021 ], [ -11.719472150025524, 69.530708572799199 ], [ -11.738952957396066, 69.533161565421665 ], [ -11.743823638297954, 69.533771827362983 ], [ -11.75357318435465, 69.53498762567861 ], [ -11.758448113289489, 69.535592672463991 ], [ -11.797512222033447, 69.540414017585192 ], [ -11.802394306146141, 69.54101319398427 ], [ -11.812169196650643, 69.542207126757631 ], [ -11.817058058782038, 69.542801399665137 ], [ -11.836635886936222, 69.545169069997002 ], [ -11.84153070797538, 69.545757999132775 ], [ -11.8513283590637, 69.546931096959298 ], [ -11.856227233257471, 69.547514792974368 ], [ -11.895482129296454, 69.55216504548099 ], [ -11.895870400125716, 69.552210775201729 ], [ -11.900387920415739, 69.552742839394256 ], [ -11.910210062044484, 69.553893960638163 ], [ -11.915122447742533, 69.554466821586885 ], [ -11.934794011334191, 69.556748746058418 ], [ -11.93971215082513, 69.557316237722119 ], [ -11.949556261312068, 69.558446424163606 ], [ -11.954478257165647, 69.559008665018212 ], [ -11.99391733423397, 69.563486993610525 ], [ -11.998846006271663, 69.564043301605835 ], [ -12.008713742671489, 69.565151404874342 ], [ -12.013648825272639, 69.565702751492324 ], [ -12.033410804931293, 69.567898521738925 ], [ -12.038351431472961, 69.56844447333404 ], [ -12.048240338020719, 69.569531546843479 ], [ -12.053184624470475, 69.570072230948966 ], [ -12.092801210909499, 69.574377832908738 ], [ -12.097751928708135, 69.574912554870735 ], [ -12.107663589060792, 69.575977442088771 ], [ -12.108197435550807, 69.576034492610603 ], [ -12.112620531503779, 69.576507175195758 ], [ -12.132469575395419, 69.578616397271162 ], [ -12.137431851098654, 69.579140711174915 ], [ -12.143326606965445, 69.579760196393948 ], [ -12.156666667032709, 69.578333333117001 ], [ -12.407059793434144, 69.579461230145483 ], [ -12.67284353223431, 69.58065845428905 ], [ -12.925308746892796, 69.581795685027345 ], [ -13.266666666562855, 69.583333333392602 ], [ -13.62955555589528, 69.909555555546063 ], [ -13.185941572856024, 70.923391588922925 ], [ -12.767027777609542, 71.880777777572519 ], [ -11.474638889273052, 72.822833332892202 ], [ -5.02375204121762, 74.359203433352121 ], [ -5.007694444542722, 74.363027777810032 ], [ -4.972303278373204, 74.360154139002589 ], [ -4.908798360755441, 74.354899277979825 ], [ -4.845441583062353, 74.349533860599649 ], [ -4.782235860895923, 74.344058166551235 ], [ -4.719184055899063, 74.338472471927076 ], [ -4.65628911065366, 74.332776999758892 ], [ -4.593553888600752, 74.326972110674717 ], [ -4.53098124958467, 74.321058027705845 ], [ -4.468574028268392, 74.31503508270319 ], [ -4.40633502783885, 74.308903556254137 ], [ -4.344267110838075, 74.302663778410931 ], [ -4.282373000413259, 74.296316000083408 ], [ -4.220655499751274, 74.289860582799662 ], [ -4.159117332898234, 74.283297806248839 ], [ -4.097761277860343, 74.276628056240185 ], [ -4.036590000227989, 74.269851582784753 ], [ -3.975606167390367, 74.262968750108143 ], [ -3.914812527675565, 74.255979917039895 ], [ -3.854211666634797, 74.248885389349596 ], [ -3.793806221979025, 74.241685527665226 ], [ -3.73359880623957, 74.234380694413687 ], [ -3.673592028349105, 74.226971222344389 ], [ -3.613788444181012, 74.219457472084883 ], [ -3.554190582628848, 74.21183983304212 ], [ -3.494800999566166, 74.204118666743085 ], [ -3.435622167228814, 74.196294305937954 ], [ -3.376656556054911, 74.18836716701145 ], [ -3.317906667058651, 74.180337639370691 ], [ -3.259374943698276, 74.172206055765116 ], [ -3.201063750291382, 74.163972861358531 ], [ -3.142975499719171, 74.155638443759614 ], [ -3.085112556299009, 74.1472031671926 ], [ -3.027477305932507, 74.138667472326119 ], [ -2.970072028400807, 74.130031721586903 ], [ -2.91289902776748, 74.121296361038503 ], [ -2.855960610793204, 74.112461806167801 ], [ -2.799259027581741, 74.103528443683047 ], [ -2.742796500357827, 74.094496722346094 ], [ -2.686575221668761, 74.085367082824916 ], [ -2.63059741733673, 74.076139917223628 ], [ -2.574865193573373, 74.066815667109665 ], [ -2.51938072224209, 74.057394777647062 ], [ -2.464146139232582, 74.047877721879956 ], [ -2.409163500394811, 74.038264889213394 ], [ -2.35443486067993, 74.02855674999438 ], [ -2.299962305615622, 74.018753750285583 ], [ -2.245747805616418, 74.008856361332192 ], [ -2.191793388653593, 73.998865028298667 ], [ -2.138100999960784, 73.988780222429597 ], [ -2.084672610852039, 73.978602416768581 ], [ -2.031510110802571, 73.968332027701479 ], [ -1.978615417167418, 73.95796961100919 ], [ -1.92599038884498, 73.947515583077973 ], [ -1.873636861351599, 73.936970416951425 ], [ -1.821556693586103, 73.926334638732953 ], [ -1.76975163922657, 73.915608693586648 ], [ -1.718223528392798, 73.904793083334454 ], [ -1.666974028428172, 73.893888278321867 ], [ -1.616004944272447, 73.882894833430385 ], [ -1.565317917187826, 73.871813166844419 ], [ -1.514914638799212, 73.860643833446346 ], [ -1.464796750369374, 73.849387306279596 ], [ -1.414965888664426, 73.838044111446749 ], [ -1.365423667068171, 73.826614749871112 ], [ -1.31617161083085, 73.815099693696112 ], [ -1.267211306356387, 73.803499528380883 ], [ -1.218544277995704, 73.791814693693652 ], [ -1.170172027616672, 73.78004577779086 ], [ -1.122096000429678, 73.768193222239603 ], [ -1.074317666826516, 73.756257638579342 ], [ -1.02683847201763, 73.744239471974339 ], [ -0.979659806354562, 73.732139306084377 ], [ -0.932782999935057, 73.719957639133924 ], [ -0.886209471889174, 73.707695027803481 ], [ -0.839940528032514, 73.695351972116072 ], [ -0.793977443603808, 73.682929027852651 ], [ -0.748321528015651, 73.670426749895114 ], [ -0.702974055607854, 73.657845667044398 ], [ -0.657936193700039, 73.645186306303373 ], [ -0.613209194148624, 73.632449221654525 ], [ -0.568794221575672, 73.619634971577113 ], [ -0.524692444200582, 73.606744083073266 ], [ -0.480904999665626, 73.593777138904017 ], [ -0.437433000432065, 73.580734639092839 ], [ -0.394277499606659, 73.567617194278569 ], [ -0.351439582670281, 73.554425333262742 ], [ -0.308920278447602, 73.541159610927537 ], [ -0.266720639145888, 73.527820583053995 ], [ -0.224841610851342, 73.514408833301275 ], [ -0.183284166630642, 73.50092491655198 ], [ -0.142049277751767, 73.4873693885867 ], [ -0.101137860623226, 73.473742806085937 ], [ -0.060550777695823, 73.460045722132662 ], [ -0.020288943579658, 73.446278777943746 ], [ -0.000011459155559, 73.439253341871932 ], [ -0.000000001248935, 73.439249372109913 ], [ 0.000011459156326, 73.439245401482253 ], [ 0.019646806255594, 73.432442443864204 ], [ 0.059255639036877, 73.418537361110708 ], [ 0.098536749871613, 73.404564082766456 ], [ 0.137489360845876, 73.390523194290097 ], [ 0.176112694045941, 73.376415249664234 ], [ 0.214406028216217, 73.362240805568973 ], [ 0.252368610623165, 73.348000499623879 ], [ 0.289999806346344, 73.333694860629862 ], [ 0.32729888873331, 73.319324472246677 ], [ 0.364265221962711, 73.304889944215887 ], [ 0.400898193596987, 73.290391806237182 ], [ 0.437197193895713, 73.275830694131429 ], [ 0.473161611319597, 73.261207167277291 ], [ 0.508790917067472, 73.246521805737302 ], [ 0.544084528378818, 73.231775194070053 ], [ 0.57904194433064, 73.21696794381603 ], [ 0.613662638819989, 73.202100582875801 ], [ 0.647946166682573, 73.187173777648042 ], [ 0.681892055774227, 73.172188028155176 ], [ 0.715499888809148, 73.157143999896107 ], [ 0.748769193643682, 73.142042221671716 ], [ 0.781699582670228, 73.126883332899922 ], [ 0.814290722239463, 73.111667889361854 ], [ 0.846542222046168, 73.096396499898702 ], [ 0.878453722361996, 73.081069722090035 ], [ 0.910024944396184, 73.065688193555417 ], [ 0.941255556299268, 73.05025247187433 ], [ 0.97214530626124, 73.034763166787059 ], [ 1.00269388941183, 73.019220888933376 ], [ 1.03290111059826, 73.003626167114049 ], [ 1.062127028439903, 72.98831722196249 ], [ 1.06801855641163, 72.985208166723822 ], [ 1.097539416810918, 72.969510693763766 ], [ 1.126718333384815, 72.953762610556311 ], [ 1.155555166737912, 72.937964499862204 ], [ 1.184049749596852, 72.922116944441711 ], [ 1.212201917384846, 72.906220527955298 ], [ 1.240011610747558, 72.890275888921309 ], [ 1.267478721765997, 72.874283556141478 ], [ 1.294603138924202, 72.858244194214677 ], [ 1.321384805564776, 72.842158332840938 ], [ 1.34782372168786, 72.826026611439204 ], [ 1.373919833334128, 72.809849610971412 ], [ 1.399673110825574, 72.793627916895133 ], [ 1.425083582941625, 72.777362111073046 ], [ 1.45015127755974, 72.761052805942455 ], [ 1.474876221660651, 72.744700611244411 ], [ 1.499258471901243, 72.728306082759758 ], [ 1.523298111019358, 72.711869832926595 ], [ 1.546995221752326, 72.695392472384924 ], [ 1.570349888636912, 72.678874556016183 ], [ 1.593362278047152, 72.662316722338943 ], [ 1.616032471821626, 72.645719500155138 ], [ 1.638360666911467, 72.629083527982857 ], [ 1.660347000014298, 72.612409388582648 ], [ 1.681991639303192, 72.595697667413589 ], [ 1.703294832990423, 72.578948943638949 ], [ 1.72425672227007, 72.562163833294477 ], [ 1.744877611113196, 72.545342888563852 ], [ 1.765157666793215, 72.528486749763999 ], [ 1.785097167200831, 72.51159594389793 ], [ 1.804696389327319, 72.494671111282884 ], [ 1.823955638941953, 72.477712832881537 ], [ 1.842875139076767, 72.46072166717164 ], [ 1.861455278238935, 72.443698194216438 ], [ 1.873152778078804, 72.432766666748677 ], [ 1.87969630643974, 72.42664302825338 ], [ 1.897598611287179, 72.409556750243866 ], [ 1.899319027851163, 72.407895917362964 ], [ 1.911638861244768, 72.395982694446076 ], [ 1.929147611073944, 72.378861916644382 ], [ 1.946318582736808, 72.361711249874588 ], [ 1.963152167438977, 72.344531305675247 ], [ 1.979648777969032, 72.327322638928905 ], [ 1.995808806431597, 72.310085833295062 ], [ 2.011632638635888, 72.292821500312471 ], [ 2.027120722443897, 72.27553019396359 ], [ 2.042273500322466, 72.258212499707213 ], [ 2.057091417435259, 72.240868972425318 ], [ 2.071574889270011, 72.223500221857933 ], [ 2.085724443728452, 72.206106805584966 ], [ 2.099540555652482, 72.188689333346701 ], [ 2.113023693589099, 72.17124830606474 ], [ 2.126174361158064, 72.153784361359527 ], [ 2.138993082664911, 72.136298055910913 ], [ 2.151480416588328, 72.118789943701472 ], [ 2.163636833273785, 72.101260611088662 ], [ 2.17546294425992, 72.083710611156221 ], [ 2.186959278348439, 72.066140527563732 ], [ 2.1981263886222, 72.048550916991587 ], [ 2.208964889318679, 72.030942389180069 ], [ 2.219475332620959, 72.013315444152909 ], [ 2.229658332766093, 71.995670667367818 ], [ 2.239514528273133, 71.978008638887729 ], [ 2.249044472225251, 71.960329917192439 ], [ 2.258248832817713, 71.942635028384188 ], [ 2.267128221590582, 71.924924583103035 ], [ 2.275683305840062, 71.907199111050573 ], [ 2.283914722286994, 71.889459194086896 ], [ 2.291823139126876, 71.87170536101371 ], [ 2.299409249737437, 71.853938166713391 ], [ 2.306673666557145, 71.836158166966214 ], [ 2.313617166599187, 71.818365943633694 ], [ 2.320240361403791, 71.8005620003361 ], [ 2.326544000105855, 71.782746917137047 ], [ 2.332528805760006, 71.764921249816155 ], [ 2.338195471744029, 71.747085528074678 ], [ 2.343544722011728, 71.729240305895615 ], [ 2.348577305698399, 71.711386139059442 ], [ 2.353293944060511, 71.693523527588951 ], [ 2.35769541681077, 71.675653083023747 ], [ 2.361782472183677, 71.657775278406689 ], [ 2.365555861114501, 71.639890693800965 ], [ 2.369016360616996, 71.621999860705415 ], [ 2.372164778282325, 71.604103333102614 ], [ 2.375001832668858, 71.586201611016037 ], [ 2.377528361045336, 71.568295222346961 ], [ 2.379745167405844, 71.550384749856619 ], [ 2.381653027865525, 71.532470693567745 ], [ 2.383252777893773, 71.514553611060506 ], [ 2.384545222384418, 71.496633971780682 ], [ 2.385531167130182, 71.478712361186751 ], [ 2.386211471882518, 71.460789278402956 ], [ 2.386586944232363, 71.442865250431225 ], [ 2.38665844393239, 71.424940806073835 ], [ 2.386426805552873, 71.407016472332657 ], [ 2.385892888846229, 71.389092750130573 ], [ 2.385057556261501, 71.371170194349048 ], [ 2.383921638772989, 71.353249278032195 ], [ 2.382486027608479, 71.335330556060455 ], [ 2.380751583419396, 71.317414499679955 ], [ 2.37871919383619, 71.299501667368105 ], [ 2.376389722208415, 71.281592527673126 ], [ 2.37376408314617, 71.263687611194598 ], [ 2.370843139100145, 71.245787444035585 ], [ 2.367627832558696, 71.227892528017975 ], [ 2.364118999892412, 71.210003332588087 ], [ 2.36031758269084, 71.192120417123903 ], [ 2.356224500061046, 71.174244222293282 ] ], [ [ -7.964532017438387, 71.159219145447366 ], [ -7.980933665855673, 71.157161355412285 ], [ -8.006511807573588, 71.158618927121836 ], [ -8.068245053566045, 71.157951354971317 ], [ -8.080634116770796, 71.155151963292582 ], [ -8.084132075734431, 71.15189576188007 ], [ -8.083032965698465, 71.146011709972498 ], [ -8.086249947676606, 71.144811034102133 ], [ -8.11042916787153, 71.143126368287454 ], [ -8.123572945734622, 71.143898844556531 ], [ -8.156169056756255, 71.143340945628239 ], [ -8.175317644793154, 71.13810074355473 ], [ -8.179662346939381, 71.13726413213405 ], [ -8.223838805816058, 71.131080269639085 ], [ -8.238995552402685, 71.127231120919703 ], [ -8.28319311117275, 71.12196922270158 ], [ -8.284916401070632, 71.121539950208643 ], [ -8.297075032786211, 71.116616845491137 ], [ -8.310439347797399, 71.113569856064146 ], [ -8.325762272011048, 71.105528116529428 ], [ -8.329699158589108, 71.104076027986338 ], [ -8.385859847253812, 71.08510112781488 ], [ -8.387627005181798, 71.084275961166782 ], [ -8.392179131461376, 71.07811796677106 ], [ -8.409038662504003, 71.072316050845302 ], [ -8.419367074930278, 71.065864324379163 ], [ -8.42227184736754, 71.062987208792691 ], [ -8.429064631826805, 71.049931525819574 ], [ -8.445227265625533, 71.042900323890791 ], [ -8.451539159204515, 71.040399551198391 ], [ -8.459703922397807, 71.033591150911036 ], [ -8.462147235606096, 71.024389743691842 ], [ -8.457365155377317, 71.020002245507442 ], [ -8.466134309750259, 71.011261224626026 ], [ -8.480226874170569, 71.006415843816285 ], [ -8.497187256986081, 71.003179549796585 ], [ -8.497228025952325, 70.999850154361411 ], [ -8.50403583088837, 70.994980454084867 ], [ -8.530622601851292, 70.98995387517158 ], [ -8.556194067002366, 70.986887454992114 ], [ -8.565871000645814, 70.98387217566065 ], [ -8.642452478099074, 70.978846550028379 ], [ -8.686005234653635, 70.977602005228562 ], [ -8.688561916398953, 70.975744843150039 ], [ -8.699029564562437, 70.973439217046291 ], [ -8.696135521037149, 70.972065925302502 ], [ -8.697450876656347, 70.970563769702238 ], [ -8.690215348759068, 70.970563769702238 ], [ -8.687452673701614, 70.969491005305656 ], [ -8.685874104505899, 70.966315150224318 ], [ -8.68675005407141, 70.963994026103506 ], [ -8.697832465295676, 70.95980834927596 ], [ -8.757831454157895, 70.949231267109582 ], [ -8.773326158774864, 70.941252708545704 ], [ -8.806306123828335, 70.940179824539712 ], [ -8.814583301377922, 70.937390327201882 ], [ -8.855708241841739, 70.936961054709059 ], [ -8.861488223302558, 70.936102748043396 ], [ -8.868187666227414, 70.934772371947702 ], [ -8.872587919496368, 70.933593153900944 ], [ -8.887380241904339, 70.926596164881289 ], [ -8.888044714991281, 70.926375151092685 ], [ -8.898063540299859, 70.924395441996296 ], [ -8.903571367124528, 70.919874549171226 ], [ -8.904247880335049, 70.919674635276465 ], [ -8.920726657309046, 70.917863845839918 ], [ -8.930828809301829, 70.916193247220832 ], [ -8.9372102024887, 70.914338827175413 ], [ -8.939250469233571, 70.91235697229672 ], [ -8.943684816700738, 70.91172695133784 ], [ -8.944471955515951, 70.911340713203401 ], [ -8.941817641570594, 70.904806971264804 ], [ -8.978248238764991, 70.897803544898125 ], [ -8.980142831526166, 70.892629623758353 ], [ -8.988275647203068, 70.887669444489518 ], [ -8.991973877092505, 70.880759239147721 ], [ -8.998849272375651, 70.877218365435255 ], [ -9.026307344308179, 70.874744653343015 ], [ -9.034861564309494, 70.876144409436989 ], [ -9.04566502562011, 70.87627875825811 ], [ -9.050255775083428, 70.877761006465306 ], [ -9.061864614360161, 70.874674558384299 ], [ -9.067322016197977, 70.872006058532889 ], [ -9.072898268839822, 70.867364048611904 ], [ -9.077085971839836, 70.863303542125124 ], [ -9.077136039796187, 70.86032474019467 ], [ -9.07068753200366, 70.855746745815878 ], [ -9.042127847222275, 70.844324827029283 ], [ -9.038599609883818, 70.839843749889184 ], [ -9.041845679534219, 70.834630966346225 ], [ -9.039634347346805, 70.830664038814689 ], [ -9.042630552957462, 70.829629778891302 ], [ -9.032522320648241, 70.825613141333463 ], [ -9.031880617496199, 70.825409531224949 ], [ -9.004734515884707, 70.82482326048526 ], [ -8.994731068983299, 70.822861671828946 ], [ -8.99452531309251, 70.822861552219308 ], [ -8.979925156020727, 70.824775218701376 ], [ -8.961669444588836, 70.829254269668837 ], [ -8.936262011282508, 70.83246231058726 ], [ -8.937718868031084, 70.834249138487394 ], [ -8.928085327575502, 70.842002033767187 ], [ -8.919228554054257, 70.845145940433213 ], [ -8.909673214147119, 70.846318960351766 ], [ -8.90624237068846, 70.84551250949491 ], [ -8.902367234260169, 70.851068258493456 ], [ -8.89705824843935, 70.853821754170866 ], [ -8.881558418585882, 70.856583357236389 ], [ -8.876887560212367, 70.858550906599277 ], [ -8.853773116635693, 70.862764954339298 ], [ -8.8408285377065, 70.863267541364451 ], [ -8.825878739511836, 70.86649405975345 ], [ -8.82063496083461, 70.866373300587298 ], [ -8.814431667587087, 70.865000605993231 ], [ -8.812251925885448, 70.863034724872762 ], [ -8.804960727255633, 70.862403154382264 ], [ -8.808070659333168, 70.86328184598068 ], [ -8.803830265953707, 70.865214824504591 ], [ -8.806833624771627, 70.872091055257926 ], [ -8.798117518708239, 70.876348733607358 ], [ -8.792760014462942, 70.882551074472445 ], [ -8.782379031266942, 70.886720061681586 ], [ -8.770209551029552, 70.889455556528759 ], [ -8.770522355921685, 70.890524268580407 ], [ -8.764728308164536, 70.890998839924691 ], [ -8.768879056223227, 70.892720222360822 ], [ -8.754324555034003, 70.90094864406484 ], [ -8.745719670825792, 70.903015136839059 ], [ -8.737406372905411, 70.903710364941531 ], [ -8.734607100836968, 70.903012514416247 ], [ -8.731262564415545, 70.908007979484694 ], [ -8.724644422901463, 70.910249233015918 ], [ -8.72545957559862, 70.914975165871624 ], [ -8.721650958424789, 70.915447950262831 ], [ -8.717899680225798, 70.914555549399211 ], [ -8.716870665148747, 70.916876673519852 ], [ -8.705477356494612, 70.920680403777908 ], [ -8.700809956014382, 70.926057457485797 ], [ -8.628790855313412, 70.945257067659696 ], [ -8.578013538993332, 70.955623149988384 ], [ -8.490723967936333, 70.968160629209876 ], [ -8.445227265625533, 70.971286416335261 ], [ -8.414408326482771, 70.972838401571238 ], [ -8.402433872324934, 70.972881317219333 ], [ -8.400723338410955, 70.972494959474972 ], [ -8.397415756931423, 70.96812546212044 ], [ -8.389536977249406, 70.964641451641853 ], [ -8.386411666764616, 70.964659572081757 ], [ -8.382838367995987, 70.968508601190962 ], [ -8.377826929169146, 70.968675613388825 ], [ -8.370902180890539, 70.967161059735133 ], [ -8.370135545718654, 70.97099483004763 ], [ -8.342798471272204, 70.975504278999551 ], [ -8.340727329002789, 70.974383354108511 ], [ -8.335068464637516, 70.975112914729493 ], [ -8.320197820272824, 70.974383354108511 ], [ -8.307169437119512, 70.975584864550228 ], [ -8.301378965066931, 70.977301478780475 ], [ -8.298698544701779, 70.976318121384168 ], [ -8.274898409433774, 70.981231570080951 ], [ -8.197976350627869, 70.988913655441138 ], [ -8.127041339486027, 70.998158454948765 ], [ -8.116330504748476, 70.9972443579409 ], [ -8.102594972080084, 70.999659180626878 ], [ -8.070520877935792, 71.00270736255473 ], [ -8.047647357339429, 71.002191067164119 ], [ -8.006663322653878, 71.011429905965656 ], [ -7.990885854098508, 71.01643991487029 ], [ -7.987427711719306, 71.018833756372914 ], [ -7.982866167739076, 71.036310076649102 ], [ -7.997382163555812, 71.064297556987071 ], [ -7.994899749623556, 71.071028709107736 ], [ -7.998604178539608, 71.084461212515095 ], [ -7.991432309153424, 71.100289344378155 ], [ -7.992025613490796, 71.112012743793031 ], [ -7.975598454904514, 71.120080947677764 ], [ -7.970955252482668, 71.128234743638671 ], [ -7.942833423323464, 71.135444640857656 ], [ -7.930012464303502, 71.142777443024727 ], [ -7.930884956874934, 71.145133852945065 ], [ -7.931951045603967, 71.145830154837824 ], [ -7.949906468008862, 71.156129836622796 ], [ -7.952283144151693, 71.157158375059254 ], [ -7.964532017438387, 71.159219145447366 ] ] ] ] } }
]
}
